"location__lat","location__lng","telephone","detail","address","uid","name","street_id"
"39.859683","116.455751","","1","丰台区分钟寺关家坑7号","86ad1bfa4cc709a0c2f1cf5e","万盛家园","86ad1bfa4cc709a0c2f1cf5e"
"39.861161","116.456033","","1","南苑乡分钟寺村","3d4cd89cd8255737abf72978","诚同成公寓","3d4cd89cd8255737abf72978"
"39.856303","116.454303","","1","成寿寺中街关家坑206号","3915ec93940cad4695f08ce6","大智公寓","3915ec93940cad4695f08ce6"
"39.861354","116.463563","","1","分钟寺枣林街甲6号","8e59f19d210e3bcf0d0e6b59","金色大地公寓","8e59f19d210e3bcf0d0e6b59"
"39.857929","116.462601","(010)87667048","1","分钟寺地铁站B东北口东150米","d9fa0d33027ab0d625d2bbd7","恒源祥社区","d9fa0d33027ab0d625d2bbd7"
"39.854853","116.469757","(010)87695792","1","吕营大街6号","40e422e0e3c55610581093e8","北京金宝鼎白领公寓","40e422e0e3c55610581093e8"
"39.857742","116.46761","(010)87691900","1","东四道口A-09","4abcf6c777a13065f7b91612","万聚公寓","4abcf6c777a13065f7b91612"
"39.858259","116.466376","","1","北京市丰台区东四道口A-06号","a79ec3b7e38334d27c29bd48","华盛公寓","a79ec3b7e38334d27c29bd48"
"39.85812","116.470288","","1","吕营大街西150米","6d5c0a73818e2349eb12e4f5","分钟寺新村","6d5c0a73818e2349eb12e4f5"
"39.857474","116.464958","(010)59423657","1","北京北京东四道口03-29号","5dc1b82a76bbd979b13c8168","顺鑫公寓","5dc1b82a76bbd979b13c8168"
"39.857134","116.467144","13001146540","1","北京市丰台区东四道口03-10","a2aecd706b9f62aead0457ec","万和公寓","a2aecd706b9f62aead0457ec"
"39.856605","116.467168","","1","南三环分钟寺村","14076deea7c5edf402294fd7","永盛豪华公寓","14076deea7c5edf402294fd7"
"39.858796","116.465576","(010)87696940","1","分钟寺枣林街","abe9ef340941eb19364aaee3","首阳公寓","abe9ef340941eb19364aaee3"
"39.8578","116.4664","(010)57163030","1","北京市丰台区东四道口a-01号","17b37273e1dbe93b43e192b2","聚鑫公寓","17b37273e1dbe93b43e192b2"
"39.856878","116.467148","(010)87166788","1","北京北京市丰台区东四道口03-09","9bfa03e4ed4f86f5b14c4973","华坤公寓(二部)","9bfa03e4ed4f86f5b14c4973"
"39.858188","116.481808","","1","厂桥","9e1e103476a9e2fdf4eafcc4","爱民小区","9e1e103476a9e2fdf4eafcc4"
"39.855714","116.478407","","1","吕家营村东166号","8aecdb9ada902037fb22131a","众诚廉租房","8aecdb9ada902037fb22131a"
"39.861319","116.475289","","1","吕营大街附近","09bd2a3451cbdc6bbb17e78c","长会公寓","09bd2a3451cbdc6bbb17e78c"
"39.857076","116.482063","","1","厂桥","b1fb01cffcb1989c3f9a5e7f","爱民小区-南门","b1fb01cffcb1989c3f9a5e7f"
"39.860209","116.48321","13401005555","1","大洋路海鲜批发市场西区二排1号(爱民小区东北)","4bddae38818b11fcc72ba106","京连发海产(爱民小区东北)","4bddae38818b11fcc72ba106"
"39.860284","116.48343","(010)67481390","1","大洋路海鲜批发市场西区三排9","78edd140a7d475aecafa5f3d","余记水产(爱民小区东北)","78edd140a7d475aecafa5f3d"
"39.859652","116.483255","","1","大洋路海鲜批发市场西区七排3号(爱民小区东北)","026d737d7f050498601809a5","华笋海产(爱民小区东北)","026d737d7f050498601809a5"
"39.86076","116.490862","","1","北京市朝阳区彩宣五金市场B栋","e53199d2b12a45a72fb17e96","彩宣五金市场B栋","e53199d2b12a45a72fb17e96"
"39.861071","116.489761","","1","北京市朝阳区彩宣五金市场A栋","8a843cab10afce96ca09f0fc","彩宣五金市场A栋","8a843cab10afce96ca09f0fc"
"39.860291","116.499875","","1","北京市朝阳区","446fe964caf00176c7f0252b","安民学校小武基小区","446fe964caf00176c7f0252b"
"39.85909","116.494529","","1","北京市朝阳区朝龙五金A座①","47831be89827923371210b73","朝龙五金A座①","47831be89827923371210b73"
"39.862036","116.509666","","1","北京市朝阳区","a5ee1579b8732d6a95ca07c9","翠成馨园-421号楼","1440f11e978ca20c09b93a79"
"39.858961","116.513002","","1","北京市朝阳区武基街","8b3b69df8ec8dfbac26c14d0","垡头翠城馨园南区","8b3b69df8ec8dfbac26c14d0"
"39.852689","116.513763","","1","武基路绿竹家园8号楼","8fa0d5f09f7e7211c17da28b","绿竹家园加-8楼","8fa0d5f09f7e7211c17da28b"
"39.861217","116.523915","(010)67372236","1","垡头武基路","c123adda6ed3957b83a00c70","金辉小区","c123adda6ed3957b83a00c70"
"39.860048","116.523292","13521645023","1","十八里店乡西直河村武基路","3ce3653453ae1a63373a715c","建华小区","3ce3653453ae1a63373a715c"
"39.852601","116.515959","","1","东南郊灌渠与老君堂中路交叉口南","699dbceae2b8102f30169ba0","绿洲家园","699dbceae2b8102f30169ba0"
"39.858695","116.521854","","1","武基路建华小区(沙县小吃南行30米路东)","c2b0bdc9c413b3113913fd50","东方家园","c2b0bdc9c413b3113913fd50"
"39.861065","116.520793","","1","垡头东路附近","eb43c73d4d293c38eb12e47b","垡头南里六号院","eb43c73d4d293c38eb12e47b"
"39.85951","116.522422","(010)87572039,13681181332","1","武基路附近","0587ad7f69b1848bfea778f7","吉祥家园","0587ad7f69b1848bfea778f7"
"39.856426","116.522109","15011576368","1","年庄路华良公寓附近","3640e64d7fa3ef5fa8f729d1","华良公寓","3640e64d7fa3ef5fa8f729d1"
"39.860767","116.520317","","1","北京市垡头东路附近","e64024b34f86025ba204641c","垡头南里","e64024b34f86025ba204641c"
"39.856623","116.51949","(010)67209199","1","西直河村年庄","fb4fab300d7f7203c42ba14a","宝隆公寓","fb4fab300d7f7203c42ba14a"
"39.857252","116.521354","","1","西直河村16号","5ecf839bf19219ce246e98a1","武基路75号院","5ecf839bf19219ce246e98a1"
"39.862214","116.533814","","1","北京市朝阳区双合中路3号(北京工业技师学院对面)","42a18ee5de4ca36ca21de9db","双合小区","42a18ee5de4ca36ca21de9db"
"39.856922","116.525172","","1","十八里店","b75917dfb650b24f9d95de86","四季旺小区","b75917dfb650b24f9d95de86"
"39.856845","116.525262","","1","年庄街104号附近","f653692ba1bb90e4461a324d","四季旺小区-南门","f653692ba1bb90e4461a324d"
"39.856661","116.524281","","1","西直河村104","161f0c35ac9ded5b17c8f644","福兰德超市(金辉小区南)","161f0c35ac9ded5b17c8f644"
"39.855175","116.536855","","1","西直河村452","7d7fa9322e881a670aa8d48a","嘉和青年公寓","7d7fa9322e881a670aa8d48a"
"39.860786","116.559689","(010)87309999","1","北京市朝阳区豆各庄乡黄厂村黄厂路","fcd4645d003838dd441a329a","恒大御景湾","fcd4645d003838dd441a329a"
"39.857041","116.571569","","1","天达路朝丰家园6号院底商","37b6d4014a7f7be6373a7177","朝丰家园","37b6d4014a7f7be6373a7177"
"39.853055","116.564442","","1","黄厂南里3号院","a5ef680fa8cc43aab9df8fcd","富力又一城-C区","a5ef680fa8cc43aab9df8fcd"
"39.853115","116.572563","","1","黄厂南里1号院","8fa14fc3e014c86ef6eafc96","富力又一城A区","8fa14fc3e014c86ef6eafc96"
"39.853117","116.56889","","1","北京市朝阳区富力又一城南","f696f3c2de8c5d961b11d52f","富力又一城-B区","f696f3c2de8c5d961b11d52f"
"39.85301","116.568822","","1","北京市朝阳区大鲁店北路","a127e6e100db744eafee7a60","黄厂南里2号院","a127e6e100db744eafee7a60"
"39.858156","116.572423","","1","北京市朝阳区朝丰家园13号楼","5ae57cef15d5edcc2a02e164","朝丰家园-13号楼","5ae57cef15d5edcc2a02e164"
"39.8527","116.567285","","1","北京市朝阳区富力又一城B区10号楼","6d7928a119b9e1e245e27433","富力又一城B区-10号楼","6d7928a119b9e1e245e27433"
"39.856438","116.571199","","1","北京市朝阳区","5473ddb20c5c668e9222e0d0","朝丰家园-东区","5473ddb20c5c668e9222e0d0"
"39.853633","116.571652","","1","北京市朝阳区富力.又一城A区8号楼","37216495af3773a508f5ebc3","富力.又一城A区-8号楼","37216495af3773a508f5ebc3"
"39.855962","116.571467","","1","北京市朝阳区朝丰家园18号楼","e0cf80ab8f0b2a93704b87cf","朝丰家园-18号楼","e0cf80ab8f0b2a93704b87cf"
"39.869596","116.459524","","1","北京市朝阳区南三环东路","ebd2ff1da45ce069b5147f39","王家大院公寓","ebd2ff1da45ce069b5147f39"
"39.862397","116.462798","","1","丰台区分钟寺周家庄路143号","a87d11ef3d1bc109715e800f","华福公寓","a87d11ef3d1bc109715e800f"
"39.86246","116.458578","","1","北京市丰台区分钟寺199号","0804bb05dfa3eba3d42ce242","啤酒花园","0804bb05dfa3eba3d42ce242"
"39.863608","116.463254","","1","周家庄路附近","ac3ce7a6acd0a2b38e55eca7","朋利轩公寓","ac3ce7a6acd0a2b38e55eca7"
"39.871994","116.481147","","1","十里河弘燕路、四方桥南","8c6dd68c78fbbf3dd8d891d6","周庄嘉园","8c6dd68c78fbbf3dd8d891d6"
"39.868234","116.481523","","1","北京市朝阳区西大望南路与小武基路交口西北侧","08f1f1f5adc93aca89db7394","周庄嘉园-C区","08f1f1f5adc93aca89db7394"
"39.866282","116.474633","","1","朝阳区十里河大羊坊路79号","03a4555d5eaa622c4d5547c7","东盈苑小区","03a4555d5eaa622c4d5547c7"
"39.866386","116.480173","","1","北京市朝阳区周庄嘉园南里14号楼","1e81dd1ec01ff97fce04eff2","周庄嘉园南里-14号楼","1e81dd1ec01ff97fce04eff2"
"39.868784","116.482435","","1","北京市朝阳区周庄嘉园C区21号楼","5d765be0f413cdd94e776e9d","周庄嘉园C区-21号楼","5d765be0f413cdd94e776e9d"
"39.866583","116.482737","","1","周庄嘉园南里15号楼","ee067c00bd2f52360c0a7082","周庄嘉园南里-5号楼","ee067c00bd2f52360c0a7082"
"39.868384","116.482586","","1","北京市朝阳区周庄嘉园C区22号楼","d0e35380bb027ea59b68b494","周庄嘉园C区-22号楼","d0e35380bb027ea59b68b494"
"39.869961","116.481563","","1","北京市朝阳区周庄嘉园C区17号楼","afcf73659ed6e6181811d567","周庄嘉园C区-17号楼","afcf73659ed6e6181811d567"
"39.869193","116.479569","","1","北京市朝阳区周庄嘉园C区28号楼","b2ae5bc44924828d583ac843","周庄嘉园C区-28号楼","b2ae5bc44924828d583ac843"
"39.868045","116.482273","","1","北京市朝阳区周庄嘉园C区24号楼","73136ed31bb6182761685870","周庄嘉园C区-24号楼","73136ed31bb6182761685870"
"39.870107","116.493698","(010)87326666,(010)87327777","1","东四环南路53号","e306a90d12142fdeca213d70","林达海渔广场","e306a90d12142fdeca213d70"
"39.870467","116.484264","","1","北京市朝阳区西大望南路","2e092def0469436ac9291595","周庄三期","2e092def0469436ac9291595"
"39.869949","116.489036","","1","东南四环四路通中路12号院(近山水文园)","1562066a8aa0ad9ab8bd6373","建工家园","1562066a8aa0ad9ab8bd6373"
"39.867079","116.484165","","1","北京市朝阳区西大望南路","d63cb3fb21ce88ce8e7727be","周庄三期-B区","d63cb3fb21ce88ce8e7727be"
"39.872015","116.491744","","1","北京市朝阳区山水文园东园14号楼","cddc4467925cb0a1fb2213d4","山水文园东园-14号楼","cddc4467925cb0a1fb2213d4"
"39.86993","116.48901","","1","北京市朝阳区建工家园2号楼","cd512de00cb387711b94c6f1","建工家园-2号楼","cd512de00cb387711b94c6f1"
"39.872111","116.490768","","1","北京市朝阳区山水文园东园15号楼","87afedd42d41384843afe6be","山水文园·东园-15号楼","87afedd42d41384843afe6be"
"39.869644","116.489531","","1","北京市朝阳区建工家园1号楼","06882676c322c9c2b65f1e43","建工家园-1号楼","06882676c322c9c2b65f1e43"
"39.870305","116.48936","","1","北京市朝阳区建工家园4号楼","9d09312ff1680859fa42b24a","建工家园-4号楼","9d09312ff1680859fa42b24a"
"39.86645","116.484377","","1","北京市朝阳区彩宣五金市场N栋","93577a5c60ea8687c61e5120","彩宣五金市场N栋","93577a5c60ea8687c61e5120"
"39.869607","116.494987","","1","十八里店","bbcf49189eb8905241d63e89","欢乐谷公寓1号院","bbcf49189eb8905241d63e89"
"39.869676","116.501123","","1","北京市朝阳区朝龙小武基不锈钢市场C区","871f57fac7de1b4ebd48425b","朝龙小武基不锈钢市场-C区","871f57fac7de1b4ebd48425b"
"39.86926","116.502449","","1","小武基路甲1号附近","d84aac25e4e583230b1cc759","朝龙小武基不锈钢市场-E区","d84aac25e4e583230b1cc759"
"39.869365","116.500308","","1","北京市朝阳区朝龙小武基不锈钢市场G区","8a88cd601dd8b0be11882459","朝龙小武基不锈钢市场-G区","8a88cd601dd8b0be11882459"
"39.868848","116.502369","","1","小武基路甲1号附近","af36b46aea8645cc04fef5b1","朝龙小武基不锈钢市场-H区","af36b46aea8645cc04fef5b1"
"39.86929","116.501849","","1","小武基路东150米朝龙不锈钢市场附近","5462969dd7ece0486ca3cced","朝龙小武基不锈钢市场-F区","5462969dd7ece0486ca3cced"
"39.862759","116.513168","","1","京沈高速东四环第一出口往南800米","0900acd7bc0d9e3528201aa4","翠成馨园","0900acd7bc0d9e3528201aa4"
"39.868721","116.509046","","1","北京市朝阳区华侨城b区","c9b7732fd5de3bc8b5f42fc9","金蝉南里","c9b7732fd5de3bc8b5f42fc9"
"39.872004","116.510586","","1","北京市朝阳区金蝉欢乐园2号","2cc3c8e8253da6d64c2fdf96","北京·华侨城A区-2号院","2cc3c8e8253da6d64c2fdf96"
"39.872174","116.513642","","1","北京市朝阳区金蝉里17号楼","b703e96bd3dc46fb8f1a89e4","金蝉里","b703e96bd3dc46fb8f1a89e4"
"39.871878","116.513532","","1","北京市朝阳区金蝉里16号楼","63d9802573be2be4adee7a64","金蝉里-16号楼","63d9802573be2be4adee7a64"
"39.868938","116.510685","","1","北京市朝阳区金蝉南里12号楼","89de015872b56092b45f1eb8","金蝉南里-12号楼","89de015872b56092b45f1eb8"
"39.868632","116.508698","","1","北京市朝阳区金蝉南里西区7号楼","879b0ef7ef2ca028931fc9ee","金蝉南里-7号楼","879b0ef7ef2ca028931fc9ee"
"39.868214","116.5076","","1","北京市朝阳区金蝉南里西区3号楼","57caaa191d9c37c67dc87622","金蝉南里-3号楼","57caaa191d9c37c67dc87622"
"39.864744","116.507742","","1","北京市朝阳区垡头翠成馨园327号楼","eac036d0a52c555cd1f49e5f","垡头翠成馨园-327号楼","eac036d0a52c555cd1f49e5f"
"39.866658","116.507363","","1","北京市朝阳区垡头翠成馨园322号楼","d52dec830ea65cb27ab55c6e","垡头翠成馨园-322号楼","d52dec830ea65cb27ab55c6e"
"39.870718","116.519582","","1","东四环四方桥南1公里垡头","15e1e85e3f3d0ddf59109386","垡头西里","15e1e85e3f3d0ddf59109386"
"39.865965","116.524067","","1","化工路与垡头东路交叉口北50米","a12baa40e085da56e956fa96","垡头东里社区","a12baa40e085da56e956fa96"
"39.869817","116.516132","","1","北京市朝阳区垡头路垡头西里三区垡头三区","c7eca12b5b4ed637e015f996","垡头西里-三区","c7eca12b5b4ed637e015f996"
"39.868993","116.51957","","1","北京市朝阳区垡头西里43号楼","8737930bfe27c9e2ea1e9705","垡头西里-43号楼","8737930bfe27c9e2ea1e9705"
"39.863029","116.517853","","1","北京市朝阳区南磨房","373cf757e815ac134354d7e1","垡头翠城盛园社区","373cf757e815ac134354d7e1"
"39.870157","116.51878","","1","北京市朝阳区垡头西里18号楼","55939798fe9ffca1157643d1","垡头西里-18号楼","55939798fe9ffca1157643d1"
"39.863722","116.51695","","1","北京市朝阳区垡头翠城盛园119号楼","81e3ecf665b6fd3d2efaa7f3","垡头翠成馨园-119号楼","81e3ecf665b6fd3d2efaa7f3"
"39.862569","116.516783","","1","北京市朝阳区垡头翠城盛园126号楼","4cd3564d1d253eb43686f472","垡头翠成馨园126号楼","4cd3564d1d253eb43686f472"
"39.868861","116.517483","","1","北京市朝阳区垡头西里32号楼","6807da1fadb3b7d0eddfcaea","垡头西里-32号楼","6807da1fadb3b7d0eddfcaea"
"39.867902","116.514396","","1","北京市朝阳区垡头西里三区17号楼","cd414efa0232c7b44207c184","垡头西里三区-17号楼","cd414efa0232c7b44207c184"
"39.869746","116.530224","","1","北京市朝阳区垡头北路甲8号","09483bec2f708d56931fc933","腾顺新区","09483bec2f708d56931fc933"
"39.867265","116.526197","","1","垡头东里4号","2af7d6c2caa8c6f5cc06a481","北京华德金属包装容器有限公司(铁路小区东北)","2af7d6c2caa8c6f5cc06a481"
"39.863764","116.524193","","1","北京市朝阳区","cfc27afa28b2ea947c29bddc","吉祥里小区-东门","cfc27afa28b2ea947c29bddc"
"39.870296","116.543371","","1","孛罗营村4号","3a48a9035ae808111c3894f9","孛罗公寓","3a48a9035ae808111c3894f9"
"39.871256","116.565924","","1","朝阳京沈高速路豆各庄出口（豆各庄六号院）","1fef97aca9240ff11188246d","京城雅居","1fef97aca9240ff11188246d"
"39.869125","116.566325","","1","京城雅居南门附近","f2f15ffb6fc2f9f5631c67cb","豆各庄一号院","f2f15ffb6fc2f9f5631c67cb"
"39.881271","116.454956","","1","北京市朝阳区潘家园南里25号楼","dbf4d6ee412f4b2a6ea3cc95","嘉禾园小区","dbf4d6ee412f4b2a6ea3cc95"
"39.879561","116.460144","","1","北京市朝阳区华威西里16号","550fd5f9fd056179921fc995","华威西里社区","550fd5f9fd056179921fc995"
"39.875223","116.461625","","1","北京市朝阳区弘善家园114号","6657a30b53d077bf28b97c20","弘善家园-114号楼","6657a30b53d077bf28b97c20"
"39.875269","116.460344","","1","北京市朝阳区华威南路弘善家园315号","caf2cfef652af073b5147f88","弘善家园-315号楼","caf2cfef652af073b5147f88"
"39.875437","116.461984","","1","北京市朝阳区华威南路弘善家园116号","eb1c080fa7e7941c0e3ddaab","弘善家园-116号楼","eb1c080fa7e7941c0e3ddaab"
"39.873512","116.46043","","1","北京市朝阳区弘善家园211号","3120be8a7731eb6fa2a9342a","弘善家园-211号楼","3120be8a7731eb6fa2a9342a"
"39.873148","116.46169","","1","北京市朝阳区华威南路弘善家园213号","7057e1917e9f37674f3a5985","弘善家园-213号楼","7057e1917e9f37674f3a5985"
"39.873324","116.462019","","1","北京市朝阳区华威南路弘善家园215号","2695b20544b12093b2077dee","弘善家园-215号楼","2695b20544b12093b2077dee"
"39.874278","116.460497","","1","北京市朝阳区弘善家园206号","9ae81847f3d7fb9af60e7770","弘善家园-206号楼","9ae81847f3d7fb9af60e7770"
"39.874344","116.461585","","1","北京市朝阳区华威南路弘善家园204号","391572fc24600e6aeb56fa3b","弘善家园-204号楼","391572fc24600e6aeb56fa3b"
"39.879503","116.471176","","1","北京市朝阳区松榆西里65号","a5097bfadf918c1df03cba72","松榆西里社区","a5097bfadf918c1df03cba72"
"39.874361","116.469251","(010)87312837","1","北京市朝阳区首图东路5号东三环华威桥东南角","e05a2442391dcce231870aa3","御景园","e05a2442391dcce231870aa3"
"39.873289","116.469407","(010)67641955","1","十八里店东三环弘燕路10号","a339a16f8ff60197fadc855c","德元九和大厦","a339a16f8ff60197fadc855c"
"39.872607","116.472053","(010)67353355","1","北京市朝阳区东三环十里河弘燕路","4edf9fbff0fe1394cd06a495","山水文园-西园","4edf9fbff0fe1394cd06a495"
"39.878774","116.466138","","1","东三环潘家园桥西南角200米，紧邻北京古玩城","3782b7929ab5f3240f0a7033","翌景嘉园","3782b7929ab5f3240f0a7033"
"39.875711","116.465142","","1","北京市朝阳区华威南路1～3号","bff8fa7d16e3f2a0c9213d95","华辉苑","bff8fa7d16e3f2a0c9213d95"
"39.879424","116.466218","","1","华威里临5号","9ee7cc78f2d5bf7017c90595","百环花园","9ee7cc78f2d5bf7017c90595"
"39.875149","116.473501","","1","北京朝阳区南新园中路芳华苑108号楼802","dffd631cd75ce8bc39221c95","方华苑小区","dffd631cd75ce8bc39221c95"
"39.876461","116.471209","","1","松榆南路52号院","722f1160270a4bf202294f29","汉华苑","722f1160270a4bf202294f29"
"39.875355","116.471691","(010)87318868,(010)87328858","1","朝阳区南新园西路6号（东三环华威桥东辅路出口南200米）","ff3fcc60f612593e82a12e43","香榭舍","ff3fcc60f612593e82a12e43"
"39.87526","116.476626","","1","北京市朝阳区松榆南路38号","1eeed5464a05e18cb5147fe2","美景东方小区","1eeed5464a05e18cb5147fe2"
"39.875026","116.482805","","1","北京市朝阳区南磨房乡松榆南路南新园","a5ef680fb40f2fd7b8df8f95","南新园小区","a5ef680fb40f2fd7b8df8f95"
"39.878855","116.481461","","1","北京市朝阳区松榆里4号楼","43b7e8899348476a59f6be95","松榆东里小区","43b7e8899348476a59f6be95"
"39.880087","116.476749","","1","松榆东里","b3aa435d4de6850b14764394","松榆里社区","b3aa435d4de6850b14764394"
"39.873025","116.482783","","1","弘燕路与西大望南路交叉口南200米","b7021bf8f42e32faf5e73b95","弘燕路小区","b7021bf8f42e32faf5e73b95"
"39.872557","116.479591","","1","北京市朝阳区西燕东街","fc767524af4317fa4f776e94","周庄嘉园-B区","fc767524af4317fa4f776e94"
"39.880613","116.479275","","1","北京市朝阳区松榆东里37号","7ecfb8dc2d9df8eddbd89173","松榆东里-37号楼","7ecfb8dc2d9df8eddbd89173"
"39.880143","116.481539","","1","松榆东里5号","3f4e723f45eef3b0922ca384","松榆东里-5号楼","3f4e723f45eef3b0922ca384"
"39.877488","116.478418","","1","北京市朝阳区松榆里18号","a8a14aff0bed53c52e473376","松榆里-18号楼","a8a14aff0bed53c52e473376"
"39.873975","116.476109","","1","北京市朝阳区松榆南路38号院16号","ba7e12f89d7c07769c09f7f2","松榆南路38号院16号楼","ba7e12f89d7c07769c09f7f2"
"39.875338","116.486291","","1","双龙南里207","81d6a5094af6ce406f20b995","双龙南里小区","81d6a5094af6ce406f20b995"
"39.875157","116.488731","","1","朝阳区南磨房(近工业大学)","90d729a53d8142b4077ce896","双龙小区","90d729a53d8142b4077ce896"
"39.876078","116.484272","","1","北京市朝阳区双龙南里204号楼","a568a4e35c8b1137f423106a","双龙南里-204号楼","a568a4e35c8b1137f423106a"
"39.873949","116.48481","","1","弘燕东路双龙南里小区西区(南门)附近","e9ba8f421225567026d2bbf1","双龙南里西区-218号楼","e9ba8f421225567026d2bbf1"
"39.874624","116.484817","","1","弘燕东路双龙南里小区西区(南门)附近","0bacb447012725d1f7b916e8","双龙南里-216号楼","0bacb447012725d1f7b916e8"
"39.875949","116.485959","","1","双龙南里小区西区附近","e5f7e8cf1c503343d1f49ee8","双龙南里-210号楼","e5f7e8cf1c503343d1f49ee8"
"39.876594","116.48491","","1","北京市朝阳区双龙南里205号楼","ead0dd213ebb6d67f82d6148","双龙南里西区-205号楼","ead0dd213ebb6d67f82d6148"
"39.874628","116.487689","","1","北杨庄路双龙南里小区西区(东二门)附近","2b005a7e52ec364f5e17c3a1","双龙南里西区-228号楼","2b005a7e52ec364f5e17c3a1"
"39.875356","116.486574","","1","北京市朝阳区双龙南里207号","e6ec84b368e147389122e05c","双龙南里-西区","e6ec84b368e147389122e05c"
"39.874254","116.486288","","1","北京市朝阳区双龙南里220号楼","712b2c714732461904fef541","双龙南里西区-220号楼","712b2c714732461904fef541"
"39.880915","116.501994","","1","北京市朝阳区东四环四方桥东北角","28e700f1e0f7c201085cb395","世纪东方嘉园","28e700f1e0f7c201085cb395"
"39.88081","116.498965","","1","北京市朝阳区世纪东方嘉园南区202号楼","cccf3c2d42c3c46f82a12e71","世纪东方嘉园-202号楼","cccf3c2d42c3c46f82a12e71"
"39.878819","116.501366","","1","北京市朝阳区世纪东方嘉园208号楼","bd8181c11fc4dae40c0a7096","世纪东方嘉园-208号楼","bd8181c11fc4dae40c0a7096"
"39.881418","116.502004","","1","北京市朝阳区世纪东方嘉园南区209号楼","7fcb1d22b9761491b35c6af8","世纪东方嘉园-209号楼","7fcb1d22b9761491b35c6af8"
"39.878937","116.501308","","1","北京市朝阳区东四环中路18-1号","eef2d528bd1f46a43be4a6f8","远景","eef2d528bd1f46a43be4a6f8"
"39.873732","116.509488","(010)67379999","1","北京市朝阳区金蝉北路","dffd631c857db6bd39221cb5","华侨城","dffd631c857db6bd39221cb5"
"39.880793","116.504456","","1","朝阳京沈与东四环交界东北处四方桥东欢乐谷的北侧","befdb29252675d9f871541cd","紫南家园小区","befdb29252675d9f871541cd"
"39.874532","116.509832","","1","北京市朝阳区金蝉北路","c8e8f633b264766caa0dd896","北京华侨城A区-1号院","c8e8f633b264766caa0dd896"
"39.873011","116.512785","(010)67365131","1","朝阳东金蝉里22号院2-11","3e09cc5e3e757a9e05fef57a","格林莱雅","3e09cc5e3e757a9e05fef57a"
"39.873372","116.509172","","1","北京市朝阳区金蝉北路","996053cc7ccca6900aa8d4f5","金蝉欢乐园2号院","996053cc7ccca6900aa8d4f5"
"39.87244","116.514118","","1","北京市朝阳区金蝉里20号楼","14ecd9a326a34610ebe582c7","金蝉里-20号楼","14ecd9a326a34610ebe582c7"
"39.873033","116.51091","","1","北京市朝阳区北京华侨城A区2号院8号楼","3a6866c412dbffceda2f283a","北京华侨城A区2号院-8号楼","3a6866c412dbffceda2f283a"
"39.873926","116.509722","","1","北京市朝阳区金蝉北路","3aebdb60adc395934251c016","金蝉欢乐园1号院","3aebdb60adc395934251c016"
"39.873552","116.509871","","1","厚金路与金蝉北路交叉口西150米","63dda82891194672eaf853d7","金蝉欢乐园","63dda82891194672eaf853d7"
"39.875636","116.512746","","1","北京市朝阳区金蝉北里11号楼","118776f1d5554ca488f15d35","金蝉北里-11号楼","118776f1d5554ca488f15d35"
"39.874785","116.514235","","1","北京市朝阳区金蝉北里11号楼","709d084d19db3f1c077ce8d3","北京焦化厂金蝉北里小区","709d084d19db3f1c077ce8d3"
"39.874161","116.518211","","1","北京市朝阳区欢乐谷垡头华侨城金蝉北里","1cea15a9d51e0ec506fef596","垡头北里小区","1cea15a9d51e0ec506fef596"
"39.873361","116.514258","","1","北京市朝阳区金蝉里19号楼","1b66bbce6b0ba3f2740269b3","金蝉里-19号楼","1b66bbce6b0ba3f2740269b3"
"39.875624","116.516285","","1","金蝉北里21号院8","48eb0058d52fd3d12ee67bb5","金蝉北里-21号院","48eb0058d52fd3d12ee67bb5"
"39.872923","116.515619","","1","北京市朝阳区垡头街与金蝉路交汇处","f02d8e146383ae455f0d0296","垡头西里-二区","f02d8e146383ae455f0d0296"
"39.873104","116.518865","","1","垡头西里一区","82e7c28ad7516f1f8bb988b6","垡头西里-一区","82e7c28ad7516f1f8bb988b6"
"39.874345","116.515089","","1","北京市朝阳区金蝉北里16号楼","a6d18a3171291c32ad080f73","金蝉北里-16号楼","a6d18a3171291c32ad080f73"
"39.873951","116.515096","","1","北京市朝阳区金蝉北里15号楼","3570d26527cc34b911882464","金蝉北里-15号楼","3570d26527cc34b911882464"
"39.873333","116.517387","","1","北京市朝阳区","18692bca258355b0018972db","垡头西里一区-7号楼","18692bca258355b0018972db"
"39.872471","116.517398","","1","北京市朝阳区垡头西里一区11号楼","8ab829e5e64227368936ee80","垡头西里一区-11号楼","8ab829e5e64227368936ee80"
"39.876749","116.538992","(010)67372065","1","北京市朝阳区王四营42号","0bce0e8d0ea98370b6f42f5f","尚东公寓","0bce0e8d0ea98370b6f42f5f"
"39.877973","116.538447","","1","北京市朝阳区若邻宾馆D幢","2cf24d7d39b515d0715e80c5","北京若邻宾馆-D幢","2cf24d7d39b515d0715e80c5"
"39.877687","116.538711","","1","北京市朝阳区若邻宾馆A幢","98aece9c9d97749b2fb96d83","北京若邻宾馆-B幢","98aece9c9d97749b2fb96d83"
"39.879082","116.559621","(010)87393933","1","北京市朝阳区白鹿司路5号","e6ee2fd277a51d482a11d196","柏阳景园","e6ee2fd277a51d482a11d196"
"39.877212","116.562052","","1","北京市朝阳区东五环与京沈高速路交汇处(五方桥)东北角","da026bd1962f9a9f51e5c59c","海棠公社","da026bd1962f9a9f51e5c59c"
"39.881416","116.56011","18310055620","1","旧图书市场3栋334","beabdbf411e041987169d396","柏阳景园-A区","beabdbf411e041987169d396"
"39.879974","116.560415","","1","王四营","8ff0f5f1e69ab9b62fb90848","白鹿司路1号院","8ff0f5f1e69ab9b62fb90848"
"39.881433","116.561148","","1","白鹿司北街1号院附近","a687427a55106ef1c51b75ac","五方园林","a687427a55106ef1c51b75ac"
"39.879607","116.560046","","1","北京市朝阳区柏阳景园A区23号楼","b4a041cfeb62a7c3c72ba18e","柏阳景园A区-23号楼","b4a041cfeb62a7c3c72ba18e"
"39.877652","116.559844","","1","北京市朝阳区柏阳景园11号楼","16355f883d82928f4e554703","柏阳景园-11号楼","16355f883d82928f4e554703"
"39.880314","116.559643","","1","北京市朝阳区柏阳景园A区11号楼","f81a9cfc611fb41c6fa3cc9b","柏阳景园A区-11号楼","f81a9cfc611fb41c6fa3cc9b"
"39.87791","116.562028","","1","北京市朝阳区海棠公社57号楼","546d823bfb83eb0fc909f0a1","海棠公社-57号楼","546d823bfb83eb0fc909f0a1"
"39.876823","116.559999","","1","北京市朝阳区柏阳景园5号楼","3e66fff8d5e22d6f0c0e6b7f","柏阳景园-5号楼","3e66fff8d5e22d6f0c0e6b7f"
"39.875985","116.564838","","1","北京市朝阳区白鹿司路4号院49号楼","b3fc89975ea622c8077ce820","白鹿司路4号院49号楼","b3fc89975ea622c8077ce820"
"39.875902","116.567535","","1","双桥路与白鹿司北街交叉口南200米","eca48fefa4caf315bda822e8","金水芙蓉","eca48fefa4caf315bda822e8"
"39.888786","116.455127","","1","劲松路2号","637df60ac9e6957241afe695","劲松八区","637df60ac9e6957241afe695"
"39.891424","116.458051","(010)58768288","1","朝阳区劲松二区229号楼，光明桥东100米路北","2e00c5dd5f038f1cd6851f95","都城心屿","2e00c5dd5f038f1cd6851f95"
"39.884924","116.455665","(010)67746360,(010)67788818","1","劲松七区29号","631c4157bb0b036130f71d95","方丹苑","631c4157bb0b036130f71d95"
"39.891075","116.457082","","1","朝阳区光明桥东100米路北劲松西口","33fbfa8383e9a5c10af5eb95","劲松嘉园","33fbfa8383e9a5c10af5eb95"
"39.884824","116.460729","010-67751847","1","北京市朝阳区潘家园路与华威路交叉口西北角","7fd7231129bb87e35cbe8635","潘家园东里","7fd7231129bb87e35cbe8635"
"39.886428","116.455029","","1","朝阳东二环光明桥东潘家园劲松七区","a4f5a96bf6442e152cb96d54","劲松七区","a4f5a96bf6442e152cb96d54"
"39.89152","116.460788","","1","劲松西街与劲松路交界西北","fa835ce2bd7630b6e912e495","劲松二区","fa835ce2bd7630b6e912e495"
"39.889133","116.461219","","1","朝阳东二环光明桥东300米","cac5fc76f683638e2cb96d34","劲松四区","cac5fc76f683638e2cb96d34"
"39.886468","116.458641","","1","劲松南路以南，兆佳商场以西","251374c9d2f03c3fa01de995","劲松六区","251374c9d2f03c3fa01de995"
"39.884389","116.463991","","1","北京市朝阳区华威北里23号楼","4cfdae18209f229eef74f832","华威北里-23号楼","4cfdae18209f229eef74f832"
"39.888131","116.470815","010-67354935","1","北京市朝阳区东三环南路辅路与南磨房路交叉口东南侧","a054ca5372a78420f40e77ab","农光里小区","a054ca5372a78420f40e77ab"
"39.88901","116.465174","","1","劲松路与东三环交口西北角","5fde637a3bb22d8e40ab9a0c","劲松三区","5fde637a3bb22d8e40ab9a0c"
"39.882757","116.471541","(010)67327723","1","北京市朝阳区松榆北路7号院11号","56f2f6963dc9f1800ba8d495","建业苑","56f2f6963dc9f1800ba8d495"
"39.89095","116.471113","","1","北京市朝阳区南磨房路39号","0ce65c2dd5fbef5a2d4733f8","乐澜宝邸","0ce65c2dd5fbef5a2d4733f8"
"39.891141","116.464323","010-67738422","1","北京市朝阳区劲松10线地铁西北角","8d643cc993295b1d46e27466","劲松一区","8d643cc993295b1d46e27466"
"39.884106","116.472009","","1","劲松桥东武圣路西侧(劲松桥南200米路东)","1f9c91115ec3851fc33644d4","武圣西里小区","1f9c91115ec3851fc33644d4"
"39.884322","116.470266","","1","武圣西里28号院","2c1d902325cd3f10d518b750","紫东苑","2c1d902325cd3f10d518b750"
"39.886181","116.472969","","1","北京市朝阳区劲松武圣路农光里中社区","5c2dc21d7b477a796fc02c39","农光里中社区","5c2dc21d7b477a796fc02c39"
"39.888869","116.473043","","1","农光里102","28274a26adc0764ab6265578","农光里102号楼","28274a26adc0764ab6265578"
"39.883713","116.468808","","1","北京市朝阳区农光南里14号楼","be54cde9eecbf25879f79695","农光南里","be54cde9eecbf25879f79695"
"39.889043","116.482187","","1","北京市朝阳区南磨房路16号","65c45e59e84f4caac72ba17c","禧福汇","65c45e59e84f4caac72ba17c"
"39.887932","116.476189","","1","北京市朝阳区农光东里2","e85e2527b812635394f08c95","农光东里小区","e85e2527b812635394f08c95"
"39.887817","116.479209","","1","北京市朝阳区东三环劲松桥东，西大望路与南磨房路交叉口儿西南角儿","99b1c00d2a93c80c7069d3e4","磨房北里社区","99b1c00d2a93c80c7069d3e4"
"39.883677","116.476367","","1","武圣路","6deee3086a44396a28fc4894","武圣东里小区","6deee3086a44396a28fc4894"
"39.884013","116.480543","","1","北京市朝阳区潘家园","ff73ccd0eafd1915095cb339","磨房南里小区","ff73ccd0eafd1915095cb339"
"39.88714","116.47415","","1","北京市朝阳区农光里201号","ee4d2877b79be4c12afc4853","农光里-201号楼","ee4d2877b79be4c12afc4853"
"39.8885","116.474705","","1","北京市朝阳区农光东里29号楼","9647757676147f394afd3fa9","农光东里-29号楼","9647757676147f394afd3fa9"
"39.88791","116.474742","","1","北京市朝阳区农光东里27号楼","7fab175c62a1d6bdb64f547a","农光东里-27号楼","7fab175c62a1d6bdb64f547a"
"39.883071","116.480443","","1","松榆北路磨房南里","efb40f1c0eb43de1c27da2f4","磨二小区","efb40f1c0eb43de1c27da2f4"
"39.888382","116.475413","","1","农光东里28号","e5cd73c29cb403b66fa3cc4b","农光东里-28号楼","e5cd73c29cb403b66fa3cc4b"
"39.888247","116.488017","","1","北京市朝阳区东三环路东侧","060f5e53ca77f9a9081cc772","平乐园小区","060f5e53ca77f9a9081cc772"
"39.89142","116.493914","(010)58632782","1","北京市朝阳区南磨坊路3号院","e3621973b6f51ca09868b452","蓝山","e3621973b6f51ca09868b452"
"39.891371","116.486967","","1","西大望路27号","5ed42c81704c75c338221cf8","北京工业大学中蓝大学生社区","5ed42c81704c75c338221cf8"
"39.887627","116.485048","4001080000-11475","1","西大望路北京工业大学西门北侧100米","9606411558969711badf8f4e","鸿坤花语墅","9606411558969711badf8f4e"
"39.88569","116.487203","","1","北京市朝阳区西大望路工业大学北门","2cc3c8e8fe14f1ab4c2fdfb5","潘道庙小区","2cc3c8e8fe14f1ab4c2fdfb5"
"39.885889","116.486858","","1","北京市朝阳区潘道庙小区7号楼","c9d8d0e743af04cd94ec84a8","潘道庙小区-7号楼","c9d8d0e743af04cd94ec84a8"
"39.885461","116.486781","","1","北京市朝阳区潘道庙小区8号楼","87aace4d3700313c08f5eb1e","潘道庙小区-8号楼","87aace4d3700313c08f5eb1e"
"39.889374","116.48815","","1","北京市朝阳区平乐园小区103号楼","2da3152f3becc815c3364421","平乐园小区-103号楼","2da3152f3becc815c3364421"
"39.890757","116.486393","","1","北京市朝阳区西大望路27号","5ed8a033d607b91be812e4e4","蓝晖园","5ed8a033d607b91be812e4e4"
"39.889817","116.484555","","1","北京市朝阳区西大望路甲27号3号楼","b3cd51205278da6272210b06","西大望路甲27号院","b3cd51205278da6272210b06"
"39.884835","116.499385","","1","北京市朝阳区世纪东方城102号","2b6f18d339cf46226d20b9fa","华瀚国际","2b6f18d339cf46226d20b9fa"
"39.88339","116.500888","","1","北京市朝阳区大柳树路","c7fb04bdd1affb15fb0cad95","世纪东方嘉园北区","c7fb04bdd1affb15fb0cad95"
"39.884226","116.502301","","1","北京市朝阳区世纪东方嘉园北空小区110号楼","b2a1aa86ec462d7d1894c6d5","世纪东方嘉园北空小区","b2a1aa86ec462d7d1894c6d5"
"39.891168","116.49471","(010)67756161","1","东四环中路195号华腾新天地大厦","dc6d6063bdfcc8afb05c6a28","华腾新天地(大郊亭南街)",""
"39.889417","116.503616","","1","王四营乡管庄村唐家村","92accd1f184bdd0b2d47339f","惠东公寓","92accd1f184bdd0b2d47339f"
"39.884159","116.501505","","1","化工路西200米","65afe156d1ebe6ffd22dd6f8","世纪东方嘉园北空小区-东门","65afe156d1ebe6ffd22dd6f8"
"39.884247","116.502264","","1","化工路西200米","c04e16ca07459f92626858dc","世纪东方嘉园北空小区-110号楼","c04e16ca07459f92626858dc"
"39.883717","116.498479","","1","北京市朝阳区","cb92a6a662e0f900b64f5476","世纪东方嘉园北空小区-西2门","cb92a6a662e0f900b64f5476"
"39.883882","116.498455","","1","丰台区东四环南路辅路","3716cd8ee31e3bcab13c8147","世纪东方嘉园北空小区-停车场","3716cd8ee31e3bcab13c8147"
"39.882533","116.500253","","1","北京市朝阳区","2fdd7cfc57ffdb4f276e9836","世纪东方嘉园北空小区-南2门","2fdd7cfc57ffdb4f276e9836"
"39.882452","116.505106","","1","北京市朝阳区紫南家园北区106号楼2门101","c7eca12b38e43549e115f93b","紫南家园-北区","c7eca12b38e43549e115f93b"
"39.883545","116.507585","","1","化工路北侧","32b5f777124c351bdbeced39","官悦新城","32b5f777124c351bdbeced39"
"39.889002","116.508446","","1","北京市朝阳区","970ad4bec5df83d8c7f50dcb","王四营乡农民回迁安置房","970ad4bec5df83d8c7f50dcb"
"39.887611","116.509261","","1","北京市朝阳区宏宇小区D栋","7e3dd1d515858b5bae080fbc","宏宇小区D栋","7e3dd1d515858b5bae080fbc"
"39.887335","116.509395","","1","北京市朝阳区宏宇小区E栋","f595e7f357c5601c6cc02c31","宏宇小区E栋","f595e7f357c5601c6cc02c31"
"39.8876","116.50976","","1","北京市朝阳区宏宇小区C栋","a80aa2912ea561d148cc4ace","宏宇小区C栋","a80aa2912ea561d148cc4ace"
"39.88728","116.509792","","1","北京市朝阳区宏宇小区B栋","bebefe0bb142d431e115f972","宏宇小区B栋","bebefe0bb142d431e115f972"
"39.887025","116.509752","","1","北京市朝阳区宏宇小区A栋","cef233e6d9fc71a2a11de967","宏宇小区A栋","cef233e6d9fc71a2a11de967"
"39.889682","116.522085","(010)52460539","1","北京市朝阳区小海子100号","24e2705358aac804b21e36e3","古典公寓","24e2705358aac804b21e36e3"
"39.890339","116.531526","010-58707010","1","北京市朝阳区王四营乡观音堂村181号","b5f83f23172dff019e95de5e","中海·安德鲁斯庄园","b5f83f23172dff019e95de5e"
"39.892123","116.525779","","1","北京市朝阳区中海安德鲁斯庄园207栋","84dd980c713aa3eb9de32162","中海安德鲁斯庄园-207栋","84dd980c713aa3eb9de32162"
"39.89144","116.525744","","1","北京市朝阳区中海安德鲁斯庄园220栋","aa0752917eca22f7ca2915e7","中海安德鲁斯庄园-220栋","aa0752917eca22f7ca2915e7"
"39.891785","116.526218","","1","北京市朝阳区中海安德鲁斯庄园209栋","d40fd91693024eac09b93ae3","中海安德鲁斯庄园-209栋","d40fd91693024eac09b93ae3"
"39.891763","116.525678","","1","北京市朝阳区中海安德鲁斯庄园208栋","3c1c6c8a44659786601c67d8","中海安德鲁斯庄园-208栋","3c1c6c8a44659786601c67d8"
"39.892128","116.526528","","1","北京市朝阳区中海安德鲁斯庄园206栋","445765a5dd3ac5bf2806cee3","中海·安德鲁斯庄园西区-206栋","445765a5dd3ac5bf2806cee3"
"39.890356","116.526027","","1","北京市朝阳区中海安德鲁斯庄园246栋","2ce2adbfd29f46fbd03ce3aa","中海安德鲁斯庄园-246栋","2ce2adbfd29f46fbd03ce3aa"
"39.890042","116.526052","","1","北京市朝阳区中海安德鲁斯庄园249栋","84d721e8c9836976f32d8304","中海安德鲁斯庄园-249栋","84d721e8c9836976f32d8304"
"39.89089","116.52662","","1","北京市朝阳区中海安德鲁斯庄园230栋","8c149c357736f69ef5c59cb3","中海安德鲁斯庄园-230栋","8c149c357736f69ef5c59cb3"
"39.889513","116.525806","","1","北京市朝阳区中海安德鲁斯庄园267栋","c0b303479d545213bca822fe","中海安德鲁斯庄园-267栋","c0b303479d545213bca822fe"
"39.887466","116.537845","15901562618","1","北京市朝阳区","ffb3967b1d763e458a36ee2b","金瑞家园","ffb3967b1d763e458a36ee2b"
"39.89076","116.534439","","1","北京市朝阳区王四营乡观音堂村","e08c4396b5e72db2cbfa5f30","观音堂小区","e08c4396b5e72db2cbfa5f30"
"39.889128","116.552759","","1","王四营北路北50米","2434eedf1992c7fc71210b0b","南花园168号","2434eedf1992c7fc71210b0b"
"39.888586","116.551622","","1","王四营北路南50米","cf695e4067610a2abd4842be","南花园-118号","cf695e4067610a2abd4842be"
"39.888726","116.551973","","1","王四营北路南50米","238f92cb945cf7f09868b45e","南花园-111号","238f92cb945cf7f09868b45e"
"39.889155","116.55109","","1","王四营北路北50米","1ca8561ec07d89005e0d0299","南花园-206号","1ca8561ec07d89005e0d0299"
"39.888723","116.552718","","1","王四营北路南50米","89b2a634bf5f32933ce231ef","南花园-105号","89b2a634bf5f32933ce231ef"
"39.889155","116.550579","","1","北京市朝阳区南花园208号","62c6ae750c446fe0081cc787","南花园-208号","62c6ae750c446fe0081cc787"
"39.88872","116.552193","","1","北京市朝阳区","47be050535ab4712c4f02541","南花园-109号","47be050535ab4712c4f02541"
"39.887163","116.554564","","1","北京市朝阳区","73c7fd6678c18dae13293589","南花园-42号","73c7fd6678c18dae13293589"
"39.901663","116.462967","","1","北京市朝阳区惠力路与广渠门外大街交叉口附近","e101df28d627d1ba5cd4fec2","富丽城小区","e101df28d627d1ba5cd4fec2"
"39.901319","116.461288","","1","朝阳区双井桥西北侧（国贸桥向南约700米）","bb3a995397577459abf0cd4f","富力城-D区","bb3a995397577459abf0cd4f"
"39.897962","116.459785","","1","广渠门外大街甲28号","d0b8923f5e0bbae2b4f42f95","广泉小区","d0b8923f5e0bbae2b4f42f95"
"39.897461","116.455287","","1","崇文区广渠门桥东南角","108b1cea9a161dd23586f4dc","广渠家园小区","108b1cea9a161dd23586f4dc"
"39.901171","116.463692","","1","东三环中路59号","e65c93a916323feaab0dd8bc","富力城-C区","e65c93a916323feaab0dd8bc"
"39.896555","116.455527","","1","北京市东城区广渠家园23号楼","0e2d1d28f9bed0baae045747","广渠家园-23号楼","0e2d1d28f9bed0baae045747"
"39.90013","116.462916","","1","广渠门外大街垂杨柳1号","39b9c75c964a2f4dae31e500","怡馨园小区","39b9c75c964a2f4dae31e500"
"39.89657","116.456482","","1","北京市东城区","a6534b8d9e1e46f42cb90866","广渠家园-24号楼","a6534b8d9e1e46f42cb90866"
"39.900394","116.460125","","1","广渠门外大街17号","c21db9e575b3548301ff2d95","广馨居","c21db9e575b3548301ff2d95"
"39.894352","116.463837","","1","北京市朝阳区垂杨柳中里13号楼","8178ab592763431e1811d56f","垂杨柳中里小区","8178ab592763431e1811d56f"
"39.896139","116.471417","","1","北京市朝阳区广渠路66号","50f7d146e1ec0ac473210b95","百环家园","50f7d146e1ec0ac473210b95"
"39.893056","116.471842","","1","东环南路54号","550fd5f9fd236179921fc9b7","华腾园","550fd5f9fd236179921fc9b7"
"39.901518","116.471857","(010)87751339","1","北京市朝阳区东三环中路65号富力广场北侧(近富力万丽酒店)","3be122e1af753d4b1ef74d45","天子骄子小区","3be122e1af753d4b1ef74d45"
"39.902185","116.465989","","1","北京市朝阳区东三环路55号","b2205c5c07a2496826d2bbfe","富力城-A区","b2205c5c07a2496826d2bbfe"
"39.896427","116.472029","","1","北京市朝阳区百环家园17号楼","26b8f7026c21a81e28201a1c","百环家园-17号楼","26b8f7026c21a81e28201a1c"
"39.897685","116.471269","","1","广渠路66号院百环家园(西区)附近","be7b57296b1cc642ab0dd8eb","百环家园-2号楼","be7b57296b1cc642ab0dd8eb"
"39.896412","116.465035","","1","北京市朝阳区垂杨柳北里16号楼","330a3c86d1c53cb23913fd79","垂杨柳北里","330a3c86d1c53cb23913fd79"
"39.896075","116.473482","","1","北京市朝阳区百环家园15号楼","7e1669972ec5273741d63ef0","百环家园-15号楼","7e1669972ec5273741d63ef0"
"39.896936","116.472411","","1","广渠路66号双井桥东南角百环家园西区18号楼(武圣北路，八棵杨北街)","ade312ba19d170a64c6d4668","百环家园-18号楼","ade312ba19d170a64c6d4668"
"39.899746","116.470673","","1","北京市朝阳区广渠路44号","4ce10ce69a726adc441a327c","双井东院小区","4ce10ce69a726adc441a327c"
"39.898119","116.47633","","1","北京市朝阳区广渠路36号","40faad928f4f5694bca822f5","首城国际中心","40faad928f4f5694bca822f5"
"39.899877","116.477454","(010)67761786","1","北京市朝阳区广渠路29号","4a13623596b3919c5fd4fe5a","九龙花园","4a13623596b3919c5fd4fe5a"
"39.893059","116.481803","","1","北京市朝阳区西大望路63号","69fcd6df1ccaf92fcb291595","东方雅苑","69fcd6df1ccaf92fcb291595"
"39.895444","116.482429","","1","朝阳西大望路59号(珠江帝景对面)","3a0fbba8ea8319419fe32195","风度柏林小区","3a0fbba8ea8319419fe32195"
"39.893212","116.47659","(010)67774081","1","北京市朝阳区武圣北路6号","d629b97991c5e160d72ce29c","和谐雅园","d629b97991c5e160d72ce29c"
"39.90198","116.477331","(010)87716789","1","百子湾南二路76号(近双井家乐福)","162a305675d57410c91b950e","乐成国际","162a305675d57410c91b950e"
"39.900953","116.48085","","1","朝阳广渠路33号(双井桥往东800米路北)","5b0bf84336596866246e98bd","石韵浩庭","5b0bf84336596866246e98bd"
"39.902255","116.482993","","1","百子湾南二路72号","1cea15a9d51b0ec506fef595","乐成豪丽公寓","1cea15a9d51b0ec506fef595"
"39.902171","116.474628","","1","朝阳黄木厂路和百子湾南二路交叉口","30b098ca2cc6137c744ff134","A派公寓","30b098ca2cc6137c744ff134"
"39.902183","116.481032","(010)87716789","1","百子湾南二路74号","c879fa01033ca74ac809f095","乐成公馆","c879fa01033ca74ac809f095"
"39.895607","116.486221","020-62892596,020-61296999,13560139039","1","北京市朝阳区西大望路甲23号","b158608b5a743612d7851f83","珠江帝景","b158608b5a743612d7851f83"
"39.900914","116.491523","","1","北京市朝阳区广渠路15号(广渠路大郊亭西北角)","de2fe8b779c31100471a3271","金茂府","de2fe8b779c31100471a3271"
"39.895904","116.486703","","1","广渠路28号院205号","c5ddcc087a910fb8d91318ae","珠江帝景-B区","c5ddcc087a910fb8d91318ae"
"39.901071","116.486802","","1","北京市朝阳区西大望路甲20号","87589bde38e9c07dd518b702","首府小区","87589bde38e9c07dd518b702"
"39.893377","116.486753","","1","北京市朝阳区广渠路28号院3区","38e48037d114a74a373a71f8","珠江帝景D区","38e48037d114a74a373a71f8"
"39.895345","116.491536","","1","广渠路28号院403号楼","0b26825dea4a942d43afe663","珠江帝景C区","0b26825dea4a942d43afe663"
"39.894261","116.49279","","1","大郊亭中街2号院3","fd3889e07baba326eedfcab8","华腾国际3号楼","fd3889e07baba326eedfcab8"
"39.900794","116.491355","(010)87688888","1","朝阳区广渠路15号(广渠路大郊亭西北角)","ab8f579c7449aee6b13c8192","广渠金茂府-北区","ab8f579c7449aee6b13c8192"
"39.893365","116.492427","","1","北京市朝阳区大郊亭中街2号华腾国际内","bbfe7e282ccdbe57774ff1a6","华腾国际-5号楼","bbfe7e282ccdbe57774ff1a6"
"39.896526","116.484501","","1","广渠路28号院甲201","8be87bdd36cd57ec3b221c00","珠江帝景1号商务公寓","8be87bdd36cd57ec3b221c00"
"39.900749","116.498974","","1","北京市朝阳区广渠路21号(东四环路与广渠路交口大郊亭桥东北住宅区","46e86fdd00f6ec6fd03ce395","金海国际","46e86fdd00f6ec6fd03ce395"
"39.90084","116.500576","","1","北京市朝阳区广渠路21号院7号楼","86348e855195591e41d63e5d","金海国际-7号楼","86348e855195591e41d63e5d"
"39.900852","116.49781","","1","北京市朝阳区广渠路21号院4号楼","2ba735c9a89190bbd9eced03","金海国际-4号楼","2ba735c9a89190bbd9eced03"
"39.900753","116.498324","","1","广渠路21号金海国际","0f5af683256c075b02897244","金海国际-5号楼","0f5af683256c075b02897244"
"39.900797","116.500307","","1","北京市朝阳区广渠路21号院6号楼","c697f4de71062f503c9a5eef","金海国际-6号楼","c697f4de71062f503c9a5eef"
"39.90172","116.499194","","1","南磨房广渠路","25ec69fc283ac77ec26c14f8","金海国际-北区","25ec69fc283ac77ec26c14f8"
"39.901978","116.506283","","1","北京市朝阳区百子湾石门村路一号(广渠路北侧,东四环大郊亭桥以东600米)","5508504d6cf5b9c8c7f025f8","金泰先锋","5508504d6cf5b9c8c7f025f8"
"39.897254","116.507034","","1","北京市朝阳区南磨房东四环南路","b6d6d71629540d5d6cc02cc3","广华新城","b6d6d71629540d5d6cc02cc3"
"39.899918","116.508564","","1","百子湾西里402","680fb703f7a4eee18bb988cd","中水电住宅小区","680fb703f7a4eee18bb988cd"
"39.901149","116.505933","","1","百子湾石门村路1号","cdf821a04a61918cebe58283","金泰.先锋-南区","cdf821a04a61918cebe58283"
"39.901854","116.509922","","1","北京市朝阳区百子湾东里306号","0036a812f71e642417b54be5","沿海·赛洛城-306号楼","0036a812f71e642417b54be5"
"39.9008","116.513202","","1","北京市朝阳区北京赛洛家园四期419栋","7cce959cf17ce26f4154d750","沿海·赛洛城-419号楼","7cce959cf17ce26f4154d750"
"39.901272","116.513068","","1","北京市朝阳区百子湾东里416号","e53e550b0aad0a442e47330c","沿海·赛洛城-416号楼","e53e550b0aad0a442e47330c"
"39.900158","116.511914","","1","北京市朝阳区百子湾东里414号","93d6ef5433d36f2fcc06a443","沿海·赛洛城-414号楼","93d6ef5433d36f2fcc06a443"
"39.901052","116.510945","","1","北京市朝阳区百子湾东里","25fe1ffde7d76044744ff1c3","沿海赛洛城-四期","25fe1ffde7d76044744ff1c3"
"39.901943","116.506115","","1","北京市朝阳区金泰先锋336栋","382502223593acdbacee7a89","金泰先锋336栋","382502223593acdbacee7a89"
"39.901866","116.52247","(010)52851988","1","北京市朝阳区广渠路","5babfd6599dd1ddb22f01757","阳光家园","5babfd6599dd1ddb22f01757"
"39.899837","116.522419","","1","北京市朝阳区广渠东路甲1号(旧楼)","1e450d21290c458093114cb2","广渠东路甲1号(旧楼)","1e450d21290c458093114cb2"
"39.897561","116.514828","","1","北京市朝阳区广渠东路6号院6栋","1c6342bdee5fbb28744ff128","广渠东路6号院6栋","1c6342bdee5fbb28744ff128"
"39.897367","116.514764","","1","北京市朝阳区广渠东路6号院5栋","ee00463f7add712b2afc48e4","广渠东路6号院5栋","ee00463f7add712b2afc48e4"
"39.897174","116.514427","","1","北京市朝阳区广渠东路6号院4栋","6654f7a9af680f245b10936b","广渠东路6号院4栋","6654f7a9af680f245b10936b"
"39.897578","116.514254","","1","北京市朝阳区广渠东路6号院3栋","c9eec673152297f5eb12e400","广渠东路6号院3栋","c9eec673152297f5eb12e400"
"39.900152","116.515904","","1","北京市朝阳区北京佳之兴商业有限公司商务楼A座","275b03b9c1704de1be48424b","北京佳之兴商业有限公司商务楼A座","275b03b9c1704de1be48424b"
"39.900839","116.516199","","1","北京市朝阳区北京佳之兴商业有限公司商务楼D座","56a372f35ecff116b35c6a8e","北京佳之兴商业有限公司商务楼D座","56a372f35ecff116b35c6a8e"
"39.900627","116.516159","","1","北京市朝阳区北京佳之兴商业有限公司商务楼C座","8470e0ec5f035e030289727f","北京佳之兴商业有限公司商务楼C座","8470e0ec5f035e030289727f"
"39.896106","116.527523","","1","北京市朝阳区四惠华能桥西南角观音惠园","72e57fd7de1fafaff9dc8596","观音惠园","72e57fd7de1fafaff9dc8596"
"39.89346","116.52939","","1","朝阳区王四营观音景园","be1ea5ef1cbfe1bc14948e32","观音景园","be1ea5ef1cbfe1bc14948e32"
"39.893656","116.527478","","1","石板房南街","dfc496b672698fd28936eed9","观音景园-西区","dfc496b672698fd28936eed9"
"39.898808","116.525409","","1","方家村1号楼","658e2205ef9e560f17948e44","方家村甲1号","658e2205ef9e560f17948e44"
"39.897121","116.52546","","1","北京市朝阳区广渠路","77484aa39f49923bb1077d8f","北京中铁海泰公司18号院","77484aa39f49923bb1077d8f"
"39.896146","116.527387","","1","北京市朝阳区观音惠园三区9号楼","057500174b819c8ff503b8ac","观音惠园三区-9号楼","057500174b819c8ff503b8ac"
"39.897193","116.528253","","1","北京市朝阳区观音惠园1号楼","792b8553d8d6b12a0482c266","观音惠园-1号楼","792b8553d8d6b12a0482c266"
"39.896561","116.526456","","1","北京市朝阳区观音惠园三区7号楼","38d3d5e3486a5a1980a00c91","观音惠园三区-7号楼","38d3d5e3486a5a1980a00c91"
"39.897171","116.527436","","1","北京市朝阳区观音惠园三区2号楼","136f90c970aa8f595fbe8699","观音惠园三区-2号楼","136f90c970aa8f595fbe8699"
"39.895783","116.52722","","1","北京市朝阳区观音惠园三区12号楼","3094d1eb8d2ae94ac056aca8","观音惠园三区-12号楼","3094d1eb8d2ae94ac056aca8"
"39.904961","116.459317","","1","北京市朝阳区广渠门外大街31号","0dc3d82d4a9bb36c74e5b695","双花园南里二区","0dc3d82d4a9bb36c74e5b695"
"39.904949","116.455748","","1","朝阳区双井镇双花园南里一区","acff56a94789d61e15c90549","双花园南里一区","acff56a94789d61e15c90549"
"39.910294","116.459409","(010)58691188","1","东三环中路39号院15号","bf29b702abf49d9908b93a94","建外SOHO西区-15号楼","bf29b702abf49d9908b93a94"
"39.911113","116.459831","","1","东三环中路39号院16号","35debf29060edd44a7da3994","建外SOHO西区-16号楼","35debf29060edd44a7da3994"
"39.911831","116.459603","(010)58691188","1","北京市朝阳区建外SOHO西区17号楼(东三环中路39号院17号楼)","341c35de0d2571bee7073894","建外SOHO西区-17号楼","341c35de0d2571bee7073894"
"39.910477","116.461941","(010)58691188","1","东三环中路39号院10号","09185c5646da8a5df0193794","建外SOHO西区-10号楼","09185c5646da8a5df0193794"
"39.910524","116.455295","","1","光华路甲9号","2848ffd6940f880f49cc4a94","万豪国际公寓","2848ffd6940f880f49cc4a94"
"39.910382","116.46096","","1","东三环中路39号院建外SOHO13号楼","1bf85b255a4acfa4a0a93494","建外SOHO西区-13号楼","1bf85b255a4acfa4a0a93494"
"39.911091","116.461946","(010)58691188","1","北京市朝阳区东三环中路辅路39号","f4460918f05a2b6ab01e3694","建外SOHO西区-11号楼","f4460918f05a2b6ab01e3694"
"39.903885","116.461138","","1","北京市朝阳区天力街19号院","881a28e7be9df739f942b273","富力十号","881a28e7be9df739f942b273"
"39.905354","116.465287","010-67769575","1","北京市朝阳区广渠门外大街31号","3f11f6d90aa5993cbd48429b","合生国际家园","3f11f6d90aa5993cbd48429b"
"39.905468","116.472205","","1","百子湾黄木厂南路1号楼","c28e5c011cba560eb5147f76","御宸上院","c28e5c011cba560eb5147f76"
"39.912227","116.473151","","1","东三环国贸桥东大望桥西","ef42003cd6c9bc18ff0eb0c9","郎家园小区","ef42003cd6c9bc18ff0eb0c9"
"39.903511","116.46512","","1","朝阳区双井桥西北侧（国贸桥向南约700米）","5d8ad18d913aaf00ede4a59d","富力城-B区","5d8ad18d913aaf00ede4a59d"
"39.903612","116.469408","","1","北京市朝阳区百子湾南二路","d248fe3bf03ccba25cd4fee9","双井北菜园","d248fe3bf03ccba25cd4fee9"
"39.905255","116.465153","","1","北京市朝阳区广渠门外大街31号","9a2c367ea93b62c392114c4f","合生国际花园-东区","9a2c367ea93b62c392114c4f"
"39.903069","116.47127","","1","朝阳区百子湾南2路79号院","310787fed746c5c34354d7c3","恭和苑","310787fed746c5c34354d7c3"
"39.903368","116.47108","","1","朝阳区双井桥东北角11号","4bfef01129057bf5d42ce2d4","双井北里小区","4bfef01129057bf5d42ce2d4"
"39.903121","116.472178","","1","朝阳区黄木场6号院","85288f3b2179430dd2f49e90","黄木场路6号院","85288f3b2179430dd2f49e90"
"39.906197","116.467667","","1","北京市朝阳区双花园南里4号楼","d77b9c63f3e4e25e4f6d461e","双花园南里4号楼","d77b9c63f3e4e25e4f6d461e"
"39.904524","116.477152","","1","北京市朝阳区百子湾路32号","7dffc388f78909e33fe2318c","苹果社区","7dffc388f78909e33fe2318c"
"39.903449","116.476835","","1","北京市朝阳区百子湾路32号","129898d18d07e314b13c81ee","苹果社区南区","129898d18d07e314b13c81ee"
"39.911953","116.478019","","1","北京市朝阳区建国路98号","3c0ea7c56d4b92e0fbf0cb36","盛世嘉园","3c0ea7c56d4b92e0fbf0cb36"
"39.905556","116.477229","","1","百子湾路32号","ecbab038cec82d5ea10464e4","苹果社区北区-2号楼","ecbab038cec82d5ea10464e4"
"39.90572","116.475358","","1","百子湾路32号","5f8e1b64e4635d938515415f","苹果社区北区-3号楼","5f8e1b64e4635d938515415f"
"39.905746","116.478889","","1","百子湾路32号","8109df8295d42d01b23c81b3","苹果社区北区-1号楼","8109df8295d42d01b23c81b3"
"39.909147","116.476821","","1","西大望路甲12号北京国家广告产业园生活区2号","e30828484e3382bcb34c49f8","东郊公寓","e30828484e3382bcb34c49f8"
"39.90865","116.482584","","1","西大望路8号","3ee344322a2d7e6cdd1e5259","下甸小区","3ee344322a2d7e6cdd1e5259"
"39.906738","116.477128","","1","北京市朝阳区下甸5号楼","9f889e786acadb254054d75d","下甸5号楼","9f889e786acadb254054d75d"
"39.911506","116.480258","","1","北京市朝阳区建国路98号","36e246b4ebf58f2bc5f0257b","光辉南里-4号楼","36e246b4ebf58f2bc5f0257b"
"39.905166","116.493361","010-87732803;010-52838846","1","北京市朝阳区百子湾路16号","4bb049d91334964798005094","后现代城","4bb049d91334964798005094"
"39.903972","116.486688","","1","北京市朝阳区西大望路19号","656fdad470b17a8dd7851f02","金港国际","656fdad470b17a8dd7851f02"
"39.905635","116.486772","","1","百子湾路甲16号","92b806d289f180fe78b55c94","易构空间小区","92b806d289f180fe78b55c94"
"39.904444","116.492852","","1","百子园","bf29b702abf39d9908b93a95","后现代城-C区","bf29b702abf39d9908b93a95"
"39.905977","116.493724","","1","百子湾路12号","38297b1886929d9fbd4842e9","后现代城-A区","38297b1886929d9fbd4842e9"
"39.904067","116.491908","","1","双井街道百子湾路","341c35de0d2271bee7073895","后现代城-D区","341c35de0d2271bee7073895"
"39.906147","116.491816","","1","百子湾路附近","1adc3e945add230cca1b95d6","后现代城-B区","1adc3e945add230cca1b95d6"
"39.906088","116.490856","","1","朝阳区百子湾路16号百子园小区","ce086f7268db02cb78f7961e","百子园小区","ce086f7268db02cb78f7961e"
"39.903441","116.491585","","1","北京市后现代城百子园16号","f0c4d483c24d8fe1902ca307","后现代城-16号楼","f0c4d483c24d8fe1902ca307"
"39.90367","116.493045","","1","后现代城12号楼102","b1e3b4e4f48ba1f42ce67b72","后现代城百子园12号楼","b1e3b4e4f48ba1f42ce67b72"
"39.903697","116.499478","","1","西临金长安,东北侧为大成国际公寓,南临规划百子湾南路","7d8d6eb777b150475fbe865b","建工动力苑","7d8d6eb777b150475fbe865b"
"39.905464","116.495091","","1","北京市朝阳区百子园3号楼","bfaccc91e99420ae3a04b187","百子园-3号楼","bfaccc91e99420ae3a04b187"
"39.903635","116.494804","","1","北京市朝阳区百子湾路16号","8f02e477a8f85fbf49fd3f4e","后现代城C区-10号楼","8f02e477a8f85fbf49fd3f4e"
"39.907088","116.501851","","1","北京市朝阳区百子湾路6","1b3d4f9db50cd83a21026278","百子湾西社区","1b3d4f9db50cd83a21026278"
"39.903736","116.49962","","1","西临金长安，东北侧为大成国际公寓，南临规划百子湾南路","97d06e7b6336ed622db96d3f","朝阳区百子湾14号地块","97d06e7b6336ed622db96d3f"
"39.905762","116.503536","010-67738888","1","百子湾西里","94286f2e4d87c20b3904b1d5","金都杭城-一期","94286f2e4d87c20b3904b1d5"
"39.90588","116.502666","","1","北京市朝阳区百子湾西里112号楼","63ac7be704e66992c7f50d8c","百子湾西里112号楼","63ac7be704e66992c7f50d8c"
"39.904971","116.501846","","1","北京市朝阳区石门村路5号院4号楼","3cf43576e946ecc55cbe869b","石门村路5号院4号楼","3cf43576e946ecc55cbe869b"
"39.905762","116.503536","","1","北京市朝阳区金都杭城105号楼","3c00751f936cde4a95f08cf3","金都杭城-105号楼","3c00751f936cde4a95f08cf3"
"39.904978","116.503266","","1","北京市朝阳区石门村路5号院3号楼","c8fcef7fc3ff943b81a12e81","石门村路5号院3号楼","c8fcef7fc3ff943b81a12e81"
"39.903286","116.511425","010-67761717","1","朝阳区百子湾路5号广渠东路33号(广渠路与百子湾路交汇处)","4cfc7da722436aa830169b9f","沿海赛洛城","4cfc7da722436aa830169b9f"
"39.906125","116.506214","","1","朝阳百子湾路石门村路一号","7d5f3a0a60d160352cb90873","金都杭城","7d5f3a0a60d160352cb90873"
"39.906086","116.508374","","1","百子湾路石门村路一号,朝阳区百子湾西里","75301db50e650f81d12dd643","金都心语","75301db50e650f81d12dd643"
"39.904432","116.505839","","1","北京市朝阳区百子湾西里","55fa2c0b66fcfe531de999a6","陆翔佳园","55fa2c0b66fcfe531de999a6"
"39.90262","116.506312","010-87718888","1","百子湾西里石门村路1号","ca507a9f2b369d22b6147f8e","金泰先锋-北区","ca507a9f2b369d22b6147f8e"
"39.904853","116.504866","010-67706558","1","北京市朝阳区百子湾路石门村5号","ec3dc65a558c529f704b8759","创美东朝时代创意园","ec3dc65a558c529f704b8759"
"39.904006","116.51258","","1","朝阳区百子湾东里","1b797714c41750b5100daac6","百子湾东里","1b797714c41750b5100daac6"
"39.906371","116.513195","","1","北京市朝阳区百子湾东里111号","a7c56ee0ca98accea3acc427","沿海.赛洛城-五期","a7c56ee0ca98accea3acc427"
"39.902883","116.51053","","1","北京市朝阳区沿海赛洛城302栋","c56eaa7ccf194120220220bb","沿海赛洛城-302栋","c56eaa7ccf194120220220bb"
"39.9046","116.51203","","1","北京市朝阳区","7aea43b7b9250d857c29bd30","沿海·赛洛城-六期","7aea43b7b9250d857c29bd30"
"39.905409","116.517958","010-87710003","1","百子湾路1号","15e1e85e5297e8a158109332","百子湾家园","15e1e85e5297e8a158109332"
"39.905467","116.519481","","1","北京市朝阳区百子湾1号","f696f3c2fa3231eb1a11d596","百子湾家园-B区","f696f3c2fa3231eb1a11d596"
"39.904666","116.518618","","1","北京市朝阳区百子湾1号","b0d056f23998357ecbc3db96","百子湾家园-C区","b0d056f23998357ecbc3db96"
"39.906367","116.51444","13488756526","1","北京市朝阳区百子湾1号","373cf7572de0e96e4254d796","百子湾家园-A区","373cf7572de0e96e4254d796"
"39.911893","116.521983","","1","北京市朝阳区惠河南街","18ab9d5f2802da43ab059dfa","水南庄壹号","18ab9d5f2802da43ab059dfa"
"39.906764","116.515444","","1","北京市朝阳区百子湾家园A区102号楼","681df0766f35c225774ff1a9","百子湾家园-102号楼","681df0766f35c225774ff1a9"
"39.90552","116.515567","","1","北京市朝阳区百子湾家园A区105号楼","0d8d506e582a72ae72455be5","百子湾家园-105号楼","0d8d506e582a72ae72455be5"
"39.904666","116.518618","","1","北京市朝阳区百子湾家园C区302号楼","3e32daacfac2dda6c3364472","百子湾家园-302号楼","3e32daacfac2dda6c3364472"
"39.90373","116.519059","","1","北京市朝阳区百子湾家园C区307号楼","a280e974fc96598bb64f5424","百子湾家园-307号楼","a280e974fc96598bb64f5424"
"39.906367","116.514651","","1","北京市朝阳区百子湾家园A区101号楼","6051e19d817080bb3617dc55","百子湾家园-101号楼","6051e19d817080bb3617dc55"
"39.91069","116.533344","","1","北京市朝阳区高碑店高碑店路","e23a1379e7e65a80a7c7561b","高碑店新村一区","e23a1379e7e65a80a7c7561b"
"39.911958","116.529927","","1","北京市朝阳区高碑店乡惠河南街","652549c75f5c48fa45e27420","西店村A区","652549c75f5c48fa45e27420"
"39.910182","116.533711","","1","街心西路附近","0e5c98a1ae5313e21d58000d","高碑店村二区","0e5c98a1ae5313e21d58000d"
"39.910438","116.528581","","1","北京市朝阳区惠河南街","8483aff8f05c4b08c1f1cfa3","龙源文化创意园-高西店A座","8483aff8f05c4b08c1f1cfa3"
"39.910688","116.543879","","1","朝阳区高碑店东区D22-7","29a71a54b3d16f9728d7abfa","A加专属形象化妆培训机构","29a71a54b3d16f9728d7abfa"
"39.908942","116.538351","","1","高碑店古家具一条街56号附近","56e88cba07888f65a5c756a8","北京市农村商业银行ATM(十里堡住宅小区东)","56e88cba07888f65a5c756a8"
"39.908879","116.53849","","1","高碑店路(十里堡住宅小区东)","dd15897d090a3495c9fa5fd9","北京旅游咨询(十里堡住宅小区东)","dd15897d090a3495c9fa5fd9"
"39.911356","116.548953","","1","高碑店","382e582c694ae99809a8d499","陶家湾","382e582c694ae99809a8d499"
"39.903789","116.551382","","1","北京市朝阳区广渠路与文化新大街交叉口东北100米","1634ade6a76db0cc6c476014","北京高碑店文化园社区","1634ade6a76db0cc6c476014"
"39.911821","116.549216","","1","北京市朝阳区陶家湾1号楼","d8a75f84b16f9c1f8bb98829","陶家湾-1号楼","d8a75f84b16f9c1f8bb98829"
"39.904071","116.545965","","1","北京市朝阳区文化新大街15号","2b04e370ad402674932ca3a6","亚北青社区",""
"39.911424","116.548412","","1","北京市朝阳区陶家湾5号楼","a5fff2bb306a0ba54054d7f6","陶家湾-5号楼","a5fff2bb306a0ba54054d7f6"
"39.911443","116.549249","","1","北京市朝阳区陶家湾2号楼","1b820b1b3f38906602294f87","陶家湾-2号楼","1b820b1b3f38906602294f87"
"39.911081","116.548388","","1","北京市朝阳区陶家湾4号楼","37534c473f1681ba17b54ba4","陶家湾-4号楼","37534c473f1681ba17b54ba4"
"39.909062","116.544177","(010)85765764","1","高碑店古家具一条街204号","56e88cba07bd8f65a5c75697","古圣堂(陶家湾住宅小区南)","56e88cba07bd8f65a5c75697"
"39.910329","116.562462","","1","北京市朝阳区","7bfa08fc0c6f5b7c25d2bb32","北花园小区","7bfa08fc0c6f5b7c25d2bb32"
"39.910286","116.554413","","1","北京市朝阳区惠河南街","39a926e38b3a0af4f8f0cb21","北花园小区3号院","39a926e38b3a0af4f8f0cb21"
"39.90848","116.563876","","1","北京市朝阳区北花园街6号院4号楼","ad90986b9e72c8a902897268","北花园街6号院-4号楼","ad90986b9e72c8a902897268"
"39.911553","116.557028","","1","北京市朝阳区北花园小区1号院","993b238b67e5308984154159","北花园小区1号院","993b238b67e5308984154159"
"39.911629","116.559041","","1","北花园中路附近","e14617f72c0491019122e07e","北花园小区-2号院","e14617f72c0491019122e07e"
"39.908666","116.567925","","1","北京市朝阳区新房路3号","bb45321b747ae8c340e1920d","玲珑山","bb45321b747ae8c340e1920d"
"39.911007","116.569578","(010)65400228","1","北花园街1号院","606289fd10ac344da3046491","艺水芳园","606289fd10ac344da3046491"
"39.908847","116.564594","","1","近传媒大学南北花园街6号院","4bb049d91337964798005091","天泰北双苑小区","4bb049d91337964798005091"
"39.908504","116.57047","","1","朝阳区建国路双桥路口南100米","b1c556e8c1b58d0cb5265591","天泰新房苑小区","b1c556e8c1b58d0cb5265591"
"39.910852","116.567185","","1","北花园街1号院2","1aa0feb44c0451a8b14c4979","艺水芳园-学生公寓","1aa0feb44c0451a8b14c4979"
"39.910257","116.567805","","1","北京市朝阳区艺水芳园学生公寓10号楼","f7fbb9ede59dc490a1d23081","艺水芳园-10号楼","f7fbb9ede59dc490a1d23081"
"39.909558","116.571661","","1","北京市朝阳区天泰新房苑小区6号楼","97ad5566b50f2495c51e516f","天泰新房苑小区-6号楼","97ad5566b50f2495c51e516f"
"39.91086","116.568475","","1","北京市朝阳区北花园街1号院4号楼","23fd48725ce3ec64e8e58230","北花园小区1号院4号楼","23fd48725ce3ec64e8e58230"
"39.909555","116.570274","","1","北京市朝阳区天泰新房苑小区5号楼","0446e7bdb52c3f67b726551a","天泰新房苑小区-5号楼","0446e7bdb52c3f67b726551a"
"39.910549","116.574072","","1","北京市朝阳区水郡长安家园2号院20号楼","0b3e05bc60aa8cbcb75f1e0c","水郡长安家园2号院-20号楼","0b3e05bc60aa8cbcb75f1e0c"
"39.912554","116.459755","","1","北京市朝阳区建外SOHO西区18号楼(东三环中路39号院18号楼)","9ae47f7f782c0baa59bbbc50","建外SOHO西区-18号楼","9ae47f7f782c0baa59bbbc50"
"39.918047","116.458962","","1","北京市朝阳区光华西里1号(汉威大厦对面)","8c66a290aa638016b13c81f9","怡禾国际公寓温莎大道","8c66a290aa638016b13c81f9"
"39.918877","116.461198","","1","光华路18号附近","c253be760a0a362246572672","光华里1号楼","c253be760a0a362246572672"
"39.917188","116.460428","","1","北京市朝阳区光华里21","14d8d4fb11760ee414b54bf9","光华里社区","14d8d4fb11760ee414b54bf9"
"39.913272","116.458622","","1","北京市朝阳区建国门外大街乙8号","a12baa40e080da56e956fa95","丽晶苑","a12baa40e080da56e956fa95"
"39.918583","116.461528","","1","光华路（汉威大厦对面）","53cebd509fe3a9612b02e195","金茂公寓","53cebd509fe3a9612b02e195"
"39.915363","116.45775","","1","北京市朝阳区光华西里9号","f0dd207c7fb7e6e05e17c3a0","光华西里-9号楼","f0dd207c7fb7e6e05e17c3a0"
"39.917678","116.461","","1","北京市朝阳区","3e1225f270dcc950cc06a49c","光华里-甲12号楼","3e1225f270dcc950cc06a49c"
"39.912575","116.457238","","1","北京市朝阳区建国门外大街（近永安里东街）","60f53839ae07f6bc130daaae","永安东里","60f53839ae07f6bc130daaae"
"39.915603","116.461692","","1","北京市朝阳区光华里22号","841ce1bdf2aa8d617adbd28f","光华里-22号楼","841ce1bdf2aa8d617adbd28f"
"39.920711","116.465138","(010)51316100,(010)51316255","1","景华南街1","e3082848beda12bfb24c4994","旺座中心公寓","e3082848beda12bfb24c4994"
"39.913071","116.465824","","1","建国门外大街2号","d87768800ec9eee9cae33c55","柏悦居","d87768800ec9eee9cae33c55"
"39.919744","116.46543","(010)85298277","1","光华路1号","beabdbf411e541987169d395","北京嘉里公寓","beabdbf411e541987169d395"
"39.912674","116.473513","","1","北京市朝阳区建国路100号","d64eeb5bd6bafa31eb12e4d4","南郎家园-9号楼","d64eeb5bd6bafa31eb12e4d4"
"39.913022","116.47353","","1","北京市朝阳区南郎家园10号","3d0e69491ec0bdfe80a00ca2","南郎家园-10号楼","3d0e69491ec0bdfe80a00ca2"
"39.91335","116.472665","","1","北京市朝阳区建国门外南郎家园1号楼","22ee429412e8ead6455726f9","南郎家园-1号楼","22ee429412e8ead6455726f9"
"39.912388","116.473506","","1","北京市朝阳区南郎家园8号","1120f4aa766f0a1bc17da277","南郎家园-8号楼","1120f4aa766f0a1bc17da277"
"39.912402","116.473563","","1","北京市朝阳区南郎家园8号","5a27619e6dc307002bb97c73","南郎家园8号楼-一单元","5a27619e6dc307002bb97c73"
"39.912931","116.473411","","1","北京市朝阳区南郎家园10号","0a2ecceb72271afd9c09f79c","南郎家园10号楼-二单元","0a2ecceb72271afd9c09f79c"
"39.912679","116.473427","","1","北京市朝阳区建国路100号","499dba4b4fbd46df7adbd2f7","南郎家园9号楼-二单元","499dba4b4fbd46df7adbd2f7"
"39.918395","116.482333","13601352288","1","北京市朝阳区光华路2号(近大望路地铁站)","844a750e9369f2b963685894","阳光100国际公寓","844a750e9369f2b963685894"
"39.91605","116.481121","","1","北京市朝阳区金地国际花园朝阳区建国路91号","81d6a509e04a54416e20b930","金地国际花园","81d6a509e04a54416e20b930"
"39.921226","116.474983","","1","北京市朝阳区新街大院12号","92569ed7cfe6803bf03cbad6","新街大院","92569ed7cfe6803bf03cbad6"
"39.916639","116.483085","","1","北京市朝阳区西大望路3号","173418a24d7bf35a631c67a6","蓝堡国际公寓-南区","173418a24d7bf35a631c67a6"
"39.912394","116.479843","","1","建国路98号","7c5e480b84db93b4acb22a95","光辉南里小区","7c5e480b84db93b4acb22a95"
"39.9219","116.483859","","1","北京市朝阳区","b4a410625ade9691601809d3","金台里-10号楼","b4a410625ade9691601809d3"
"39.915129","116.483245","","1","北京市朝阳区建国路87号","4642844ab6eb97dac9fa5ff8","光辉里准物业小区","4642844ab6eb97dac9fa5ff8"
"39.920131","116.480912","","1","北京市朝阳区红庙西里2号经贸大学家属院","89a143ae67e2fadf5b1093ea","红庙西里-2号楼","89a143ae67e2fadf5b1093ea"
"39.91839","116.478179","","1","北京市朝阳区光华路6号院内1号","480b24d0ca0396f19dec2b95","光华欣居","480b24d0ca0396f19dec2b95"
"39.921364","116.477351","","1","北京市朝阳区小庄6号院1号","4d1ac8e5d238e0e35b10938e","纽约豪园","4d1ac8e5d238e0e35b10938e"
"39.917584","116.486759","(010)85951166","1","朝阳西大望路6号(国贸桥东900米)","3a7c4334eb94932240e19244","华贸公寓","3a7c4334eb94932240e19244"
"39.920145","116.491397","","1","北京市朝阳区东四环","947662722b7514fd7dc87608","慈云寺","947662722b7514fd7dc87608"
"39.921121","116.493354","","1","东四环中路辅路","d50b55fe8cf256d349fd3fb0","朝阳区八里庄街道慈云寺小区1号楼","d50b55fe8cf256d349fd3fb0"
"39.917464","116.488324","","1","北京市朝阳区建国路89号","d52831f90b1600a72ffaa794","华贸中心-商务楼","d52831f90b1600a72ffaa794"
"39.917226","116.486149","","1","北京市朝阳区建国路89号6号楼","d320fd266b0008ef58f6be99","华贸公寓-6号楼","d320fd266b0008ef58f6be99"
"39.918992","116.493058","","1","北京市朝阳区慈云寺1号院","92ed4f71069620827ec8760a","东区国际-4号楼","92ed4f71069620827ec8760a"
"39.918041","116.484963","","1","北京市朝阳区建国路89号1号楼","e0928f07ecc4557e213bf2c5","华贸公寓-1号楼","e0928f07ecc4557e213bf2c5"
"39.917973","116.485925","","1","北京市朝阳区建国路89号2号楼","419aaac8640fe9ee354aae0b","华贸公寓-2号楼","419aaac8640fe9ee354aae0b"
"39.918028","116.486718","","1","北京市朝阳区建国路89号3号楼","d6305de0af3727450d0a70bb","华贸公寓-3号楼","d6305de0af3727450d0a70bb"
"39.921992","116.486977","","1","北京市朝阳区红庙北里86号楼","0467f7253ee57a615bf6be88","红庙北里86号楼","0467f7253ee57a615bf6be88"
"39.920799","116.501386","010-65586558","1","朝阳区八里庄西里100号","321963b99329d61381a12e7a","住邦2000","321963b99329d61381a12e7a"
"39.919415","116.499492","","1","八里庄西里1号","d1469ee70c110b1e84330477","远洋天地","d1469ee70c110b1e84330477"
"39.919405","116.494287","","1","北京市东四环慈云寺1号院","aad7e782f55f5f779cf779bd","东区国际公寓","aad7e782f55f5f779cf779bd"
"39.9157","116.500888","","1","金地名京北门","2248a83219843d12b9df8fbb","东恒时代一期","2248a83219843d12b9df8fbb"
"39.916122","116.503507","","1","朝阳区东四环四惠桥东北角紧临1号地铁四惠站","e4a3495e5d848f6686420e54","金地名京小区","e4a3495e5d848f6686420e54"
"39.916381","116.499205","","1","东四环四惠桥东北角，东四环外侧，建国路北","fd007c5ef7a38c11a8f72937","力源里小区","fd007c5ef7a38c11a8f72937"
"39.919675","116.495123","","1","慈云寺1号","3c126799473f6df5ea1e976e","东区国际公寓-1号楼","3c126799473f6df5ea1e976e"
"39.91782","116.494917","","1","北京市朝阳区慈云寺小区46号","7ed1b46b8072d75c0f0a7012","慈云寺-46号楼","7ed1b46b8072d75c0f0a7012"
"39.918926","116.501231","(010)85862020","1","东八里庄西里一号院","3e97a6a6590cb3af2ce67b63","远洋天地-二期","3e97a6a6590cb3af2ce67b63"
"39.918409","116.498654","","1","北京市朝阳区远洋天地60号楼","e9d8f682af4b9fa6adcb660d","远洋天地-60号楼","e9d8f682af4b9fa6adcb660d"
"39.915983","116.512617","","1","北京市朝阳区四惠建国路通惠家园惠民园","9f97b1c518e74a06b74f5491","惠生园小区","9f97b1c518e74a06b74f5491"
"39.918024","116.504867","","1","朝阳区八里庄东里甲1号院","a1418eb4b321cd03ebe5821d","东恒时代二期","a1418eb4b321cd03ebe5821d"
"39.920443","116.509016","","1","朝阳朝阳区十里堡甲3号院","c879fa010339a74ac809f096","都会华庭","c879fa010339a74ac809f096"
"39.9182","116.508911","","1","朝阳区地铁1号线四惠站北600米","3bc292eba04aecb91ce9998d","东恒时代-三期","3bc292eba04aecb91ce9998d"
"39.91506","116.511053","","1","北京市朝阳区建国路(地铁一号线四惠站)","3be122e171edcb531ef74df5","壹线国际","3be122e171edcb531ef74df5"
"39.915515","116.506515","","1","北京市朝阳区建国路(四惠地铁站东)","eb4a86563f8f7b54c51e517f","惠泽园","eb4a86563f8f7b54c51e517f"
"39.918165","116.508964","","1","北京市朝阳区十里堡甲3号院","2a7a25ece6f710636d3e1b95","东恒时代","2a7a25ece6f710636d3e1b95"
"39.915957","116.509631","","1","高碑店街道通惠家园社区","a27a38bbfcca3477e3110396","惠润园","a27a38bbfcca3477e3110396"
"39.916647","116.508376","","1","北京市朝阳区惠泽园1栋","51156985a3f75b9841d63e55","惠泽园-1栋","51156985a3f75b9841d63e55"
"39.916643","116.507232","","1","北京市朝阳区惠泽园2栋","45a1665bb400bd5ea8f7291c","惠泽园-2栋","45a1665bb400bd5ea8f7291c"
"39.917356","116.51777","010-85778888","1","北京市朝阳区八里庄陈家林九号院","6d964b4cfc78503cf723104f","华腾世纪总部公园","6d964b4cfc78503cf723104f"
"39.921195","116.523434","","1","北京市朝阳区青年路南口公交站点四惠东地铁站","7320b632b6a00609f33cba78","甘露园南里二社区","7320b632b6a00609f33cba78"
"39.918002","116.522763","","1","北京市朝阳区高碑店北路","04bdf4a319a6c14f344aae96","康家园小区","04bdf4a319a6c14f344aae96"
"39.921617","116.519095","","1","朝阳路与甘露园南里交界东南","4eb3b5336c17400843024542","甘露园南里小区一区","4eb3b5336c17400843024542"
"39.919602","116.514231","","1","北京市朝阳区朝阳路十里堡甲二号院","8371f84e2ffb20423c9a5eca","爱这城","8371f84e2ffb20423c9a5eca"
"39.915822","116.51809","","1","朝阳区东四环四惠桥往东1公里","35f1c22ec8051238c356ac74","惠民园","35f1c22ec8051238c356ac74"
"39.920916","116.514386","","1","北京市朝阳区甘露西园1号楼","0523a14177ba491db33c8196","甘露西园","0523a14177ba491db33c8196"
"39.917167","116.514452","(010)52029552","1","北京市朝阳区陈家林甲56号","be54cde9ca749e2578f79629","富和公寓","be54cde9ca749e2578f79629"
"39.915053","116.514986","","1","北京市朝阳区惠生园13号楼","8ae592ecc821cf0646e274af","惠生园13号楼","8ae592ecc821cf0646e274af"
"39.920153","116.515708","","1","高碑店乡陈家林路甲2号","a3a9771d517bd8842811d10a","普乐门公寓-5号楼","a3a9771d517bd8842811d10a"
"39.916449","116.530786","","1","北京市朝阳区建国路29号(朝阳路与青年路交汇处)","92b806d2de125d8079b55cec","兴隆小区","92b806d2de125d8079b55cec"
"39.916983","116.527575","","1","高碑店北路甲6号四惠东地铁东北口华润饭店北100米","dbf4d6ee412a4b2a6ea3cc96","白领家园","dbf4d6ee412a4b2a6ea3cc96"
"39.920976","116.530322","","1","北京市朝阳区建国路29","0ebb0b57b14e9941c7f50d8a","兴隆家园-北区","0ebb0b57b14e9941c7f50d8a"
"39.920258","116.527176","","1","高碑店北路5号","3810c879110f2f8b9d09f796","都市经典家园","3810c879110f2f8b9d09f796"
"39.922179","116.526184","","1","朝阳区甘露园19号（朝阳园对面）","00f1c7fb22b2321fc156ac96","丽景馨居","00f1c7fb22b2321fc156ac96"
"39.920719","116.533638","","1","朝阳太平庄兴隆西街8号","d82d66975edf4ea6d418b796","美丽亚洲假日花园","d82d66975edf4ea6d418b796"
"39.917118","116.530256","","1","建国路29号","5a0cf7f49ad63017c356ac71","兴隆家园-南区","5a0cf7f49ad63017c356ac71"
"39.921635","116.527521","","1","北京市朝阳区青年路南","d6718768bc999f868bdb7336","甘露园南里三区","d6718768bc999f868bdb7336"
"39.920408","116.529227","","1","北京市朝阳区兴隆家园17号楼","59ef981ea63280256e3e1b0c","兴隆家园17号楼","59ef981ea63280256e3e1b0c"
"39.91776","116.529664","","1","北京市朝阳区建国路29号","9e5a1414f561ed9bb6147f2b","兴隆家园-26号楼","9e5a1414f561ed9bb6147f2b"
"39.912598","116.536809","","1","高碑店5号院","9d848b7a5257c12d02294f83","高碑店村5号院","9d848b7a5257c12d02294f83"
"39.920508","116.536556","","1","北京市朝阳区","68ac317e9b1e7b1e04026ff4","高井甲1号楼","68ac317e9b1e7b1e04026ff4"
"39.921945","116.534396","","1","兴隆西街8号美丽亚洲假日花园1栋","fdc5ed02a6e7a96ab726557e","美丽亚洲假日花园-1栋","fdc5ed02a6e7a96ab726557e"
"39.912462","116.53679","","1","北京市朝阳区高碑店村5号院10号楼","51fdc94d4c25243d0a5cb368","高碑店村5号院10号楼","51fdc94d4c25243d0a5cb368"
"39.920965","116.55272","","1","北京市朝阳区大黄庄南里11号楼","e2e88caa68f0d2f35abbbcea","大黄庄南里小区","e2e88caa68f0d2f35abbbcea"
"39.920903","116.552252","","1","北京市朝阳区花北西社区位于朝阳路南侧,东临花北东社区,西靠五环路,南接京通路,北至朝阳路","d8470784d87e54d9018972d0","妇联小区","d8470784d87e54d9018972d0"
"39.920032","116.552471","","1","朝阳路南侧，大黄庄桥东南260米","2527be1ea0e0aeb34bfc8d96","花北西社区","2527be1ea0e0aeb34bfc8d96"
"39.916349","116.553894","","1","北京市朝阳区花园闸北里15号楼","8707baa62ca87e597069d39e","花园闸北里-15号楼","8707baa62ca87e597069d39e"
"39.918635","116.551663","","1","北京市朝阳区大黄庄南里11号楼","793ad72b9983c490aa175aa5","大黄庄南里11号楼","793ad72b9983c490aa175aa5"
"39.918589","116.553135","","1","北京市朝阳区大黄庄南里15号楼","e89285b13093aeaa7ec87654","大黄庄南里-15号楼","e89285b13093aeaa7ec87654"
"39.921007","116.551449","","1","北京市朝阳区大黄庄南里4号楼","c1220c198639673ea7c75682","大黄庄南里4号楼","c1220c198639673ea7c75682"
"39.920994","116.552122","","1","北京市朝阳区大黄庄南里3号楼","83f909880360fb8097ec842b","大黄庄南里3号楼","83f909880360fb8097ec842b"
"39.920938","116.552784","","1","北京市朝阳区大黄庄南里2号楼","f5caa30b2a32d673d5b74ecd","大黄庄南里2号楼","f5caa30b2a32d673d5b74ecd"
"39.916569","116.55348","","1","北京市朝阳区花园闸北里14号楼","12f06c0923a025e50d3dda67","花园闸北里-14号楼","12f06c0923a025e50d3dda67"
"39.92205","116.562283","","1","传媒北门马路对面","7fbb9448bd7bb02c4f3a5941","聚福苑小区","7fbb9448bd7bb02c4f3a5941"
"39.919487","116.55944","","1","定福庄东街","33fbfa8383eca5c10af5eb96","定福庄西里-1号院","33fbfa8383eca5c10af5eb96"
"39.917328","116.555384","","1","定福庄传媒大学地铁站往西300米","d6c5d991ee1978e831169b96","花园闸北里小区","d6c5d991ee1978e831169b96"
"39.922102","116.559537","","1","朝阳路传媒大学西北200米","3ba68b8a8048605a1a11d5a6","电建北院","3ba68b8a8048605a1a11d5a6"
"39.916309","116.555879","","1","北京市朝阳区花园闸北里17号楼","e45d8409b509026b28201ab3","花园闸北里-17号楼","e45d8409b509026b28201ab3"
"39.914078","116.562761","","1","北京市朝阳区建国路20号","684072ef216a3d2584330443","梆子井","684072ef216a3d2584330443"
"39.917586","116.554694","","1","北京市朝阳区京通快速路辅路","565aada081e84810260bd00f","花园闸","565aada081e84810260bd00f"
"39.918018","116.554449","","1","北京市朝阳区花园闸北里9号楼","26e359b28f6bd32cd42ce2c8","花园闸北里-9号楼","26e359b28f6bd32cd42ce2c8"
"39.919636","116.559289","","1","定福庄西里2号院","7e270acf06a570174207c1be","定福庄西里","7e270acf06a570174207c1be"
"39.916317","116.554541","","1","北京市朝阳区花园闸北里16号楼","92f1546b2fdb6ba9cac3db2e","花园闸北里-16号楼","92f1546b2fdb6ba9cac3db2e"
"39.913968","116.567723","","1","朝阳区建国路18号，城铁八通线广播学院站南","4e96033e7861c0f22bd7ab64","珠江绿洲家园","4e96033e7861c0f22bd7ab64"
"39.922106","116.567448","","1","北京市朝阳路辅路","c69aea3492517446b45f1e80","定福庄北里-1号院","c69aea3492517446b45f1e80"
"39.915786","116.573694","","1","北京市朝阳区建国路","f371308ed03eae5052e5c528","三间房南里7号院","f371308ed03eae5052e5c528"
"39.916831","116.568574","","1","北京市朝阳区定福庄南里4号院","e0574f0f488f533cc909f0e2","福慧家苑","e0574f0f488f533cc909f0e2"
"39.915982","116.56811","","1","京通快速路传媒大学城铁旁边","5ce2637d2b04d351af31e596","定福庄南里-4号院","5ce2637d2b04d351af31e596"
"39.917078","116.567408","","1","定福庄东街1号中国传媒大学","cd513ec1d178cf8904026f19","定福庄南里3号院","cd513ec1d178cf8904026f19"
"39.913738","116.570811","","1","建国路18号院18号楼","e2a4c500f96a2302c16c14e3","珠江绿洲家园-18号楼","e2a4c500f96a2302c16c14e3"
"39.913574","116.569517","","1","建国路18号院17号楼","055935ebc519f4f39222e063","珠江绿洲家园-17号楼","055935ebc519f4f39222e063"
"39.913737","116.571257","","1","建国路18号院20号楼","6c9fc66dd91a14c26140a90b","珠江绿洲家园-20号楼","6c9fc66dd91a14c26140a90b"
"39.913963","116.567611","","1","建国路18号院6号楼","b3219274513578e1b33c81a7","珠江绿洲家园-6号楼","b3219274513578e1b33c81a7"
"39.930982","116.463259","","1","北京市朝阳区中纺街28号","0523a14177a7491db33c818d","核桃园北里小区","0523a14177a7491db33c818d"
"39.928306","116.459905","","1","朝阳区关东店北街1号","b6581c2fc590cfc19fec2b25","国安大厦","b6581c2fc590cfc19fec2b25"
"39.926359","116.458515","","1","北京朝阳区朝阳门外大街,国安大厦西南侧","6637b0d78ae5ecbe8505bf66","东大桥东里小区","6637b0d78ae5ecbe8505bf66"
"39.929898","116.460004","(010)65084263","1","北京市朝阳区农丰里1号","41572e00feb4d3cab45f1e76","农业部农丰里小区","41572e00feb4d3cab45f1e76"
"39.931821","116.455692","","1","工人体育场南路甲3号","570723928b593458c27da2db","体东社区","570723928b593458c27da2db"
"39.925526","116.459785","","1","北京市朝阳区东大桥东里12号","9f4e1b245a2ee7f5aeb22a61","东大桥东里-12号楼","9f4e1b245a2ee7f5aeb22a61"
"39.923661","116.457457","","1","北京市朝阳区东大桥路16号","505317026d11d8bed2f49e4f","东大桥路小区-16号楼","505317026d11d8bed2f49e4f"
"39.928714","116.461003","","1","北京市朝阳区农丰里5号","34354e64eedc85e65a10935f","农丰里-5号楼","34354e64eedc85e65a10935f"
"39.930579","116.463837","","1","北京市朝阳区核桃园北里小区5号楼","e8cde9470dd10b3aa10464f5","核桃园北里小区5号楼","e8cde9470dd10b3aa10464f5"
"39.929741","116.46036","","1","北京市朝阳区农丰里8号","46b1102e8d7b4e7efe0eb043","农丰里-8号楼","46b1102e8d7b4e7efe0eb043"
"39.924594","116.471967","(010)65946688","1","北京市朝阳区朝阳路139号","f8b57237b993f5f78bf15d9f","首创禧瑞都","f8b57237b993f5f78bf15d9f"
"39.931336","116.465487","(010)65926666","1","朝阳白家庄西里5号，京广中心大厦北100米","88e7c5e1ff4996e5e31103d7","圣世一品","88e7c5e1ff4996e5e31103d7"
"39.930251","116.468918","","1","东三环北路30号","373cf75790ec34104254d799","紫荆豪庭","373cf75790ec34104254d799"
"39.930404","116.466561","","1","向军北里一巷与向军北里三巷交叉口东南100米","6deee3086a5d396a28fc488f","向军北里小区","6deee3086a5d396a28fc488f"
"39.93223","116.466818","(010)65091888","1","东三环北路55号(近康莱德酒店)","b533ea4a8960f0584f6d4612","世茂·宫园","b533ea4a8960f0584f6d4612"
"39.923121","116.465401","","1","东三环中路7号院7号楼北京财富购物中心地下一层","8f4917c3eabe0155a2046470","御金台","8f4917c3eabe0155a2046470"
"39.922673","116.473421","","1","北京市朝阳区新苑1号","ded9b060633254ef7dc87620","呼家楼新苑-1号楼","ded9b060633254ef7dc87620"
"39.931895","116.467541","(010)65010591","1","团结湖京水商务公寓东三环内甲6号","2527be1ea0f9aeb34bfc8d8f","京水商务公寓","2527be1ea0f9aeb34bfc8d8f"
"39.931311","116.464342","","1","北京市朝阳区核桃园北里甲3号","66f62dd200025a146dc02c62","核桃园北里小区甲3号楼","66f62dd200025a146dc02c62"
"39.922949","116.472675","","1","北京市朝阳区呼家楼新苑2号","9d00ff76531aa9703913fd03","呼家楼新苑-2号楼","9d00ff76531aa9703913fd03"
"39.931578","116.48379","","1","北京市朝阳区金台路十字路口西北角甜水西园","55776829d305f4a03904b152","万科公园五号","55776829d305f4a03904b152"
"39.924397","116.477186","","1","北京市朝阳区金台西路2号院人民日报社宿舍区南区","606ab0d069f0a1290f3dda9c","金台西路2号院","606ab0d069f0a1290f3dda9c"
"39.930237","116.476714","","1","北京市朝阳区水碓子24号楼","46744b3f2ca788c952e5c5ab","水碓子社区","46744b3f2ca788c952e5c5ab"
"39.924672","116.482213","","1","北京市朝阳区大望路桥北500米朝阳路金台路交界处","10e58b52639db18708f5eb34","金台里小区","10e58b52639db18708f5eb34"
"39.931349","116.481934","","1","甜水园街与团结湖中路口西北角","2c0bd6c5c98427aa42ab9a8c","甜水西园小区","2c0bd6c5c98427aa42ab9a8c"
"39.927948","116.480526","","1","北京市朝阳区金台北街1号楼","dffd4642d05eb3b23d9a5e8c","金台北街小区","dffd4642d05eb3b23d9a5e8c"
"39.930172","116.474303","","1","团结湖南路9号附近","4cb01ce19a7e2847c6effb80","水锥子西里小区","4cb01ce19a7e2847c6effb80"
"39.927582","116.474411","","1","北京市朝阳区呼家楼北里10号","5fd17acf6972cd5f28201a35","呼家楼北里小区","5fd17acf6972cd5f28201a35"
"39.929451","116.482464","","1","朝阳北路","1716ed7b9fb7169446e274ab","水碓子东里小区","1716ed7b9fb7169446e274ab"
"39.926794","116.477538","","1","北京市朝阳区金台西路2号","9b609ccc84a2e0e00682c202","人民日报社-家属区","9b609ccc84a2e0e00682c202"
"39.931471","116.492627","(010)65013744","1","甜水园东街,靠近东四环红领","c21db9e5e9f9a09a01ff2dbb","道家园小区","c21db9e5e9f9a09a01ff2dbb"
"39.931904","116.489363","(010)65043244","1","甜水园东里40","64ff3be1fa1a20a290114cfc","甜水园东里","64ff3be1fa1a20a290114cfc"
"39.924827","116.486663","","1","北京市朝阳区朝阳北路和金台路交界处","c204978bd73ada0cbb17e798","红庙北里小区","c204978bd73ada0cbb17e798"
"39.923515","116.491846","","1","延静里中街甲18号院1号","8d461ad1f144c869bb17e711","华业玫瑰东方1号楼","8d461ad1f144c869bb17e711"
"39.926086","116.489838","","1","朝阳公园南1000米","c7eca12b29ad242ee115f9cf","延静西里","c7eca12b29ad242ee115f9cf"
"39.929364","116.488024","","1","金台路十字路口的东南方向","4eb3b53339b60d74430245e7","延静里小区","4eb3b53339b60d74430245e7"
"39.92247","116.492187","","1","八里庄","c1653405cf9b7779aa175a94","延静里中街3号院","c1653405cf9b7779aa175a94"
"39.927135","116.484366","","1","金台里甲25号","a34e1b54ca2a200dc909f0f8","金台里-25号楼","a34e1b54ca2a200dc909f0f8"
"39.928454","116.489729","","1","北京市朝阳区延静西里2号楼","6aaf2d1be7f392e297ec84a2","延静西里-2号楼","6aaf2d1be7f392e297ec84a2"
"39.92326","116.490464","","1","东三环红庙延静里中街","525110a77499d6992cb17e73","延静里中街小区","525110a77499d6992cb17e73"
"39.923065","116.499071","010-65561888","1","北京市朝阳区慈云寺北里207号","521c4a2c0360a9ac82a12ec7","凯德锦绣","521c4a2c0360a9ac82a12ec7"
"39.923506","116.501714","","1","八里庄路西100米","1547051b827372a4f50e77cc","慈云寺北里小区","1547051b827372a4f50e77cc"
"39.927997","116.504087","(010)85836978","1","北京市朝阳区八里庄南里31","49a02a7ab5ffaf402a201a8d","碧水星阁","49a02a7ab5ffaf402a201a8d"
"39.924458","116.499112","","1","朝阳路慈云寺桥东北角","a770e38a69eb6b33df1e52fc","八里庄西里","a770e38a69eb6b33df1e52fc"
"39.92857","116.499316","(010)85846832","1","红领巾公园路6号","8eb48fa1b8d7d0a6f22d838c","双兴小区","8eb48fa1b8d7d0a6f22d838c"
"39.924402","116.500493","","1","朝阳区东四环兹云寺桥东北角","20302184313af8dacf04efac","晨曦园","20302184313af8dacf04efac"
"39.923052","116.497397","","1","北京市朝阳区八里庄西里408号楼","b5a2e2904904af5ec51b75d0","八里庄西里-408号楼","b5a2e2904904af5ec51b75d0"
"39.925854","116.497031","","1","东四环中路辅路附近","2862f45da0ee2bf40782c249","八里庄西里-618号楼","2862f45da0ee2bf40782c249"
"39.925933","116.498045","","1","北京联合大学商务学院学生宿舍附近","b820c755f7635479b9df8fc1","八里庄西里-615号楼","b820c755f7635479b9df8fc1"
"39.926417","116.499798","","1","八里庄路中国纺织科学院家属院(东门)附近","955111923fb0c399bd484200","八里庄西里-311号楼","955111923fb0c399bd484200"
"39.932004","116.512563","(010)65521817","1","朝阳北路和石佛营路交叉口","6a92cf437703d36230169b28","晨光家园","6a92cf437703d36230169b28"
"39.930121","116.509008","","1","北京市朝阳区朝阳北路129东门","15ed1c7593221c0feedfca3b","润枫嘉尚","15ed1c7593221c0feedfca3b"
"39.928112","116.5127","","1","北京市朝阳区朝阳北路","faea4a0d04d6b6f1b45f1e8d","六里屯街道十里堡北里小区","faea4a0d04d6b6f1b45f1e8d"
"39.924183","116.505405","","1","朝阳区八里庄东里","6ed3083a9e4f22b52b3a9f2e","八里庄东里小区","6ed3083a9e4f22b52b3a9f2e"
"39.923729","116.512145","","1","十里堡38号附近","e981e4a6ef6aa82af8dc85d6","京棉新城","e981e4a6ef6aa82af8dc85d6"
"39.931796","116.510443","","1","东四环红领巾桥向东农民日报社路东","8055e12951918b243310af37","晨光家园-B区","8055e12951918b243310af37"
"39.925146","116.509094","(010)87177511","1","朝阳区朝阳路华堂商场对面","666762c6c9b2df51343a7100","海华堂","666762c6c9b2df51343a7100"
"39.929867","116.505468","(010)85128888","1","北京市朝阳区东四环八里庄北里218号1872国际公寓9-1宾馆","15e1e85e6fda3ddf581093e3","公园1872商务楼","15e1e85e6fda3ddf581093e3"
"39.930589","116.512255","","1","朝阳北路北200米","4dcbe7b30279f5d60869d9fd","晨光家园-A区","4dcbe7b30279f5d60869d9fd"
"39.927194","116.510907","","1","朝阳北路68号","30ac12f5152ff21df6c59c0d","新华联丽景","30ac12f5152ff21df6c59c0d"
"39.922717","116.518126","","1","朝阳区  甘露园1号院","b7de7618884a6f2d32f71d10","甘露园小区","b7de7618884a6f2d32f71d10"
"39.927336","116.522065","","1","北京市朝阳区甘露园中里2号","7d5f3a0a89bb07482db9089b","青年汇佳园小区","7d5f3a0a89bb07482db9089b"
"39.924106","116.523011","","1","北京市朝阳区甘露园南里25号","53cebd509fffa9612b02e189","朝阳园","53cebd509fffa9612b02e189"
"39.923988","116.518287","","1","北京市朝阳区甘露园1号","066121e6615ce9ead7851f61","芳菁苑小区","066121e6615ce9ead7851f61"
"39.923772","116.516228","(010)85756688","1","北京市朝阳区甘露园西里8号","76215a23bec5a68cf50e7709","天天朝阳小区","76215a23bec5a68cf50e7709"
"39.924651","116.514389","","1","北京市朝阳区十里堡东里小区","4cf8d24eca7db5e59cf77909","十里堡东里","4cf8d24eca7db5e59cf77909"
"39.923049","116.521855","","1","东八里庄甘露园南里甲33号","161a0ed2fe0201505dd4fe89","甘露家园小区","161a0ed2fe0201505dd4fe89"
"39.9307","116.519538","(010)58626888","1","朝阳区朝阳北路107号(近朝阳大悦城)","844a750e937df2b963685888","珠江罗马嘉园","844a750e937df2b963685888"
"39.928751","116.520938","(010)85769995","1","北京市朝阳区朝阳北路","d34bb63e397c591fe6e9659b","青年汇-三期","d34bb63e397c591fe6e9659b"
"39.931288","116.521722","","1","朝阳北路靠近青年路","d402c0befe64f2cffb2d61c3","珠江罗马嘉园-东区","d402c0befe64f2cffb2d61c3"
"39.925914","116.529344","","1","北京市朝阳区甘露园中街","cde9e2c74f57d3b7e81e972f","天鹅湾","cde9e2c74f57d3b7e81e972f"
"39.927615","116.528769","","1","北京市朝阳区阳北路与朝阳路之间(黄杉木店路的东侧)","8bfb73b0ed536f8fca29157b","天鹅湾-北区","8bfb73b0ed536f8fca29157b"
"39.92859","116.529505","","1","朝阳北路雅成二里","bd5046e8b7ca1141d62ce289","朝阳雅筑","bd5046e8b7ca1141d62ce289"
"39.931223","116.53017","","1","青年路51号","f4a33da98540af083010af2d","青年路小区","f4a33da98540af083010af2d"
"39.922697","116.533743","","1","朝阳路兴隆西街2号","5fcdfa6354678cec276e987b","朝青汇","5fcdfa6354678cec276e987b"
"39.92638","116.529897","","1","北京市朝阳区朝阳北路","44970f176f55bc4158bbbc2c","天鹅湾-南区","44970f176f55bc4158bbbc2c"
"39.922558","116.526973","","1","朝阳路与高碑店北路的交叉口","a1418eb477af897feae58296","甘露晴苑","a1418eb477af897feae58296"
"39.930521","116.52761","","1","北京市朝阳区雅成一里19号楼","3991e8d216d6e094a20464a0","雅成一里小区19号楼","3991e8d216d6e094a20464a0"
"39.922704","116.529171","","1","北京市朝阳区兴隆家园10号楼","a936e4f300ee28152bb97cd4","兴隆家园10号楼","a936e4f300ee28152bb97cd4"
"39.927416","116.528026","","1","平房街","cad8a9b311dcf4ba2a02e1c8","雅成二里","cad8a9b311dcf4ba2a02e1c8"
"39.927466","116.542574","","1","朝阳北路与东五环路的交叉口西南","a0f57e9bc10c9f7914948e80","金隅汇星苑","a0f57e9bc10c9f7914948e80"
"39.926246","116.538046","","1","北京市朝阳区","a5b895cbb745bada95ca07e6","金隅泰和园小区","a5b895cbb745bada95ca07e6"
"39.928327","116.536155","","1","黄杉木店路186号","c7eca12b5b57d637e015f989","富华家园","c7eca12b5b57d637e015f989"
"39.926271","116.535344","","1","黄杉木店路188号","1020060fe24469a61994c689","阿曼寓所(黄衫木店)","1020060fe24469a61994c689"
"39.929106","116.541149","010-85766688","1","北京市朝阳区朝阳北路66号","0d826e500d64629ef7231016","熙悦尚郡","0d826e500d64629ef7231016"
"39.9254","116.542481","","1","朝阳路高井民航医院附近","aaf891402389b539276e98a6","南太平庄北巷小区","aaf891402389b539276e98a6"
"39.924239","116.541135","","1","北京市朝阳区朝阳路高井67号财满街叠墅","fa835ce2bd6a30b6e912e489","叠墅财满街","fa835ce2bd6a30b6e912e489"
"39.924861","116.541257","","1","北京市朝阳区南太平庄北巷22","a74481d6efe7d547f503b8f6","高井小区","a74481d6efe7d547f503b8f6"
"39.926019","116.534942","","1","北京市朝阳区阿曼寓所6号楼","311621fba42288bfcf06a428","阿曼寓所-6号楼","311621fba42288bfcf06a428"
"39.928983","116.535641","","1","黄杉木店路186号院2号楼","c611f7560c0164d42b06ce73","富华家园-2号楼","c611f7560c0164d42b06ce73"
"39.923244","116.552328","","1","北京市朝阳区大黄庄1号","d305db1f2eccf93e922ca389","绿岛苑","d305db1f2eccf93e922ca389"
"39.923375","116.544354","","1","北京市朝阳区朝阳路67号院7号楼","78b1c39218a0e458e5e96529","朝阳路67号院7号楼","78b1c39218a0e458e5e96529"
"39.928433","116.547814","","1","朝阳北路南150米","690c744c2092dc552811d106","苗圃公园","690c744c2092dc552811d106"
"39.923713","116.550963","","1","北京市朝阳区","b9e5d0b8740579c180a12ea1","绿岛苑小区-停车场","b9e5d0b8740579c180a12ea1"
"39.928581","116.558705","","1","北京市朝阳区定福庄北街甲15号","7388dffdd0b1eb96d3ff2332","瑞和国际","7388dffdd0b1eb96d3ff2332"
"39.925252","116.560777","","1","朝阳区朝阳路定福庄北街","3ea9cd004a0330318bfc06da","福怡苑小区","3ea9cd004a0330318bfc06da"
"39.926723","116.559091","","1","北京市朝阳区朝阳北路与定福庄北街交汇处南行400米路西","2527be1ea0f7aeb34bfc8d89","金福家园","2527be1ea0f7aeb34bfc8d89"
"39.92434","116.561216","","1","定福庄北街","e85e2527b806635394f08c89","金星小区","e85e2527b806635394f08c89"
"39.926059","116.557303","","1","朝阳路定福庄西里2号","4a7ae69a88cdafeeb05c6a40","北京齿轮厂家属院","4a7ae69a88cdafeeb05c6a40"
"39.929047","116.561764","","1","朝阳北路52号","c1653405cf8f7779aa175a88","英郡","c1653405cf8f7779aa175a88"
"39.922532","116.557288","","1","定福庄西里2号院","74c933fb1a8d9a5e9f82ea96","定福庄西里-2号院","74c933fb1a8d9a5e9f82ea96"
"39.927405","116.561812","","1","北京市朝阳区定福庄北街","64ff3be14057bec690114c25","福怡苑小区(北区)","64ff3be14057bec690114c25"
"39.923106","116.554663","","1","定福庄西里3号院","28e700f1e0f4c201085cb396","绿岛苑-东区","28e700f1e0f4c201085cb396"
"39.923352","116.560743","","1","定福庄北街6号","befdb2928ab285e186154188","文教小区","befdb2928ab285e186154188"
"39.927473","116.564907","","1","朝阳定福庄定福庄西村甲1号院","3a0a78bda0f186f96218099b","美然动力街区-A3区","3a0a78bda0f186f96218099b"
"39.927365","116.57344","(010)67489981","1","三间房西路1号","01f559cd45a0d68351e5c5df","福盈家园-1号院","01f559cd45a0d68351e5c5df"
"39.924295","116.565231","","1","三间房定福庄传媒大学正对面","96b672aac604b275cf04ef89","定福庄北里-2号院","96b672aac604b275cf04ef89"
"39.927232","116.571879","","1","北京市朝阳区定福庄路102号","72aa251396def547067ce889","定福景园","72aa251396def547067ce889"
"39.92902","116.572117","(010)58778888","1","朝阳区朝阳北路定福家园南里3号(北门)","506f056dc417dd36d618b76d","定福家园南里-3号院","506f056dc417dd36d618b76d"
"39.926763","116.565213","","1","北京市朝阳区朝阳路定福庄北街","24e99c3617d17690a8f0cd73","美然动力街区-二期","24e99c3617d17690a8f0cd73"
"39.928683","116.565843","","1","北京市朝阳区动力街区A2区11号楼","24180e08334b11f7ce04efba","美然·动力街区A2区-11号楼","24180e08334b11f7ce04efba"
"39.924278","116.565063","","1","北京市朝阳区定福庄北里","02f8421b47a5c2220bf5eb1f","定福庄北里","02f8421b47a5c2220bf5eb1f"
"39.923986","116.569151","","1","北京市朝阳区三间房乡定福庄北里1号院","33fbfa8383f5a5c10af5eb89","定福花园小区","33fbfa8383f5a5c10af5eb89"
"39.929348","116.565599","","1","北京市朝阳区动力街区A2区13号楼","c529990fce7865b8774ff160","美然·动力街区A2区-13号楼","c529990fce7865b8774ff160"
"39.934603","116.457476","","1","工人体育场东路8号","5af9c917239610fadc1e526f","康堡花园","5af9c917239610fadc1e526f"
"39.934166","116.460474","","1","东大桥斜街6","e2ae43228354515cfa42b29b","中纺里社区","e2ae43228354515cfa42b29b"
"39.934743","116.459142","","1","工体东路东大桥斜街6号","fa835ce2bd3530b6e812e458","华源之星","fa835ce2bd3530b6e812e458"
"39.940276","116.454773","","1","北京市朝阳区工人体育场北路路口以北50米路西","1bcb9db78739a3fd8433041f","幸福一村小区","1bcb9db78739a3fd8433041f"
"39.936708","116.459673","","1","工人体育场北路8号","a19b2f19b3e7dbac354aaed2","三里屯SOHO公寓-16","a19b2f19b3e7dbac354aaed2"
"39.936938","116.460144","","1","工人体育场北路8号院5","9f2db3f8059f17e4260bd070","三里屯SOHO公寓-15","9f2db3f8059f17e4260bd070"
"39.941827","116.460503","","1","北京市朝阳区三里屯南42号楼","3cada96949f46d6333169b26","三里屯南42号楼","3cada96949f46d6333169b26"
"39.934314","116.457984","","1","北京市朝阳区工人体育场东路8号院1号","eb3675031121251b01ec018c","康堡·财富堡座","eb3675031121251b01ec018c"
"39.937405","116.460952","","1","工人体育场北路8号","b5026edfa223d899c16c143b","三里屯SOHO公寓-11","b5026edfa223d899c16c143b"
"39.940705","116.457409","(010)64177960","1","三里屯路11号","25ec69fc58cc577dc36c148d","北三里社区","25ec69fc58cc577dc36c148d"
"39.935019","116.466595","010-58707777","1","朝阳区白家庄路1号","f757e6eee5c17817270bd08d","富力·爱丁堡公馆","f757e6eee5c17817270bd08d"
"39.940164","116.464855","","1","北京市朝阳区工人体育场北路1号","f757e6eee5c67817270bd08c","三里屯外交公寓","f757e6eee5c67817270bd08c"
"39.937197","116.466388","(010)59258888","1","北京市朝阳区白家庄北里3号","44c8204ac0a1873395ca0738","君汇雅居","44c8204ac0a1873395ca0738"
"39.935612","116.471577","","1","北京市朝阳区锦湖园公寓c座","cc788fde05df2d8a89fc068d","白家庄东里小区","cc788fde05df2d8a89fc068d"
"39.941075","116.47126","(010)65915230","1","北京市朝阳区农展南里1号楼","c5ddcc08e76980bbd81318d6","农展南里社区","c5ddcc08e76980bbd81318d6"
"39.938","116.472564","","1","朝阳团结湖路与农展馆南路路口以南","11fd10dafbd34243b45f1e83","团结湖北二条","11fd10dafbd34243b45f1e83"
"39.933666","116.472778","","1","团结湖路23-1号","c61bd305c30aff68c37da28c","团结湖北里小区","c61bd305c30aff68c37da28c"
"39.934826","116.464507","","1","工人体育场北路路口南150米路西","d2db8d4cb724800981a12e0a","白家庄西里小区","d2db8d4cb724800981a12e0a"
"39.93862","116.470318","","1","北京市朝阳区团结湖北头条4号","badf9b7b02d4aca078f79628","团结湖北头条","badf9b7b02d4aca078f79628"
"39.941021","116.473321","","1","北京市朝阳区农展南里社区3号楼","d4be4998e00b7caf15c9052f","农展南里社区-3号楼","d4be4998e00b7caf15c9052f"
"39.937423","116.481446","","1","朝阳六里屯西口243号","d305db1f2ec0f93e922ca38d","华阳小区","d305db1f2ec0f93e922ca38d"
"39.936446","116.483713","","1","朝阳区朝阳公园南侧，棕榈泉国际公寓西侧","04bdf4a319bcc14f344aae8c","万科东第","04bdf4a319bcc14f344aae8c"
"39.941343","116.477497","","1","北京市朝阳区农展馆南路9号","bba8738847eea5a0bda8228d","博雅园","bba8738847eea5a0bda8228d"
"39.934465","116.476984","(010)85962975","1","北京市朝阳区团结湖东里12号","d305db1f2ec1f93e922ca38c","团结公寓","d305db1f2ec1f93e922ca38c"
"39.933919","116.482438","","1","北京市朝阳区水碓子北里甜水园街","bab0fa749678987aa8f729a4","水碓子北里","bab0fa749678987aa8f729a4"
"39.941527","116.479546","(010)65381887","1","北京市朝阳区景园小街1号","48eb00580e1c94ad2ee67b8c","景园大厦","48eb00580e1c94ad2ee67b8c"
"39.940089","116.477628","","1","北京市朝阳区朝阳公园西路17号","e116be54c0fc247bc81b958c","天安·豪园","e116be54c0fc247bc81b958c"
"39.93845","116.478349","","1","团结湖北五条妇幼保健医院北","717191892898bf5840afe6c6","团结湖北五条小区","717191892898bf5840afe6c6"
"39.934753","116.475981","","1","北京市朝阳区姚家园路与团结湖路路口以东","3730401a11b6a92c7dc876c4","团结湖东里小区","3730401a11b6a92c7dc876c4"
"39.934095","116.476576","","1","北京市朝阳区团结湖东里11","71a71a1f8e8bd2deadee7ad5","团结湖东里-11号楼","71a71a1f8e8bd2deadee7ad5"
"39.938278","116.486865","","1","朝阳朝阳公园南路8号","009bd93d616500a8fbdc85c5","棕榈泉国际公寓","009bd93d616500a8fbdc85c5"
"39.938195","116.492829","(010)64616673","1","北京市朝阳区朝阳公园南路6号","c057049261324815631c6708","公园大道小区","c057049261324815631c6708"
"39.938258","116.489995","","1","朝阳公园南路与甜水园东街交叉口西南","fad01ba859191593a21de945","丽水嘉园","fad01ba859191593a21de945"
"39.934135","116.488349","","1","北京市朝阳区甜水园北里7号楼","083a55fa3e1e1079256e988c","甜水园北里小区","083a55fa3e1e1079256e988c"
"39.933517","116.484413","","1","水碓子北里","a12baa404f884b55e956fa9f","秀水园小区","a12baa404f884b55e956fa9f"
"39.935041","116.488367","","1","朝阳区金台路甜水园东街2号","db1f39d42997a86ff4c59c8c","甜水园小区","db1f39d42997a86ff4c59c8c"
"39.936215","116.489582","","1","水碓子中街碧水园社区内","45bf20a729b1c7fb246e9887","六里屯东里","45bf20a729b1c7fb246e9887"
"39.933781","116.488254","","1","北京市朝阳区甜水园东里45号楼","793ba8667a4086521e5800af","甜水园东里-45号楼","793ba8667a4086521e5800af"
"39.932329","116.487682","","1","北京市朝阳区甜水园东里48号楼","49c5ff91298fdaa42b06ce35","甜水园东里-48号楼","49c5ff91298fdaa42b06ce35"
"39.934468","116.486984","","1","北京市朝阳区甜水园北里7号楼","d8dea545e331b2da6e4760e5","甜水园北里-7号楼","d8dea545e331b2da6e4760e5"
"39.940956","116.500782","","1","东四环北路88号","e30828487b2b57c2b34c49e2","观湖国际","e30828487b2b57c2b34c49e2"
"39.93393","116.50315","","1","八里庄北里208号","90ccf6e75672e5d3c61e51f6","环卫家园","90ccf6e75672e5d3c61e51f6"
"39.936893","116.503103","","1","石佛营路八里庄北里(西二门)附近","3426d6a4253cdca30869d97f","八里庄北里-125号楼","3426d6a4253cdca30869d97f"
"39.935355","116.503153","","1","北京市朝阳区八里庄北里120号楼","c0446a2f5378cce7b726553e","八里庄北里-120号楼","c0446a2f5378cce7b726553e"
"39.935712","116.503595","","1","北京市朝阳区八里庄北里121号楼","696530125af7a879d23ce34c","八里庄北里-121号楼","696530125af7a879d23ce34c"
"39.936121","116.503546","","1","八里庄北里114号北京市朝阳区育人学校附近","cdc5824ca325e12c102935fe","八里庄北里-122号楼","cdc5824ca325e12c102935fe"
"39.939538","116.499327","010-56280132","1","朝阳朝阳公园姚家园路97号院","89c534071ddcfdf4ab175a42","泛海国际售楼处","89c534071ddcfdf4ab175a42"
"39.93614","116.502808","","1","北京市朝阳区八里庄北里124号楼","a16904cb63e18ab8d6b74e49","八里庄北里-124号楼","a16904cb63e18ab8d6b74e49"
"39.936481","116.503602","","1","石佛营路八里庄北里(西二门)附近","9bbde48457277b9fcafa5faf","八里庄北里-123号楼","9bbde48457277b9fcafa5faf"
"39.942031","116.499586","","1","六里屯苇子坑101号","88c6d0a8f862f90bd3ff2322","国兴·观湖国际南院","88c6d0a8f862f90bd3ff2322"
"39.940429","116.510761","","1","北京市朝阳区姚家园路","5ce2637dd0b8682cae31e52e","石佛营东里小区","5ce2637dd0b8682cae31e52e"
"39.937097","116.514054","","1","朝阳十里堡一号","6deee3086a50396a28fc4888","炫特区","6deee3086a50396a28fc4888"
"39.936122","116.513015","","1","朝阳区十里堡北区一号","f0f0590f65b0762b1d1d117a","炫特嘉园","f0f0590f65b0762b1d1d117a"
"39.93938","116.505152","","1","姚家园路与石佛营路交叉口西南角","5b25f4465d71439410293576","石佛营西里小区","5b25f4465d71439410293576"
"39.934245","116.505735","","1","北京市朝阳区石佛营路","6475e83491426611c9fa5f2a","八里庄北里小区","6475e83491426611c9fa5f2a"
"39.935905","116.506375","","1","东四环朝阳公园桥东南角200米、石佛营东里","7e0079c886d06d60faf0cbd0","保利东郡(八里庄店)","7e0079c886d06d60faf0cbd0"
"39.936918","116.507526","","1","八里庄北里128号","610852117d7f3fddc51b757a","华业玫瑰郡","610852117d7f3fddc51b757a"
"39.937864","116.510859","(010)81680836","1","朝阳区石佛营东里126号院（朝阳公园往东800米）","c539e9870d76de82990050ed","日月东华小区","c539e9870d76de82990050ed"
"39.940903","116.51133","","1","东四环朝阳公园周边石佛营东里","936d6aa4197429734d2fdf01","石佛营东里-105号院","936d6aa4197429734d2fdf01"
"39.936109","116.509629","","1","红领巾公园以东500米,姚家园路与朝阳北路之间","64ff3be18ba277c690114c58","十里堡北区","64ff3be18ba277c690114c58"
"39.939692","116.519657","010-52065301","1","青年路西里3号","90ba8b55964bb2564e776e0e","国美第一城","90ba8b55964bb2564e776e0e"
"39.933666","116.517906","","1","北京市朝阳区朝阳北路与青年路交汇口向北150米","82cfb2541df5e11243ab9ae3","润枫水尚","82cfb2541df5e11243ab9ae3"
"39.939818","116.520681","","1","青年路西里3号","3b59b54a9dd78822970319e4","国美第一城-3号院","3b59b54a9dd78822970319e4"
"39.935485","116.518108","","1","北京市朝阳区姚家园路114号","65181692e5f1219b78f79620","华纺易城-西区","65181692e5f1219b78f79620"
"39.933455","116.5217","(010)85529999","1","青年路5号","31f9101bf0ad79c426e0a02a","润枫水尚-东区","31f9101bf0ad79c426e0a02a"
"39.938153","116.522322","","1","北京市朝阳区青年路29号院1-112","8bad07085799cf0b2b3a9f49","华纺新天地","8bad07085799cf0b2b3a9f49"
"39.935839","116.51484","","1","北京市朝阳区晨光家园102号楼","444b894f51a6aef13f9a5eec","酷特区","444b894f51a6aef13f9a5eec"
"39.940283","116.522866","","1","北京市朝阳区青年路西里3号院10号楼","a05214e09e2ea4aff7eafc95","青年路西里3号院10号楼","a05214e09e2ea4aff7eafc95"
"39.940442","116.514388","","1","朝阳石佛营东里134号院","1902e9f99e40c43eb13c8131","朝阳捷座","1902e9f99e40c43eb13c8131"
"39.940923","116.520801","","1","北京市朝阳区青年路西里3号院9号楼","40d311d0a09a0b27130daad9","青年路西里3号院9号楼","40d311d0a09a0b27130daad9"
"39.941649","116.52448","","1","青年路12号","e810ca2011d15876e5073824","小悦中心","e810ca2011d15876e5073824"
"39.934827","116.525321","","1","北京市朝阳区青年路22号","e96b4420765eb45983288a89","汇成家园","e96b4420765eb45983288a89"
"39.93395","116.529792","","1","北京市朝阳区朝阳北路四季星河路星河湾小区","f2e6f6180a41e4b4077ce86d","朗园","f2e6f6180a41e4b4077ce86d"
"39.932887","116.529633","","1","四季星河中街2号","1d2d085743285b73aa059d4f","星河湾-畅园","1d2d085743285b73aa059d4f"
"39.932404","116.530051","","1","北京市朝阳区畅园4号楼","9b333886e9f24f9888fc06cc","畅园4号楼","9b333886e9f24f9888fc06cc"
"39.933265","116.527889","","1","北京市朝阳区畅园1号楼","1671cf4101c6c7843310af7c","畅园1号楼","1671cf4101c6c7843310af7c"
"39.932436","116.528157","","1","北京市朝阳区畅园3号楼","111af2cee8f0f69dd7851f3e","畅园3号楼","111af2cee8f0f69dd7851f3e"
"39.934594","116.524848","","1","北京市朝阳区汇成家园6号楼","3d18f0be21ff3d47adb22a27","汇成家园-6号楼","3d18f0be21ff3d47adb22a27"
"39.935509","116.530141","","1","北京市朝阳区星河湾1号院2号楼","4cb01502307f670a17948e4b","星河湾1号院-2号楼","4cb01502307f670a17948e4b"
"39.934616","116.525723","","1","北京市朝阳区汇成家园3号楼","98bdbaeabb9466df02294fae","汇成家园-3号楼","98bdbaeabb9466df02294fae"
"39.934071","116.553461","","1","北京市朝阳区平房路","8cba4bb098911985ad04575b","白家楼小区","8cba4bb098911985ad04575b"
"39.934139","116.551293","","1","北京市朝阳区白家楼小区A区2号楼","2e169889e339d6ae220220fd","白家楼小区A区-2号楼","2e169889e339d6ae220220fd"
"39.932791","116.553332","","1","北京市朝阳区","7c90ffdc3a5b7ef4b25c6a20","白家楼二区82号楼","d551bf0379ebde15a0acc403"
"39.934425","116.554138","","1","北京市朝阳区白家楼小区C区22号楼","c50e6ac55d4cfc2a15948efa","白家楼小区B区22号楼","eae7737a36ea7b2a3517dcb9"
"39.934383","116.552698","","1","北京市朝阳区白家楼小区B区7号楼","51d4512d2ee1d8c372210b0d","白家楼小区B区-7号楼","51d4512d2ee1d8c372210b0d"
"39.934209","116.55271","","1","北京市朝阳区白家楼小区B区2号楼","a7f7a7f68fc4c6c133169b5c","白家楼小区B区-2号楼","a7f7a7f68fc4c6c133169b5c"
"39.934662","116.551515","","1","北京市朝阳区白家楼小区A区28号楼","a09af99cea15285edbd89155","白家楼小区A区-28号楼","a09af99cea15285edbd89155"
"39.93414","116.551187","","1","北京市朝阳区白家楼小区A区1号楼","dc72adbe401db918d2f49e35","白家楼小区A区-1号楼","dc72adbe401db918d2f49e35"
"39.93471","116.553434","","1","北京市朝阳区白家楼小区B区23号楼","e171b582f6d49c9ee9f853e3","白家楼小区B区-23号楼","e171b582f6d49c9ee9f853e3"
"39.934574","116.551699","","1","北京市朝阳区白家楼小区A区21号楼","1dbb7049962b652f3d9a5e89","白家楼小区A区21号楼","79580a7779e4e9192bd7abfb"
"39.933945","116.554511","","1","北京市朝阳区白家楼小区C区3号楼","c201e9eaeb83963f42ab9a28","白家楼小区C区-3号楼","c201e9eaeb83963f42ab9a28"
"39.93523","116.556271","","1","北京市朝阳区白家楼小区D区59号楼","d87a1fc2110faa9e76e5b6cd","白家楼小区D区-59号楼","d87a1fc2110faa9e76e5b6cd"
"39.933994","116.555051","","1","北京市朝阳区白家楼小区D区5号楼","26d58ac4ced9aebc120daac8","白家楼小区D区-5号楼","26d58ac4ced9aebc120daac8"
"39.935012","116.555381","","1","北京市朝阳区白家楼小区D区30号楼","5d2bd87a1b9fdb98f03cba10","白家楼小区D区-30号楼","5d2bd87a1b9fdb98f03cba10"
"39.934261","116.555988","","1","北京市朝阳区白家楼小区D区7号楼","a4bde37789b9a3f4f5c59cf4","白家楼小区D区7号楼","aef6ab62482bdc6a5fd4fe3c"
"39.934411","116.555064","","1","北京市朝阳区白家楼小区D区8号楼","a2aad8b070dbb5494d776e48","白家楼小区D区-8号楼","a2aad8b070dbb5494d776e48"
"39.934139","116.554259","","1","北京市朝阳区白家楼小区C区1号楼","4cc447e76a1c364ec17da202","白家楼小区C区-1号楼","4cc447e76a1c364ec17da202"
"39.934637","116.555556","","1","北京市朝阳区白家楼小区D区18号楼","dc7b897085c21cc2b11e3612","白家楼小区D区-18号楼","dc7b897085c21cc2b11e3612"
"39.934233","116.555325","","1","北京市朝阳区白家楼小区D区6号楼","1224b1ba3054125af6c59c54","白家楼小区D区6号楼","ff46bbe81f8725d938e4a6e9"
"39.934639","116.555728","","1","北京市朝阳区白家楼小区D区19号楼","02b0ef8561b203663586f461","白家楼小区D区-19号楼","02b0ef8561b203663586f461"
"39.949516","116.455379","","1","新东路1号","d05808c0acea47acad31e5c4","塔园外交公寓","d05808c0acea47acad31e5c4"
"39.943347","116.456083","(010)64178386","1","北京市朝阳区幸福二村38","07f3c8b5abc4cf1f6340a9b6","首开幸福广场","07f3c8b5abc4cf1f6340a9b6"
"39.944634","116.457691","(010)64686688","1","朝阳区新东路8号附近","3c0ea7c509650ee2fbf0cb1a","首开铂郡","3c0ea7c509650ee2fbf0cb1a"
"39.944358","116.458229","","1","东直门外大街16","e87a633d676999f0f6c59c00","幸福三村小区","e87a633d676999f0f6c59c00"
"39.942428","116.455536","","1","北京市朝阳区幸福二村38号首开幸福广场","bfeded2fb7797de6593ac867","幸福二村-38号楼","bfeded2fb7797de6593ac867"
"39.943694","116.457549","","1","朝阳区新东路10号","f9b79d06329283382cb908a9","逸盛阁","f9b79d06329283382cb908a9"
"39.950985","116.459543","","1","北京市朝阳区三里屯北小街8号","37bbfb7db12a14792b06ce2a","三里屯北小街8号楼","37bbfb7db12a14792b06ce2a"
"39.942847","116.455445","","1","东直门外新东路38-40号","98de91f0469cedf9843304e6","幸福二村-39号楼","98de91f0469cedf9843304e6"
"39.944536","116.455683","","1","北京市朝阳区幸福二村31号楼","f55148e74b791afb0e3dda31","幸福二村-31号楼","f55148e74b791afb0e3dda31"
"39.95112","116.459473","","1","北京市朝阳区三里屯北小街6号楼","b2f7be24c63cdc50b4f42fe8","三里屯北小街-6号楼","b2f7be24c63cdc50b4f42fe8"
"39.952149","116.474042","","1","枣营北里麦子店街40号","5508504dda7147b6c7f02579","富丽华园","5508504dda7147b6c7f02579"
"39.942837","116.466576","","1","北京市朝阳区东三里屯中2号楼","7d3c806908f89f5b471a32d5","东三里屯中2号楼","7d3c806908f89f5b471a32d5"
"39.942374","116.464934","","1","北京市朝阳区东三里屯中5号","b06ea19b0ef984540869d942","东三里屯中-5号楼","b06ea19b0ef984540869d942"
"39.94261","116.465745","","1","三里屯东二街中三里社区附近","879e38410f4808bf2d4733c8","东三里屯中3号楼","879e38410f4808bf2d4733c8"
"39.950091","116.473877","","1","北京市朝阳区农业部北区家属院宿舍10号楼","94e3313229414d134e776e4d","农业部北区家属院宿舍-10号楼","94e3313229414d134e776e4d"
"39.94316","116.473397","","1","北京市朝阳区农展馆东4号楼","b7108384dcc6adae48cc4ad3","农展馆东4号楼","b7108384dcc6adae48cc4ad3"
"39.942286","116.464583","","1","北京市朝阳区三里屯东二街","0d312063a140f051eaf853e4","东三里社区","0d312063a140f051eaf853e4"
"39.949993","116.474113","","1","北京市朝阳区麦子店街8号楼","afa2f096ddf0b5c1b42655ff","麦子店街8号楼院-八单元","afa2f096ddf0b5c1b42655ff"
"39.949911","116.473844","","1","北京市朝阳区麦子店街8号楼","bb061483a881607f93114c68","麦子店街8号楼院-十一单元","bb061483a881607f93114c68"
"39.942596","116.464631","","1","三里屯东三街与三里屯中街交叉口东南150米","87abad98ddf343ff471a32d7","北京市朝阳区东三里屯中3楼院","87abad98ddf343ff471a32d7"
"39.945362","116.480304","(010)65696868","1","北京市朝阳区朝阳公园西路九号","4cf8d24e39ffc6e49df7798c","九号公寓","4cf8d24e39ffc6e49df7798c"
"39.949684","116.478815","","1","麦子店街道枣营南里21号楼前平房","631c415707e6f77831f71dd6","枣营南里社区","631c415707e6f77831f71dd6"
"39.946683","116.478378","","1","北京市朝阳区皇石国际公寓d5501","480b24d0ca1b96f19dec2b8d","朝阳公园西里北区","480b24d0ca1b96f19dec2b8d"
"39.949706","116.474958","","1","朝阳麦子店街","1e2272c4b4ab3aefd9eceda8","麦子店小区","1e2272c4b4ab3aefd9eceda8"
"39.951479","116.479464","","1","朝阳麦子店枣营北里6号","7388dffdf40f87ebd2ff238d","伯宁花园","7388dffdf40f87ebd2ff238d"
"39.943919","116.477985","","1","朝阳公园西里南区8号院临甲3号","0a46dc0f82cf255e3162128d","北京GOLF公寓","0a46dc0f82cf255e3162128d"
"39.944763","116.480308","","1","朝阳区朝阳公园西路9号","3974acb0a1696289f4eafc45","碧湖居","3974acb0a1696289f4eafc45"
"39.950596","116.47602","(010)65918810","1","农展馆北路麦子店枣营北里15号","9f97b1c5ce52f007b64f5425","海悦名门国际公寓","9f97b1c5ce52f007b64f5425"
"39.944683","116.47854","","1","朝阳公园西里南区15号","f856be1f1358509c4afc8de0","维多利亚花园","f856be1f1358509c4afc8de0"
"39.94702","116.48038","15133669290","1","北京市朝阳区朝阳公园西路5号","550fd5f9fd1a6179921fc98c","清境明湖","550fd5f9fd1a6179921fc98c"
"39.944885","116.503066","","1","北京市朝阳区","e52b312840827c3bbca82297","泛海国际樱海园","e52b312840827c3bbca82297"
"39.942622","116.49944","","1","北京市朝阳区辛庄二街","e6e6137017fdae5703ec01a1","苇子坑101号院","e6e6137017fdae5703ec01a1"
"39.944076","116.500873","","1","北京市朝阳区东四环北路88号院","ba3f5a601f5a1d064c3a5975","国兴观湖国际-7号楼","ba3f5a601f5a1d064c3a5975"
"39.944743","116.499162","","1","北京市朝阳区东四环北路88号","102e289d662828b3b6f42f12","国兴观湖国际5号楼","102e289d662828b3b6f42f12"
"39.94356","116.498893","","1","北京市朝阳区东四环北路88号院10号楼","fe6a0fbd266e5234a8175aee","国兴观湖国际-10号楼","fe6a0fbd266e5234a8175aee"
"39.94326","116.499994","","1","北京市朝阳区国兴观湖国际甲9号楼","6f92b13e256ad3e3eddfca12","国兴观湖国际-9号楼","6f92b13e256ad3e3eddfca12"
"39.942548","116.502367","","1","北京市朝阳区姚家园路97号院1号楼","ac6efc83f2c5eb070f0a7099","泛海国际居住区·碧海园-1号楼","ac6efc83f2c5eb070f0a7099"
"39.942944","116.500913","","1","北京市朝阳区姚家园路105号院1","cded03cd9c37ad9f2102204e","国兴观湖国际-8号楼","cded03cd9c37ad9f2102204e"
"39.942826","116.50326","","1","北京市朝阳区泛海国际居住区碧海园2号楼","0bc09ac53e630fa596f08c14","泛海国际居住区·碧海园-2号楼","0bc09ac53e630fa596f08c14"
"39.942943","116.506425","15811507766","1","姚家园路95号","af28aa6d757da72eaecb66ba","泛海国际居住区·香海园","af28aa6d757da72eaecb66ba"
"39.945355","116.506197","","1","朝阳区姚家园路97号院","9fbfeef2ecef9b38ede4a5d5","泛海国际居住区兰海园","9fbfeef2ecef9b38ede4a5d5"
"39.942619","116.512668","(010)59079999","1","石佛营东里138号","8c4dcf70d88cfd92b23c8156","万科金阳国际公寓","8c4dcf70d88cfd92b23c8156"
"39.942405","116.511042","(010)85841389","1","朝阳区姚家园路北豆各庄102号","fd13a3f2689110fbb1077d60","紫萝园","fd13a3f2689110fbb1077d60"
"39.942708","116.504484","","1","北京市朝阳区姚家园路97号","19c123d333918e8d7069d3e6","碧海园","7440e40f1909d1d92cb17e5b"
"39.942429","116.514128","(010)85849967","1","朝阳区石佛营100号(朝阳公园桥往东1100米，姚家园路路南)","750ec165651d592b4d3a5988","中水·金海嘉苑","750ec165651d592b4d3a5988"
"39.942295","116.509211","","1","石佛营东里1号","4922f166885188ac1e1d11b9","石佛营小区","4922f166885188ac1e1d11b9"
"39.942937","116.511008","","1","石佛营东里133","92b806d289a380fe79b55c46","紫萝园小区-停车场","92b806d289a380fe79b55c46"
"39.948808","116.518592","(010)65513311","1","北京市朝阳区姚家园西口265号(姚家园路与青年路交汇处西北500米)","81d6a50915fe81416f20b99c","金隅凤麟洲","81d6a50915fe81416f20b99c"
"39.950388","116.519533","","1","姚家园西里7号院1号楼1单元","89303032dded4de440e192dc","姚家园西里-7号院","89303032dded4de440e192dc"
"39.949543","116.51912","","1","姚家园西里甲7号","f5594863bfa811680782c214","金隅凤麟洲-东区","f5594863bfa811680782c214"
"39.951296","116.520035","","1","北京市朝阳区姚家园西里3号院13号楼","59055f95e192463157bfffad","姚家园西里3号院-13号楼","59055f95e192463157bfffad"
"39.951746","116.520133","","1","北京市朝阳区姚家园西里3号院10号楼","eec0722ad134a2956b49f3b5","姚家园西里3号院10号楼","eec0722ad134a2956b49f3b5"
"39.951372","116.519058","","1","北京市朝阳区姚家园西里3号院12号楼","d542367d58c1f2c3b020a847","姚家园西里3号院12号楼","d542367d58c1f2c3b020a847"
"39.946171","116.519127","","1","姚家园路东郊木材厂宿舍附近","ee0b61904b2457fe018972f6","东郊木材厂宿舍-2号楼","ee0b61904b2457fe018972f6"
"39.952157","116.520153","","1","北京市朝阳区姚家园西里3号院9号楼","c34a5e01f981d71d0482c245","姚家园西里3号院-9号楼","c34a5e01f981d71d0482c245"
"39.95208","116.522644","","1","姚家园西里5号姚家园西里5号院(东门)附近","95379e3712b118ae3010afcd","姚家园西里5号院-10号楼","95379e3712b118ae3010afcd"
"39.946502","116.519435","","1","北京市朝阳区东郊木材厂宿舍3号楼","f8bdac2cc3a2b7993f9a5e72","东郊木材厂宿舍-3号楼","f8bdac2cc3a2b7993f9a5e72"
"39.949494","116.529257","","1","北京市朝阳区姚家园东里","5e53af1ab5c7c5214151c033","逸翠园","5e53af1ab5c7c5214151c033"
"39.944229","116.531748","(010)85575555","1","姚家园路甲8号青年路与姚家园路交汇处向东100米","8eb48fa15ad1bedbf22d838e","银谷美泉","8eb48fa15ad1bedbf22d838e"
"39.949357","116.527052","","1","北京市朝阳区姚家园东里5号院","14e15b68dc8afe57c9fa5f20","御翠·尚府","14e15b68dc8afe57c9fa5f20"
"39.949735","116.530563","","1","姚家园东里2-3","e9f606507797cf7080a00ccb","逸翠园-南区","e9f606507797cf7080a00ccb"
"39.949014","116.53118","","1","北京市朝阳区逸翠园B区4号楼","7d2affec6d5555991d1d111a","逸翠园B区-4号楼","7d2affec6d5555991d1d111a"
"39.949021","116.530149","","1","北京市朝阳区逸翠园B区4号楼2段","dc3bc5f628b985de260bd039","逸翠园B区4号楼-2段","dc3bc5f628b985de260bd039"
"39.948502","116.530961","","1","北京市朝阳区逸翠园B区5号楼","1e6d421e89ef1848acb22a95","逸翠园B区-5号楼","1e6d421e89ef1848acb22a95"
"39.950671","116.530979","","1","北京市朝阳区逸翠园B区1号楼","4840cdfafe8454a2882fb5ea","逸翠园B区-1号楼","4840cdfafe8454a2882fb5ea"
"39.949612","116.529754","","1","北京市朝阳区逸翠园B区6号楼","ebd326ac182999a1d618b7b0","逸翠园B区-6号楼","ebd326ac182999a1d618b7b0"
"39.950221","116.530995","","1","北京市朝阳区逸翠园B区2号楼","d8fa30783a11aa123d9a5ee7","逸翠园B区-2号楼","d8fa30783a11aa123d9a5ee7"
"39.943285","116.5374","","1","朝阳区平房乡黄杉木店路东侧","af956f673b8d8b8b7adbd2ae","福临家园","af956f673b8d8b8b7adbd2ae"
"39.942563","116.53662","(010)85575853","1","黄杉木店路8号","2105e06c0cc6075bc9291521","朝阳区平房地区爱心家园","2105e06c0cc6075bc9291521"
"39.951896","116.5578","","1","北京市朝阳区高杨树南里1号楼1单元102","aa40108bf3fdd315c4effb89","富东嘉园(朝阳新城小区路)","aa40108bf3fdd315c4effb89"
"39.952155","116.557327","","1","北京市朝阳区富东嘉园15号楼","0ef5f313a5456ade2fe67bda","富东嘉园-15号楼","0ef5f313a5456ade2fe67bda"
"39.95167","116.558734","","1","北京市朝阳区富东嘉园7号楼","f9d42769213e88576b49f3be","富东嘉园-7号楼","f9d42769213e88576b49f3be"
"39.95211","116.556736","","1","北京市朝阳区富东嘉园20号楼","41f2e19cc2917fe287154144","富东嘉园-20号楼","41f2e19cc2917fe287154144"
"39.951213","116.557491","","1","北京市朝阳区富东嘉园17号楼","7d0a851202242a6574026995","富东嘉园-17号楼","7d0a851202242a6574026995"
"39.950853","116.557515","","1","北京市朝阳区富东嘉园18号楼","39d8207058a064859a005075","富东嘉园-18号楼","39d8207058a064859a005075"
"39.951671","116.557622","","1","北京市朝阳区富东嘉园16号楼","32f27b1f58f186e10b69d931","富东嘉园-16号楼","32f27b1f58f186e10b69d931"
"39.951655","116.558166","","1","北京市朝阳区富东嘉园10号楼","54d9e811d962b5a84d55471b","富东嘉园-10号楼","54d9e811d962b5a84d55471b"
"39.952001","116.558878","","1","北京市朝阳区富东嘉园6号楼","b845cc3b06efd12838221c9c","富东嘉园-6号楼","b845cc3b06efd12838221c9c"
"39.952158","116.55675","","1","北京市朝阳区富东嘉园21号楼","eef0c72c43d211360e0a703e","富东嘉园-21号楼","eef0c72c43d211360e0a703e"
"39.952096","116.564544","","1","北京市朝阳区东坝朝新嘉园东里一区南250米","c32af27410a218909d82ea5a","朝新嘉园东里-三区","c32af27410a218909d82ea5a"
"39.951687","116.564703","","1","北京市朝阳区朝新嘉园东里三区6号楼","8014d64af7a996472b06ce17","朝新嘉园东里三区-6号楼","8014d64af7a996472b06ce17"
"39.951858","116.565362","","1","北京市朝阳区朝新嘉园东里三区4号楼","12779a612bfd53d2b54f545e","朝新嘉园东里三区-4号楼","12779a612bfd53d2b54f545e"
"39.952221","116.56522","","1","北京市朝阳区朝新嘉园东里三区2号楼","810310f19d1b8e992fb17e92","朝新嘉园东里三区-2号楼","810310f19d1b8e992fb17e92"
"39.958823","116.461","","1","北京市朝阳区三元桥三源里小区","41491ab9104adc7b43afe619","三源里小区","41491ab9104adc7b43afe619"
"39.955894","116.45486","","1","新东路和东外斜街交汇处东侧","9e69400dd2f56f881d5800c8","新源里西小区","9e69400dd2f56f881d5800c8"
"39.954367","116.461334","010-84474455,84474323","1","北京市朝阳区新源南路5号","55fa2c0b7eeaf6531de999ac","北京公馆","55fa2c0b7eeaf6531de999ac"
"39.955436","116.463981","","1","北京市朝阳区左家庄街道新源南路顺源里小区","0d83b4c66dd7b6de17948e26","顺源里小区","0d83b4c66dd7b6de17948e26"
"39.954645","116.457208","","1","朝阳京城大厦西100米路北（新源里14号）","91036749dea6938d611c6752","世方豪庭","91036749dea6938d611c6752"
"39.955272","116.461165","","1","新源街63号附近","2a7a25ecc2397c1e6c3e1bda","星源汇","2a7a25ecc2397c1e6c3e1bda"
"39.95975","116.464018","","1","北京朝阳区顺源街,三源里小区","757d98b1b995e1158c1a893f","三源里南小街小区","757d98b1b995e1158c1a893f"
"39.960247","116.454714","","1","北京市朝阳区香河园路香河园公园对面","cde9e2c787309bcae81e97cb","香河园中里","cde9e2c787309bcae81e97cb"
"39.957964","116.458681","","1","三元桥国展附近新源南路10号路","24436ba8f89bc9e395f08c63","新源里生态小区","24436ba8f89bc9e395f08c63"
"39.957749","116.459259","","1","北京市朝阳区新源街新源里东小区","7cb2522e8e70ecbe9de321dd","新源街小区","7cb2522e8e70ecbe9de321dd"
"39.960857","116.47033","","1","东方东路1号","6d56e77d0f7d2a407ab55c7f","US联邦公寓","6d56e77d0f7d2a407ab55c7f"
"39.952903","116.473573","","1","麦子店街38号","f3c2373c3b432052d32dd68c","三全公寓","f3c2373c3b432052d32dd68c"
"39.957352","116.469734","","1","北京市朝阳区东方东路19号","f22363367f9aa4edf4eafc6a","亮马桥外交公寓","f22363367f9aa4edf4eafc6a"
"39.955038","116.474047","","1","朝阳亮马桥路48号","589d5a3f0ca5f6df1811d577","四季世家","589d5a3f0ca5f6df1811d577"
"39.958714","116.465644","","1","北京市朝阳区顺源街5号","6902796e3e988d0543afe679","牛王庙小区","6902796e3e988d0543afe679"
"39.957708","116.469983","","1","东方东路19号","6ed3083ad7f87bb42a3a9f9c","亮马桥外交公寓-B区","6ed3083ad7f87bb42a3a9f9c"
"39.958708","116.465012","","1","北京市朝阳区牛王庙5号楼","5323c2f0f089efcb9cec2b0c","牛王庙-5号楼","5323c2f0f089efcb9cec2b0c"
"39.959798","116.470336","","1","东方东路5号","79381b997b5b7ee6e215f94d","东方东路小区","79381b997b5b7ee6e215f94d"
"39.957037","116.471996","","1","东方东路22号院","c61bd30580e2ba15c27da2e3","亮马桥外交公寓A区","c61bd30580e2ba15c27da2e3"
"39.961874","116.468057","","1","北京市朝阳区霞光里35号院1号楼","a6a853f09571dc0f0d3dda5d","霞光里35号院-1号楼","a6a853f09571dc0f0d3dda5d"
"39.952517","116.47724","","1","北京市朝阳区麦子店街36号附近","7c5ac37deeb6fd293f9a5e56","枣营北里社区","7c5ac37deeb6fd293f9a5e56"
"39.958352","116.482482","","1","朝阳区亮马桥路36号(燕莎商城东800米)","2a7a25ece6e810636d3e1b8c","亮马名居","2a7a25ece6e810636d3e1b8c"
"39.956082","116.476826","","1","朝阳区亮马桥路42号","f60a15ed88dd7becba17e78d","光明公寓","f60a15ed88dd7becba17e78d"
"39.953919","116.475944","","1","麦子店街50号附近","c5b7f93031b3f1fff603b8c4","枣营北里-31号楼","c5b7f93031b3f1fff603b8c4"
"39.954041","116.476773","","1","麦子店枣营北里国际青年中心内麦子店外文图书馆附近","dda2b9ffbfbcf726f7231022","枣营北里-28号楼","dda2b9ffbfbcf726f7231022"
"39.961883","116.481126","","1","北京市朝阳区安家楼38号","bd5046e828dc8042d62ce29d","安家楼38号院","bd5046e828dc8042d62ce29d"
"39.953106","116.477256","","1","麦子店枣营北里社区附近","b561b9f507933e8fd7851f08","枣营北里-25号楼","b561b9f507933e8fd7851f08"
"39.952701","116.476441","","1","麦子店街41号附近","eed5a79e64d5af04d8eced8f","枣营北里-22号楼","eed5a79e64d5af04d8eced8f"
"39.952527","116.479202","","1","蓝色港湾对面枣营北里10,11号楼","4ef4c9a612602b19ad04571d","成苑公寓","4ef4c9a612602b19ad04571d"
"39.952938","116.475177","","1","北京市朝阳区麦子店街41号","45e25b41f5440e49c26c14b2","麦子店街41号楼","45e25b41f5440e49c26c14b2"
"39.956548","116.48456","","1","北京市朝阳区北京东苑公寓19号楼","4b86d3da7f774a57e81e9722","北京东苑公寓19号楼","4b86d3da7f774a57e81e9722"
"39.955449","116.48462","","1","北京市朝阳区北京东苑公寓6号楼","49a181c55dd5640f2eb90873","北京东苑公寓6号楼","49a181c55dd5640f2eb90873"
"39.955784","116.484412","","1","北京市朝阳区北京东苑公寓5号楼","34d0db3d1fe96616213bf224","北京东苑公寓5号楼","34d0db3d1fe96616213bf224"
"39.955146","116.484457","","1","北京市朝阳区北京东苑公寓7号楼","687c7be2df52a95be215f960","北京东苑公寓7号楼","687c7be2df52a95be215f960"
"39.955399","116.484923","","1","北京市朝阳区北京东苑公寓17号楼","e0793a0568bcf09a2b3a9f9c","北京东苑公寓17号楼","e0793a0568bcf09a2b3a9f9c"
"39.955908","116.484688","","1","北京市朝阳区北京东苑公寓18号楼","f7d6d6e8061031603913fd62","北京东苑公寓18号楼","f7d6d6e8061031603913fd62"
"39.961768","116.502122","(010)84503099","1","酒仙桥南十里居28号院","817216b915cf315d704b874b","东润枫景","817216b915cf315d704b874b"
"39.956673","116.499449","","1","东四环北路7号","bcaebff84c6e6554c8e33c8d","东山墅","bcaebff84c6e6554c8e33c8d"
"39.962055","116.504033","","1","北京市朝阳区南十里居14号楼","783e2161cb86c7b6b4265595","南十里居-14号楼","783e2161cb86c7b6b4265595"
"39.961739","116.501546","","1","北京市朝阳区南十里居28号院东润枫景7号楼","0f32a0f7c7f19d3507026f1e","东润枫景-7号楼","0f32a0f7c7f19d3507026f1e"
"39.961022","116.502188","","1","北京市朝阳区东润枫景燕莎后5号楼","75fb9e5f5cc0b171b13c8166","东润枫景燕莎后5号楼","75fb9e5f5cc0b171b13c8166"
"39.954231","116.505211","","1","四路居368号","532a28157fe64faffe0eb09a","奔宝公寓","532a28157fe64faffe0eb09a"
"39.958641","116.505734","","1","南十里居16号院","aad0c009398ed490a2d23011","南十里居16号院","aad0c009398ed490a2d23011"
"39.961318","116.50424","","1","北京市朝阳区酒仙桥路西150米","9678ff0118603effe856fac9","南十里居-东区","9678ff0118603effe856fac9"
"39.961835","116.505376","","1","北京市朝阳区","3d34c03e50e6dabb230220a5","南十里居-19号院","3d34c03e50e6dabb230220a5"
"39.959662","116.507592","(010)64375532","1","东风南路22号附近","f22cc8fee9bf89256168580f","东风小区巡逻队","f22cc8fee9bf89256168580f"
"39.952499","116.521083","","1","北京市朝阳区姚家园路青年路口北300米","f0fa1c5c6a0c7d40f7b916a5","姚家园西里","f0fa1c5c6a0c7d40f7b916a5"
"39.952315","116.522086","","1","姚家园西里5号","593850fb2ce7fd5dde1e5288","姚家园西里-5号院","593850fb2ce7fd5dde1e5288"
"39.955025","116.519514","","1","姚家园西里2南门","3be122e1511fab521ff74d88","姚家园西里-2号院","3be122e1511fab521ff74d88"
"39.95247","116.519575","","1","姚家园西里3号西门","64ff3be164f9d2bb91114c88","姚家园西里3号院","64ff3be164f9d2bb91114c88"
"39.954994","116.522132","","1","姚家园西里1号","22e1140729f625b4d4b74e88","姚家园西里1号院","22e1140729f625b4d4b74e88"
"39.953077","116.520114","","1","姚家园西里3姚家园西里3号院附近","645c37b7ba24f2250969d945","姚家园西里3号院-5号楼","645c37b7ba24f2250969d945"
"39.955357","116.518965","","1","北京市朝阳区姚家园西里2号院3号楼","1236b3b45d3b624ff503b8e1","姚家园西里2号院-3号楼","1236b3b45d3b624ff503b8e1"
"39.954241","116.521527","","1","北京市朝阳区姚家园西里1号院11号楼","df6c57e22e3957f604026fa8","姚家园西里1号院-11号楼","df6c57e22e3957f604026fa8"
"39.954759","116.519932","","1","北京市朝阳区姚家园西里2号院6号楼","a61efec11f09263949fc8d68","姚家园西里2号院-6号楼","a61efec11f09263949fc8d68"
"39.95259","116.521445","","1","姚家园西里5号院附近","f71462a2bc7953ba94ec84ae","姚家园西里5号院-8号楼","f71462a2bc7953ba94ec84ae"
"39.954951","116.524891","","1","姚家园东里8号","69f45aa8e6d77867d3ff2390","姚家园东里-8号院","69f45aa8e6d77867d3ff2390"
"39.954833","116.524856","","1","朝阳区姚家园北一路","14a646cf113b4de7ae045700","姚家园东里小区","14a646cf113b4de7ae045700"
"39.95385","116.526134","","1","北京市朝阳区姚家园东里8号院7","123ff16d80a992f1d12dd630","姚家园东里-8号院7","123ff16d80a992f1d12dd630"
"39.960757","116.545689","","1","北京市朝阳区平房路","a9e35191492f98cb40e192e4","金隅汇景苑","a9e35191492f98cb40e192e4"
"39.954908","116.561042","","1","东里六区一号","d9ca009c7824c95dab0dd8f0","朝新嘉园","d9ca009c7824c95dab0dd8f0"
"39.957228","116.557014","","1","朝阳东坝乡高杨树村","fa4ee02436284ec80a5cb395","金隅景和园7区","fa4ee02436284ec80a5cb395"
"39.957533","116.561405","","1","北京市朝阳区东坝乡高杨树村","085e582e4afd1b342b06ce4d","金隅景和园","085e582e4afd1b342b06ce4d"
"39.954968","116.56127","(010)87306695","1","北京市朝阳区东坝驹子房路东","d4034eb31835bdf5c136449b","朝新嘉园东里-一区","d4034eb31835bdf5c136449b"
"39.953885","116.558743","","1","北京市朝阳区高杨树中街15号","d3b331b71fa0449ef32d8358","富北嘉园","d3b331b71fa0449ef32d8358"
"39.953288","116.555824","","1","驹子房路西侧(金隅嘉品Mall东南侧)","442076461d562968deee8b2f","高杨树小区","442076461d562968deee8b2f"
"39.955218","116.557057","","1","北京市朝阳区","4fc3161afbc5cca93b13fd89","高杨树北里","4fc3161afbc5cca93b13fd89"
"39.957637","116.561949","","1","东坝乡高杨树村","7e17892992814d15d3f49e67","金隅景和园-6区","7e17892992814d15d3f49e67"
"39.953482","116.557546","","1","驹子房路高杨树南里","c18e91bca9a9c9694054d7fc","高杨树南里","c18e91bca9a9c9694054d7fc"
"39.952703","116.558735","","1","北京市朝阳区富东嘉园4号楼","a95c1a96ba0bdcac2b11d1b3","富东嘉园-4号楼","a95c1a96ba0bdcac2b11d1b3"
"39.960815","116.570074","","1","北京市朝阳区金泽家园a区","8544be584695c2d9acee7a00","金泽家园","8544be584695c2d9acee7a00"
"39.95808","116.565666","","1","北京市朝阳区东坝乡","744c8dc590fe93de4f6d4637","朝新嘉园东里-五区","744c8dc590fe93de4f6d4637"
"39.95517","116.565766","","1","朝阳区东坝朝新嘉园东里二区","345bbd1b23d453cca8f0cd95","朝阳新城二区","345bbd1b23d453cca8f0cd95"
"39.955007","116.56516","","1","北京市朝阳区朝新嘉园","006d986582f30fb86240a9ac","朝新嘉园-东里二区","006d986582f30fb86240a9ac"
"39.955576","116.56452","","1","北京市朝阳区朝新嘉园东里二区13号楼","64cb18b99cedd153704b8738","朝新嘉园东里二区-13号楼","64cb18b99cedd153704b8738"
"39.958133","116.566709","","1","北京市朝阳区朝新嘉园东里五区3号楼","6e2bf87b6051d83db5f42fd0","朝新嘉园东里五区-3号楼","6e2bf87b6051d83db5f42fd0"
"39.956521","116.566041","","1","朝新嘉园东里四区","cfc810ac9600f0182ab97c45","朝阳新城三期","cfc810ac9600f0182ab97c45"
"39.959329","116.566482","","1","北京市朝阳区朝新嘉园东里五区1号楼","9a254b86118aa4d22cb17e6a","朝新嘉园东里五区-1号楼","9a254b86118aa4d22cb17e6a"
"39.957559","116.56694","","1","北京市朝阳区朝新嘉园东里五区4号楼","bfcff5001caebd0b86420e7e","朝新嘉园东里五区-4号楼","bfcff5001caebd0b86420e7e"
"39.953103","116.565414","","1","北京市朝阳区朝新嘉园东里三区1号楼","ffb1c39594f4e99d3b221c4a","朝新嘉园东里三区-1号楼","ffb1c39594f4e99d3b221c4a"
"39.966526","116.458063","(010)58677600","1","北京市朝阳区曙光西里甲1号","ff8954cbfc9538b63362126e","第三置业东域大厦B座","ff8954cbfc9538b63362126e"
"39.971652","116.458571","","1","北京市朝阳区曙光里13号楼临6号","4fc3161afbc6cca93b13fd8c","曙光里小区","4fc3161afbc6cca93b13fd8c"
"39.962652","116.454421","010-64649247","1","朝阳左家庄路甲号（中旅大厦后面）","912b6b26592a85f423f01713","北京国际友谊花园","912b6b26592a85f423f01713"
"39.971555","116.462497","","1","尚家楼48号院","f87ae425b0c9aadd843304ee","尚家楼48号院","f87ae425b0c9aadd843304ee"
"39.968937","116.460146","(010)58668662","1","北京市朝阳区凤凰商街","811117a493c91628fa0cadb3","凤凰城-三期","811117a493c91628fa0cadb3"
"39.96819","116.455384","","1","北京市朝阳区时间国际a座","341c35defa3e84a7e70738e1","曙光西里","341c35defa3e84a7e70738e1"
"39.96643","116.45569","","1","北京市朝阳区隆福家园静安里小区22号楼","9b7a093b2c612a922d4733fa","隆福家园静安里小区22号楼","9b7a093b2c612a922d4733fa"
"39.96873","116.456251","","1","北京市朝阳区时间国际4号楼","abbcca3cf7773403364aae32","时间国际-4号楼","abbcca3cf7773403364aae32"
"39.963864","116.456653","","1","北京市朝阳区静安东里3号楼","f9fd6062d6e9881f0e0e6b8c","静安东里小区","f9fd6062d6e9881f0e0e6b8c"
"39.965803","116.456867","","1","北京市朝阳区静安东里1号楼","4f00b54e2cf1955bd23ce34c","静安东里-1号楼","4f00b54e2cf1955bd23ce34c"
"39.971922","116.466583","","1","尚家楼路2号","925c550f17edfab25b3ac88c","裘马都","925c550f17edfab25b3ac88c"
"39.965299","116.468616","","1","霞光里30号院","a5cf8e35545f403b8bfc061e","霞光里-30号院","a5cf8e35545f403b8bfc061e"
"39.962697","116.473766","","1","朝阳区麦子店西路","72aa251396dcf547067ce88f","华远九都汇","72aa251396dcf547067ce88f"
"39.963324","116.471879","(010)84402396","1","朝阳区霄云路32号","49d9593819efa243c71e518c","嘉和丽园","49d9593819efa243c71e518c"
"39.96522","116.468683","","1","北京市朝阳区麦子店霞光里小区","e3082848bec312bfb24c498f","霞光里小区","e3082848bec312bfb24c498f"
"39.96227","116.467429","","1","北京市朝阳区霞光里35号院","105c7f2722f13a81d4851f2f","霞光里35号院","105c7f2722f13a81d4851f2f"
"39.971489","116.46477","","1","北京市朝阳区裘马都1号楼","9abf0e3020a759bbc91b9584","裘马都-1号楼","9abf0e3020a759bbc91b9584"
"39.971159","116.465318","","1","北京市朝阳区裘马都2号楼","4baa8f1bb6c94349a21de9d4","裘马都-2号楼","4baa8f1bb6c94349a21de9d4"
"39.964032","116.466151","010-84467515","1","三元桥霞光里66号","c6eb288b3e297a6bb817e737","三元国际公寓","c6eb288b3e297a6bb817e737"
"39.967717","116.471776","","1","北京市朝阳区霄云里5号楼","6b7fa7ae742b54760a5cb3ce","霄云里-5号楼","6b7fa7ae742b54760a5cb3ce"
"39.968639","116.482287","010-84338888","1","北京朝阳区霄云路8号","d37abad8532b778bd6851f92","合生霄云路8号","d37abad8532b778bd6851f92"
"39.969995","116.482648","","1","朝阳区霄云桥(暂定)","ddb20f4d231e2e4317b54b8c","linecity(蓝城)","ddb20f4d231e2e4317b54b8c"
"39.967226","116.493047","","1","东四环北路10号","750368359bb33baf5f0d028c","瞰都嘉园","750368359bb33baf5f0d028c"
"39.970862","116.488222","","1","将台","2c472a33e828c7a98bfc06ec","阳光上东c区","2c472a33e828c7a98bfc06ec"
"39.970855","116.490508","","1","北京市朝阳区东四环北路6号","08f1f1f5add03aca89db738f","安徒生花园","08f1f1f5add03aca89db738f"
"39.967288","116.49238","","1","朝阳区东四环北路10号瞰都国际大厦","fbfb05ad0db0279ac9e33cb6","瞰都国际1号楼","fbfb05ad0db0279ac9e33cb6"
"39.971786","116.489408","","1","北京市朝阳区阳光上东5号楼","f4f6c2a802078808593ac80a","阳光上东-5号楼","f4f6c2a802078808593ac80a"
"39.971695","116.487181","","1","北京市朝阳区东四环北路6号","d5b142baae56308059f6beff","阳光上东2区","d5b142baae56308059f6beff"
"39.969153","116.49279","","1","酒仙桥","c0541efd02a3430ec8213dd6","酒仙桥十街坊-一号院","c0541efd02a3430ec8213dd6"
"39.966458","116.493758","","1","北京市朝阳区瞰都4号楼","e83e6c3e86f039c008f5eb0e","瞰都-4号楼","e83e6c3e86f039c008f5eb0e"
"39.971953","116.487746","","1","北京市朝阳区阳光上东1号楼","8ee139348e9316c532870a45","阳光上东1号楼","8ee139348e9316c532870a45"
"39.970372","116.488957","","1","北京市朝阳区阳光上东C区9号楼","c2552bfbcd3d1ab588b98863","阳光上东C区9号楼","c2552bfbcd3d1ab588b98863"
"39.962869","116.503563","","1","北京市朝阳区南十里居6","0ea98d9fb6ef6267afcb66a2","南十里居","0ea98d9fb6ef6267afcb66a2"
"39.965411","116.503536","(010)58293126","1","东四环，朝阳公园东门，东风北桥东南十里居41号院","680fb703eb7e829c8ab9888c","泰华滨河苑","680fb703eb7e829c8ab9888c"
"39.9632","116.498654","","1","朝阳酒仙桥路南十里居15号","3722734447cb168bf02d8348","怡思苑","3722734447cb168bf02d8348"
"39.96392","116.501654","","1","平房酒仙桥路南十里居北","d82d6697efd1dfa5d418b79d","东风家园","d82d6697efd1dfa5d418b79d"
"39.969055","116.495195","","1","朝阳区红霞中路与红霞路路口以西约100米路北","1aec234dc33372e17adbd2a6","酒仙桥十街坊小区","1aec234dc33372e17adbd2a6"
"39.966294","116.500045","","1","酒仙桥南路,与红霞路路口西南侧","beff691212e24de22b3a9f0b","酒仙桥十二街坊小区","beff691212e24de22b3a9f0b"
"39.968112","116.498398","","1","北京朝阳区红霞路","1fbe4d94909b4e92bca8227a","酒仙桥十一街坊小区","1fbe4d94909b4e92bca8227a"
"39.971388","116.49999","","1","酒仙桥一街坊，酒仙桥26号院","4c60f97c4fe6c8d405fef55e","酒仙桥一街坊","4c60f97c4fe6c8d405fef55e"
"39.970883","116.496855","","1","朝阳区东四环望京酒仙桥酒仙桥六街坊","5c196985215ebdac78f796c1","酒仙桥六街坊","5c196985215ebdac78f796c1"
"39.967469","116.502226","","1","酒仙桥南路和酒仙桥路交汇处","a062d4715bef29649d9d683b","酒仙桥八街坊","a062d4715bef29649d9d683b"
"39.971244","116.509425","(010)84706390","1","酒仙桥驼房营地区","7172b5a55f8750c1b05c6a28","电子城小区","7172b5a55f8750c1b05c6a28"
"39.966557","116.506506","","1","南十里居35","3f826ed31c229346d0f49e89","亮马嘉园","3f826ed31c229346d0f49e89"
"39.965738","116.51003","","1","北京市朝阳区驼房营南里11号楼","81d6a5094ae2ce406f20b989","驼房营南里(兆维小区西南)","81d6a5094ae2ce406f20b989"
"39.96481","116.506671","","1","朝阳酒仙桥南十里居","cac5fc7610310df32db96d8f","燕沙后小区","cac5fc7610310df32db96d8f"
"39.970323","116.506139","","1","北京市朝阳区酒仙桥南路5号附近","d4034eb36504deefc1364480","酒仙桥三街坊小区","d4034eb36504deefc1364480"
"39.963343","116.506975","","1","朝阳区南十里居10号院","c77a680e8b53868e42d63ed3","南十里居10号院","c77a680e8b53868e42d63ed3"
"39.971048","116.510761","","1","酒仙桥电子城驼房营西里6号楼","d5464cf867b3cb2afda778e2","驼房营西里","d5464cf867b3cb2afda778e2"
"39.968624","116.504768","","1","酒仙桥路东侧紧邻亮马嘉园","3065bc618e84f92a72455b07","酒仙桥四街坊小区","3065bc618e84f92a72455b07"
"39.966562","116.506335","","1","北京市朝阳区亮马嘉园36号楼","a07f5e9478acbcadd518b7d5","亮马嘉园-36号楼","a07f5e9478acbcadd518b7d5"
"39.967295","116.510089","","1","北京市朝阳区驼房营南里35栋6号","e2566e0073d74aab48cc4abf","兆维小区","e2566e0073d74aab48cc4abf"
"39.965493","116.5149","","1","北京市朝阳区梵谷水郡20号楼","3df4af27f0f9fded4151c0d9","梵谷水郡-20号楼","3df4af27f0f9fded4151c0d9"
"39.965901","116.51447","","1","北京市朝阳区梵谷水郡19号楼","763b2fbd219dc9cae507385a","梵谷水郡-19号楼","763b2fbd219dc9cae507385a"
"39.965","116.514405","","1","北京市朝阳区驼房营南路2号院21号","35da6fe30c349ebdbadf8f72","梵谷水郡-21号楼","35da6fe30c349ebdbadf8f72"
"39.96648","116.514455","","1","北京市朝阳区梵谷水郡14号楼","f60fdd72ca0229b31576439f","梵谷水郡-14号楼","f60fdd72ca0229b31576439f"
"39.970157","116.539317","(010)65419999","1","北京市朝阳区单店西路（东五环七棵树出口向东200米)","5edeee1fdf92d472a2d23004","常青藤",""
"39.967772","116.539154","","1","东坝路与平房路交叉口东南150米","d991e116b04c0b551e389489","康静里小区","d991e116b04c0b551e389489"
"39.96676","116.539165","","1","北京市朝阳区","ba830d047e16446453e5c585","康静里-14号楼","ba830d047e16446453e5c585"
"39.96948","116.53785","","1","单店西路15号院15号楼","6c6bec37a07f5c58f4e73bee","首开·常青藤C区-15号楼","6c6bec37a07f5c58f4e73bee"
"39.970244","116.540236","","1","单店西路15号院11号楼","7cf9f5ba2289f537b64f5480","首开·常青藤C区-11号楼","7cf9f5ba2289f537b64f5480"
"39.971293","116.540109","","1","单店西路15号院1号楼","0eba142a74d8a43f40ab9a4e","首开·常青藤C区-1号楼","0eba142a74d8a43f40ab9a4e"
"39.969862","116.538101","","1","单店西路15号院8号楼","d4ca0239c2bc0d303010af93","首开·常青藤C区-8号楼","d4ca0239c2bc0d303010af93"
"39.969945","116.540321","","1","北京市朝阳区首开常青藤12号楼","6c5bafe3f3a009671d58003f","首开常青藤-12号楼","6c5bafe3f3a009671d58003f"
"39.969373","116.540346","","1","北京市朝阳区首开常青藤19号楼","d74ab0120e94a90fb11e36ef","首开常青藤-19号楼","d74ab0120e94a90fb11e36ef"
"39.969722","116.538652","","1","北京市朝阳区首开常青藤14号楼","0c44e05677e1eefb7dc8769c","首开常青藤-14号楼","0c44e05677e1eefb7dc8769c"
"39.963681","116.545013","010-65496557","1","北京市东坝乡单店西村南","2174b8eb8e7c5a50871541bb","金隅悦和园","2174b8eb8e7c5a50871541bb"
"39.967241","116.550114","","1","东坝中路","3d0ca54c453b715d09ccdd62","奥林匹克花园","3d0ca54c453b715d09ccdd62"
"39.967121","116.551964","","1","东坝乡北京奥林匹克花园三期D地块","bf23fc24222da5dc94f08cba","奥林匹克花园-三期","bf23fc24222da5dc94f08cba"
"39.97221","116.552219","","1","北京市朝阳区东坝中路与东坝中街交叉口","8ab0dfc473a1b416d9eced89","东坝家园-B区","8ab0dfc473a1b416d9eced89"
"39.967343","116.55199","","1","朝阳区东坝中路","5a9c6df51890d5e742d63e98","北京奥林匹克花园一期-南区","5a9c6df51890d5e742d63e98"
"39.968345","116.548864","","1","东坝中路","9de5a12c6e6a25e8fa42b224","北京奥林匹克花园二期-南区","9de5a12c6e6a25e8fa42b224"
"39.964325","116.552095","","1","北京市朝阳区东坝中路","8d96925c96181345c0f1cf89","北京奥林匹克花园三期-南区","8d96925c96181345c0f1cf89"
"39.965871","116.55174","","1","东坝中路","925c550f17eefab25b3ac889","北京奥林匹克花园三期-北区","925c550f17eefab25b3ac889"
"39.971119","116.549155","","1","东坝乡","0a8521087fdb45d12cfaa774","北京奥林匹克花园二期-北区","0a8521087fdb45d12cfaa774"
"39.965897","116.550529","","1","北京市朝阳区北京奥林匹克花园三期北区303号楼","ff5d55af83719116db13183b","北京奥林匹克花园三期北区-303号楼","ff5d55af83719116db13183b"
"39.962669","116.555749","","1","朝阳区东坝乡单店村","3dc9befde456196bbea240db","金泰丽富嘉园","3dc9befde456196bbea240db"
"39.966219","116.56407","","1","红松路1号院","60d5bca8e9b967d8260bd0f5","东泽园","60d5bca8e9b967d8260bd0f5"
"39.968856","116.562073","","1","东坝红松园17号楼","d6512e65229aafa7f942b2c9","红松园小区","d6512e65229aafa7f942b2c9"
"39.97153","116.560013","","1","东坝镇东坝","439008fb8954c6472e473365","红松园-2号","439008fb8954c6472e473365"
"39.969333","116.559332","","1","东坝路红松园1号院1号楼","b0308caf9b887d1b047ce824","红松园-1号内1号楼","b0308caf9b887d1b047ce824"
"39.968281","116.560168","","1","东坝路红松园1号院10号楼","156a41468b4a6e0c40024548","红松园1号院-10号楼","156a41468b4a6e0c40024548"
"39.968807","116.56246","","1","驹子房路西100米","e4573343d9284c889868b484","红松园小区-东门","e4573343d9284c889868b484"
"39.966901","116.565801","","1","北京市朝阳区和敬路59号","f01d740ff8d5b832ca09f044","华纺星海家园","f01d740ff8d5b832ca09f044"
"39.966479","116.564448","","1","东坝中街与驹子房路交口（规划第四使馆区旁）","45249deb97c2de83246e9862","东泽·商悦",""
"39.973779","116.456918","","1","北京市朝阳区曙光西路曙光里对面","d0b8923f5e14bae2b4f42f8c","茂华UHN国际村","d0b8923f5e14bae2b4f42f8c"
"39.974051","116.463318","15810176850","1","北京市朝阳区太阳星城金星园小区2号楼","688e4c8f295fdab214b54b0e","金星园","688e4c8f295fdab214b54b0e"
"39.979333","116.456699","","1","朝阳区 西坝河太阳宫村7号","4bb049d9132d96479800508f","新纪家园","4bb049d9132d96479800508f"
"39.978164","116.455592","","1","太阳宫E区夏家园甲6号","3da907f3eaa00b53b220a88c","万方景轩","3da907f3eaa00b53b220a88c"
"39.977311","116.461223","","1","北京市朝阳区太阳宫水星园","de6417dbb2e1746d1fe999d2","水星园-1号楼","de6417dbb2e1746d1fe999d2"
"39.977117","116.460052","","1","夏家园20号楼","f4a33da9610e4b743010afe3","太阳星城水星园","f4a33da9610e4b743010afe3"
"39.977701","116.459281","","1","太阳宫北街附近","c8e8f6332169e76faa0dd89f","夏家园社区","c8e8f6332169e76faa0dd89f"
"39.978911","116.456737","","1","北京市朝阳区新纪家园9号楼","e274ac887a6c96d3dbeced38","新纪家园-9号楼","e274ac887a6c96d3dbeced38"
"39.977771","116.459343","","1","北京市朝阳区夏家园20号楼2层205室","60f334b7047cad69210262c1","水星园中门","60f334b7047cad69210262c1"
"39.9731","116.463232","","1","北京市朝阳区金星园2号楼","e29cbf45501eb05fb72655c1","太阳宫金星园-2号楼","e29cbf45501eb05fb72655c1"
"39.974075","116.465472","","1","北京市朝阳区金星园18号楼","ebc1c2e9885217e2260bd03a","金星园-18号楼","ebc1c2e9885217e2260bd03a"
"39.979101","116.469366","(010)84420099","1","北京市朝阳区四元桥西北角（东直门外东坝河）","23116913fe3767fd724b878c","顺景园","23116913fe3767fd724b878c"
"39.974901","116.464377","","1","北京市朝阳区金星园11号楼","99b2a430686edadb0b69d999","金星园-11号楼","99b2a430686edadb0b69d999"
"39.97359","116.466451","","1","北京市朝阳区裘马都7号楼","5133cfe7c582b9bcb64f5465","裘马都-7号楼","5133cfe7c582b9bcb64f5465"
"39.974494","116.464979","","1","北京市朝阳区金星园15号楼","5ce94863f836f6d409a8d4b0","金星园-15号楼","5ce94863f836f6d409a8d4b0"
"39.973203","116.466023","","1","北京市朝阳区裘马都8号楼","35b750609683113336b06ca8","裘马都-8号楼","35b750609683113336b06ca8"
"39.974046","116.464432","","1","北京市朝阳区金星园12号楼","30f2fef09251925abb17e79d","金星园-12号楼","30f2fef09251925abb17e79d"
"39.973523","116.465064","","1","北京市朝阳区金星园16号楼","7152d68ccc5e25753ce2315e","金星园-16号楼","7152d68ccc5e25753ce2315e"
"39.97231","116.46642","","1","北京市朝阳区裘马都4号楼","14b6c708fb0341158f1a89d2","裘马都-4号楼","14b6c708fb0341158f1a89d2"
"39.973057","116.466916","","1","北京市朝阳区裘马都6号楼","cc5cd8e52fb3439d3913fdd5","裘马都-6号楼","cc5cd8e52fb3439d3913fdd5"
"39.973918","116.483728","","1","将台东四环北路2号院","f446091894e64717b11e362f","上东双子座","f446091894e64717b11e362f"
"39.982015","116.483988","","1","北京市朝阳区丽都苑6号楼","28eff7f3ac50d4d7fd0eb04b","丽都苑-6栋公寓","28eff7f3ac50d4d7fd0eb04b"
"39.982032","116.484118","","1","将台路6号","6cc44a4d2b5896f3a7da39b8","丽都苑小区-怡翠阁","6cc44a4d2b5896f3a7da39b8"
"39.976245","116.48633","","1","嘉林路甲1号","8cba4bb002cd9f84ac04578c","嘉林花园小区","8cba4bb002cd9f84ac04578c"
"39.97553","116.490589","010-84578920","1","北京市芳园南里","465018e6333f5136eaf85327","丽都水岸","465018e6333f5136eaf85327"
"39.97606","116.491772","","1","朝阳区东北四环芳园南里9号院6号楼","e47eb47d027831254afc8d23","上东8号","e47eb47d027831254afc8d23"
"39.978836","116.493532","","1","将台路2号","d5f93c0e67d6a85cecdfca8d","芳园里社区","d5f93c0e67d6a85cecdfca8d"
"39.977309","116.488785","(010)84562998","1","朝阳将台西路芳园里46-47号楼","dbf4d6ee41374b2a6ea3cc8d","风景线","dbf4d6ee41374b2a6ea3cc8d"
"39.981266","116.489974","","1","北京市朝阳区芳园西路1号","8fa14fc3e009c86ef6eafc8d","和乔丽晶","8fa14fc3e009c86ef6eafc8d"
"39.972963","116.486098","","1","东四环北路6号院","2e00c5dd5f1b8f1cd6851f8d","滨河花园","2e00c5dd5f1b8f1cd6851f8d"
"39.975623","116.488373","","1","北京市朝阳区芳园南街1号","550fd5f9fd1d6179921fc98d","芳园南里-西区","550fd5f9fd1d6179921fc98d"
"39.978908","116.487581","(010)64378233","1","北京市朝阳东四环宵云桥东芳园西路7号","0adce3e24b89c36181a00c8c","丽东国际公寓","0adce3e24b89c36181a00c8c"
"39.972695","116.488372","","1","东四环将台西路","fd36a9491e544e969c09f713","阳光上东-8号楼","fd36a9491e544e969c09f713"
"39.982005","116.503475","","1","酒仙桥中路18号国投创意信息产业园","d0d5e08f2f151f8cb11e3694","国投创意产业园-北楼","d0d5e08f2f151f8cb11e3694"
"39.973792","116.494461","","1","北京市朝阳区酒仙桥村5号楼","eb1e77bcb033e58214b54be7","酒仙桥村-5号楼","eb1e77bcb033e58214b54be7"
"39.981093","116.494175","","1","北京市朝阳区芳园里甲17号楼","7af15b7ab6b7b0a8fb0cadba","芳园里甲-17号楼","7af15b7ab6b7b0a8fb0cadba"
"39.981062","116.495202","","1","北京市朝阳区芳园里乙17号楼","5e5ca0f800a85a31b23c81b8","芳园里-乙17号楼","5e5ca0f800a85a31b23c81b8"
"39.979672","116.495972","","1","将台路芳园里6号楼","07feb30ac15ae6fb5fd4fe7e","芳园里-甲6号楼","07feb30ac15ae6fb5fd4fe7e"
"39.972292","116.502989","","1","北京市朝阳区酒仙桥二街坊甲1号楼","a534815da9339ca643024582","酒仙桥二街坊-甲1号楼","a534815da9339ca643024582"
"39.979632","116.49494","","1","北京市朝阳区芳园里12号楼","8ee584b4525a7665213bf2ca","芳园里-12号楼","8ee584b4525a7665213bf2ca"
"39.975615","116.495379","","1","芳园南里1号楼","d480bf4d60683b164c3a59fb","芳园南里-1号楼","d480bf4d60683b164c3a59fb"
"39.980535","116.494988","","1","将台路2号","98d63d972338202d26d2bb30","芳园里丙-17号楼","98d63d972338202d26d2bb30"
"39.978946","116.499607","","1","北京市朝阳区酒仙桥路14号B区1号楼","66c6f0dba6db76d9abf7297b","酒仙桥路14号B区1号楼","66c6f0dba6db76d9abf7297b"
"39.979193","116.512598","","1","北京市朝阳区将府家园北里","be54cde9eedff25879f79689","卡布奇诺小区","be54cde9eedff25879f79689"
"39.977136","116.511897","(010)84576060","1","北京市朝阳区将府家园北里202号楼","b9ee746219d49623213bf27f","滨河1号","b9ee746219d49623213bf27f"
"39.972876","116.510223","","1","将台路","cb4fd14646d9ca589c9d68aa","驼房营","cb4fd14646d9ca589c9d68aa"
"39.972446","116.50613","","1","酒仙桥五街坊1","dbf1125a8e600229f90cad69","酒仙桥五街坊-1号楼","dbf1125a8e600229f90cad69"
"39.979149","116.513295","","1","北京市朝阳区卡布其诺127号楼","08f38f1a3adfc52dd2f49eaa","将府家园北里","08f38f1a3adfc52dd2f49eaa"
"39.981527","116.511192","","1","北京市朝阳区将府家园107号楼","d90fbcf351847f8ce81e97a2","将府家园北里-107号楼","d90fbcf351847f8ce81e97a2"
"39.973923","116.510039","","1","北京市朝阳区驼房营2号楼","6e10c0f3c72788f701897272","驼房营-2号楼","6e10c0f3c72788f701897272"
"39.976947","116.509923","","1","北京市朝阳区滨河1号院202号楼","638894b4c077c43781288a21","滨河1号院-202号楼","638894b4c077c43781288a21"
"39.976772","116.51324","","1","北京市朝阳区滨河1号院204号楼","b4c10604ca2de58e1894c6a2","滨河1号院-204号楼","b4c10604ca2de58e1894c6a2"
"39.978211","116.512068","","1","将府家园北里127号","22c8a831365913b0eb1e97d0","卡布其诺-127号楼","22c8a831365913b0eb1e97d0"
"39.974788","116.540461","","1","北京市朝阳区东坝路","059a72d7434783297bf79606","坝鑫家园","059a72d7434783297bf79606"
"39.975816","116.538535","","1","朝阳区东坝乡东坝路与东坝中街交汇口附近","15cafc4c82588ce104026f24","恒大江湾","15cafc4c82588ce104026f24"
"39.973906","116.549729","","1","北京市朝阳区东坝中街","af1ae56bc1e5f70b4307c1f6","东坝家园","af1ae56bc1e5f70b4307c1f6"
"39.973008","116.547951","","1","北京市朝阳区东坝家园","e9bced73e8602c37465726fc","东坝家园-A区","e9bced73e8602c37465726fc"
"39.974639","116.552041","","1","北京市朝阳区东坝家园b座","218ee07986f725bab75f1e6d","北京好漾","218ee07986f725bab75f1e6d"
"39.975088","116.548851","","1","北京市朝阳区东坝家园203号楼","51c40868f6c7ddd0badf8f4f","东坝家园-203号楼","51c40868f6c7ddd0badf8f4f"
"39.97614","116.546549","","1","北京市朝阳区东坝家园235号楼","e04601f33725f58786420e4c","东坝家园-235号楼","e04601f33725f58786420e4c"
"39.975821","116.547529","","1","北京市朝阳区东坝家园233号楼","fa93f63cf85f6da7fda778aa","东坝家园-233号楼","fa93f63cf85f6da7fda778aa"
"39.974245","116.546703","","1","北京市朝阳区东坝家园228号楼","9edadcc87040f1e65c0d02e9","东坝家园-228号楼","9edadcc87040f1e65c0d02e9"
"39.972688","116.5475","","1","北京市朝阳区东坝家园217号楼","61530793ab8da25eae080f9b","东坝家园-217号楼","61530793ab8da25eae080f9b"
"39.974616","116.549663","","1","北京市朝阳区东坝家园204号楼","7b4fec9c02f58157dbecedc4","东坝家园-204号楼","7b4fec9c02f58157dbecedc4"
"39.975442","116.547449","","1","北京市朝阳区东坝家园231号楼","80ab54ca2d2e43e04054d775","东坝家园-231号楼","80ab54ca2d2e43e04054d775"
"39.972428","116.554893","","1","北京市朝阳区东坝中街红松园北里18号","889ce76ca7d7f8c4df1e52d6","利锦府","889ce76ca7d7f8c4df1e52d6"
"39.987455","116.463249","","1","望京西路50号院7号","beb78efdc3c42f4136b06ccf","鹿港嘉苑-7号楼","beb78efdc3c42f4136b06ccf"
"39.988683","116.463997","","1","望京西路50号院3号","f613a4dfdd4885c18a36eea8","鹿港嘉苑-3号楼","f613a4dfdd4885c18a36eea8"
"39.988165","116.463611","","1","北京市朝阳区鹿港嘉苑5号楼","6825ba1752afe56ff90cad01","鹿港嘉苑-5号楼","6825ba1752afe56ff90cad01"
"39.985716","116.459667","","1","北京市朝阳区十字口村甲1号楼","d2b34d7e037cafb59ff7795c","十字口村甲1号楼","d2b34d7e037cafb59ff7795c"
"39.983066","116.458867","","1","北京市朝阳区太阳宫中路6号","5135ec8e76372d4700ec0129","太阳公元小区-休闲公园地上停车场","5135ec8e76372d4700ec0129"
"39.985247","116.471584","","1","北四环东路甲9号","925c550f17eafab25b3ac88d","方舟苑","925c550f17eafab25b3ac88d"
"39.987698","116.46436","","1","北京市朝阳区望京西路50号(近望京桥)","b3f5f9879589bcebe115f9b2","鹿港嘉苑","b3f5f9879589bcebe115f9b2"
"39.990844","116.472739","","1","北京市朝阳区花家地街花家地北里1号楼(近望花路)","af1ae56bb8b68e0b4307c1a7","花家地北里","af1ae56bb8b68e0b4307c1a7"
"39.984468","116.469696","","1","北京市朝阳区北四环东路甲9号","fd007c5ee918e26ca9f7298d","城市月光","fd007c5ee918e26ca9f7298d"
"39.991383","116.471366","","1","花家地南街6号附近","4fb8fb4095a6b87ef32d83e5","花家地北里-13号楼","4fb8fb4095a6b87ef32d83e5"
"39.991798","116.470902","","1","花家地南街6号附近","e48d1c1153705d16157643f2","花家地北里-12号楼","e48d1c1153705d16157643f2"
"39.992249","116.471277","","1","花家地北里8花家地派出所附近","1db020efc99e7c833517dc53","花家地北里-10号楼","1db020efc99e7c833517dc53"
"39.992237","116.47402","","1","北京市朝阳区花家地北里3号楼","55e75b984586144a1ce99992","花家地北里-3号楼","55e75b984586144a1ce99992"
"39.990712","116.472862","","1","北京市朝阳区花家地北里16号","4fafdac087b8615ae60738e1","花家地北里-16号楼","4fafdac087b8615ae60738e1"
"39.984379","116.469599","","1","北京市朝阳区城市月光10号楼","5a0ef666dd0f1163ec74f8b0","城市月光10号楼","5a0ef666dd0f1163ec74f8b0"
"39.984981","116.47788","","1","北京市朝阳区花家地南里13号","bcfd70efd1aa2fbdede4a578","花家地南里小区","bcfd70efd1aa2fbdede4a578"
"39.989171","116.475644","","1","朝阳北四环东路花家地街","e56bf5e39ed4e3450782c26a","花家地小区","e56bf5e39ed4e3450782c26a"
"39.988804","116.483245","(010)81615008","1","北京市朝阳区花家地东路5号","91c13f93bcc2ccfa20f0178c","利景名门","91c13f93bcc2ccfa20f0178c"
"39.985425","116.47552","","1","北京市朝阳区花家地南里4号","95875e18b596bd0f2bd7ab08","花家地南里-4号楼","95875e18b596bd0f2bd7ab08"
"39.98492","116.475465","","1","北京市朝阳区花家地南里5号楼","0812b73e35a916d99e95deb6","花家地南里-5号楼","0812b73e35a916d99e95deb6"
"39.986185","116.476082","","1","北京市朝阳区花家地南里2号花家地南里","1568dcd8e630cbdf9e95dec6","花家地南里-2号楼","1568dcd8e630cbdf9e95dec6"
"39.985501","116.476783","","1","北京市朝阳区花家地南里7号楼","fe73166f0a6a3cc1b54f54d0","花家地南里-7号楼","fe73166f0a6a3cc1b54f54d0"
"39.984826","116.476141","","1","花家地南街甲7附近","a803fc5519a096762cb96dfa","花家地南里-6号楼","a803fc5519a096762cb96dfa"
"39.984794","116.478377","","1","北京市朝阳区花家地南里13号","19664081946185b19ee32194","花家地南里-13号楼","19664081946185b19ee32194"
"39.985246","116.479745","","1","花家地南里(花家地南街)附近","6a09ea55fe4dddf6c4f50db3","花家地南里-17号楼","6a09ea55fe4dddf6c4f50db3"
"39.987107","116.492025","","1","万红西街","f6a998205877ae6095f08caa","北京银河湾公寓","f6a998205877ae6095f08caa"
"39.985967","116.4903","","1","北京市朝阳区酒仙桥街道将台路高家园社区","c8e8f633b279766caa0dd88d","高家园社区","c8e8f633b279766caa0dd88d"
"39.990921","116.48656","","1","望京广顺南大街21号","e3e2cd9d80c9bbe3c6f50d8c","蓝色家园","e3e2cd9d80c9bbe3c6f50d8c"
"39.985921","116.487508","","1","北京朝阳区芳园西路,与将台路路口以北约150米路西,高家园小区内","e35f0e57d88d17b888b9887e","高家园-三区","e35f0e57d88d17b888b9887e"
"39.98888","116.490905","","1","北京市朝阳区万红西街23号","78a5aafa5017ce9ff7231019","大山子南里-12号楼","78a5aafa5017ce9ff7231019"
"39.987486","116.492878","","1","北京市朝阳区大山子南里9号楼","d0b8923f5e13bae2b4f42f8d","大山子南里小区","d0b8923f5e13bae2b4f42f8d"
"39.984534","116.49109","","1","酒仙桥京顺路丽都百货附近","4fd8aedbe00c62cba1d230eb","高家园-二区","4fd8aedbe00c62cba1d230eb"
"39.983077","116.491163","","1","北京市朝阳区高家园1区6号","53bc775b6bd301948a36ee3b","高家园一区-6号楼","53bc775b6bd301948a36ee3b"
"39.985477","116.486224","","1","高家园三区7号","60613533b101cd4efa221349","高家园三区-7号楼","60613533b101cd4efa221349"
"39.988048","116.491328","","1","北京市朝阳区大山子南里丁12号楼","a38aa96fee4e0a4cb75f1e78","大山子南里丁12号楼","a38aa96fee4e0a4cb75f1e78"
"39.991706","116.4949","","1","北京市朝阳区酒仙桥路7号","43a547fa8b2f7b60b21e36ab","大山子北里","43a547fa8b2f7b60b21e36ab"
"39.990636","116.497217","(010)64351266","1","朝阳区酒仙桥路4号，紧邻首都机场高速公路，大山子桥东南角","1deeac648da36c3bb2077d02","宏源公寓","1deeac648da36c3bb2077d02"
"39.98692","116.502111","","1","万红里甲31号1","f4a33da924e60e093110af8c","万红里-甲31号院","f4a33da924e60e093110af8c"
"39.986667","116.494253","","1","东四环望京高家园五区","09f608a8d4947e6328d7ab10","高家园-五区","09f608a8d4947e6328d7ab10"
"39.986361","116.494369","","1","高家园五区3号","762b21738df476cf5abbbcc4","高家园五区-3号楼","762b21738df476cf5abbbcc4"
"39.987207","116.49469","","1","北京市朝阳区大山子南里6号楼","83e0772cad900a4e6240a9e0","大山子南里-6号楼","83e0772cad900a4e6240a9e0"
"39.989666","116.495188","","1","酒仙桥路7号","ec0d188adcface992a02e1a8","酒仙桥路7号院","ec0d188adcface992a02e1a8"
"39.986836","116.502227","","1","北京市朝阳区万红里甲31号院1号楼","a021d882ea9ff6efd1f49eed","万红里甲31号院1号楼","a021d882ea9ff6efd1f49eed"
"39.985883","116.495376","","1","酒仙桥路11号院","39fafaa3d699ed136318098f","酒仙桥路11号院","39fafaa3d699ed136318098f"
"39.982267","116.498601","","1","北京市朝阳区新华联丽港1号楼","28a203576266102220026247","新华联丽港-1号楼","28a203576266102220026247"
"39.98557","116.51216","","1","将台路与驼房营路交叉口东南角","6f5c7a6687c619d62bd7ab57","丽都壹号","6f5c7a6687c619d62bd7ab57"
"39.982525","116.512282","","1","北京朝阳区东八间房村","ad445baab4c977e3a2a9348b","将府家园小区","ad445baab4c977e3a2a9348b"
"39.982387","116.513244","","1","北京市朝阳区将府家园101号楼","1f204106661e11694bcc4a6c","将府家园-101号楼","1f204106661e11694bcc4a6c"
"39.982349","116.510975","","1","北京市朝阳区将府家园110号楼","11947e78e2266776047ce87b","将府家园-110号楼","11947e78e2266776047ce87b"
"39.983714","116.507327","","1","北京市朝阳区酒仙桥东路1号M5号楼","ca8d3cd14726c716ddee8b94","酒仙桥东路1号M5号楼","ca8d3cd14726c716ddee8b94"
"39.982344","116.510194","","1","北京市朝阳区将府家园111号楼","b26a49068a661a88ae31e588","将府家园-111号楼","b26a49068a661a88ae31e588"
"39.98255","116.507138","13693103363,010156216819","1","北京市朝阳区酒仙桥东路1号M7号楼","2905aad8423de788364aae1e","酒仙桥东路1号M7号楼","2905aad8423de788364aae1e"
"39.987548","116.51354","","1","北京市朝阳区酒仙桥北路甲10号院404号楼","279215226953e26d7bf796ed","酒仙桥北路甲10号院404号楼","279215226953e26d7bf796ed"
"39.983113","116.50718","","1","北京市朝阳区酒仙桥东路1号M6号楼","13b141d1ed81fb4d3904b10d","酒仙桥东路1号M6号楼","13b141d1ed81fb4d3904b10d"
"39.989818","116.511604","","1","北京市朝阳区酒仙桥北路甲10号院201号楼","0f314e37f32d2fd61fe9996a","酒仙桥北路甲10号院201号楼","0f314e37f32d2fd61fe9996a"
"40.001455","116.461821","(010)65057878","1","北京市朝阳区南湖西园甲207号","2848ffd69417880f49cc4a8c","季景沁园","2848ffd69417880f49cc4a8c"
"39.997154","116.460183","","1","南湖西园225","8cba4bb03834f985ad0457f6","香颂小区","8cba4bb03834f985ad0457f6"
"39.994572","116.461168","(010)84726668","1","西园509号(太阳宫北500米)","08fc93df7c3e5bec9b68b4e3","中广宜景湾","08fc93df7c3e5bec9b68b4e3"
"39.997906","116.462616","","1","北京市朝阳区南湖西里27号楼","3e4e3d32dec8edcf8bf15d21","南湖渠西里","3e4e3d32dec8edcf8bf15d21"
"39.999125","116.463062","(010)64721671","1","北京市朝阳区望京西路49号","101bc61b8ff858dec42ba1e3","南湖西里社区","101bc61b8ff858dec42ba1e3"
"39.999645","116.458163","","1","北京市朝阳区南湖西园222号楼","47f1e2c1c5fb50669fec2b77","南湖西园222号楼","47f1e2c1c5fb50669fec2b77"
"39.9999","116.459405","","1","北京市朝阳区南湖西园221号楼","8c0d55260af162ce28b97c59","南湖西园221号楼","8c0d55260af162ce28b97c59"
"39.999006","116.459435","","1","南湖西园226号","5d02674d4be1ea029b005044","北京香颂226号楼","5d02674d4be1ea029b005044"
"39.998711","116.458728","","1","北京市朝阳区南湖西园227号楼","fdfa513910d8920bcd04ef30","北京香颂227号楼","fdfa513910d8920bcd04ef30"
"39.996666","116.459301","","1","南湖西园235号","cd84941c89c704459fec2b69","北京香颂235号楼","cd84941c89c704459fec2b69"
"39.99786","116.473121","","1","北京市朝阳区广顺北大街33号","bbcef6942c2ce3208d772731","大西洋新城小区","bbcef6942c2ce3208d772731"
"39.993557","116.467614","","1","花家地西里301","0adce3e2389c526281a00c9c","花家地西里小区","0adce3e2389c526281a00c9c"
"39.996931","116.468632","","1","南湖南路15号","89fd4ea3afe59947e4e9658c","金隅丽港城","89fd4ea3afe59947e4e9658c"
"39.994472","116.473924","","1","北京市朝阳区阜通西大街18号","fc767524626850864f776eb5","都市心海岸雅园","fc767524626850864f776eb5"
"40.000799","116.468748","","1","南湖南路9号","8ab0dfc473a2b416d9eced8c","圣馨大地家园","8ab0dfc473a2b416d9eced8c"
"40.001368","116.465609","","1","北京市朝阳区南湖中园317号","148201c8f47511492fe67b92","首开知语城","148201c8f47511492fe67b92"
"39.995125","116.46698","","1","望京西路与南湖中园二条交叉口东北角","e2c734e48f1cd35d14a1908d","花家地西里-三区","e2c734e48f1cd35d14a1908d"
"40.000682","116.470449","","1","北京市朝阳区望京新城南湖南路8号(近湖光中街)","87248d96564f93b32906ce8d","风格雅园","87248d96564f93b32906ce8d"
"39.994245","116.467929","","1","北京市朝阳区花家地西里1区","152b5c339895a64be215f92b","花家地西里-一区","152b5c339895a64be215f92b"
"39.997792","116.470564","13717964410","1","北京市朝阳区望京南湖南路16号","e6ee2fd2e172eb362b11d1c6","大西洋新城-金石美苑","e6ee2fd2e172eb362b11d1c6"
"40.00093","116.481732","","1","望京阜荣街","b703e96b4534b0fa8e1a898d","华鼎世家","b703e96b4534b0fa8e1a898d"
"39.995216","116.477492","","1","北京市朝阳区望花路,与广顺南大街路口以南约100米路西","28e700f1e0eec201085cb38c","望花路西里社区","28e700f1e0eec201085cb38c"
"40.002132","116.477775","","1","北京市朝阳区望京街与阜通西大街路口以东约100米路南","08ef062117ad609e9a00500f","望京西园","08ef062117ad609e9a00500f"
"39.993411","116.479851","(010)64711320","1","望京花家地西里八间房金兴路16号楼","f4460918f0452b6ab01e368d","点击未来沁居","f4460918f0452b6ab01e368d"
"39.993065","116.480715","","1","北京市朝阳区金兴路15号","5211d219d709fe587cc8768c","精英家园","5211d219d709fe587cc8768c"
"39.992984","116.477827","","1","北京市朝阳区望花路","d4034eb38b262cf6c136448f","西八间北里小区","d4034eb38b262cf6c136448f"
"39.992622","116.48191","","1","北京市朝阳区望京阜通东大街金兴路6号","6113ef77a11c7d148f77278d","长安花园","6113ef77a11c7d148f77278d"
"40.00037","116.475543","","1","北京市朝阳区望京西园四区425号楼","cae6533b941418717c29bd36","望京西园四区-425号楼","cae6533b941418717c29bd36"
"39.994718","116.479703","","1","望京望花路东里","1c02cb9edee37c3f3b221c2b","望花路东里","1c02cb9edee37c3f3b221c2b"
"39.992302","116.477839","","1","望京中环南路11号","2e6fb8ce49685a7a715e803f","望京中环南路11号院","2e6fb8ce49685a7a715e803f"
"40.001315","116.492955","","1","北京市朝阳区阜安东路和阜通东大街交叉口","b9e5d0b8d125dac280a12e81","国风北京","b9e5d0b8d125dac280a12e81"
"39.998104","116.493477","010-64718801","1","望京东园624","4af22ed1091625684d5547ea","国风上观","4af22ed1091625684d5547ea"
"39.994592","116.490198","","1","北京市朝阳区阜荣街8号","d991e116920365281f389445","朝庭公寓","d991e116920365281f389445"
"39.993191","116.488299","(010)84763943","1","阜荣街15","f11233e8b6abf44fcae33c17","嘉美风尚中心小区","f11233e8b6abf44fcae33c17"
"39.995754","116.485413","","1","北京望京广顺南大街","f4c8b51fdc686bdc3be4a697","望京园601号楼","f4c8b51fdc686bdc3be4a697"
"39.995283","116.491204","","1","阜荣街8号院3号楼","57b5997e23174dc79e9d6850","朝庭公寓-3号楼","57b5997e23174dc79e9d6850"
"39.997187","116.492457","","1","北京市朝阳区首开国风上观623号楼","207b49c678dffa6a3686f450","首开国风上观-623号楼","207b49c678dffa6a3686f450"
"39.994731","116.488822","","1","北京市朝阳区朝庭公寓1号楼","8bf8e6feb44a09bb283a9f0c","朝庭公寓-1号楼","8bf8e6feb44a09bb283a9f0c"
"39.994197","116.490006","","1","北京市朝阳区朝庭公寓2号楼","934d302b0a7b3c159b00507f","朝庭公寓-2号楼","934d302b0a7b3c159b00507f"
"39.99707","116.493381","","1","北京市朝阳区首开国风上观621号楼","005421b185ac24ff0e3dda35","首开国风上观-621号楼","005421b185ac24ff0e3dda35"
"39.994815","116.497432","","1","北京市朝阳区酒仙桥北路9号","e458c6a7b5b63967c3f1cf7f","荧屏里小区","e458c6a7b5b63967c3f1cf7f"
"39.995108","116.497415","","1","北京市朝阳区荧屏里小区2号楼","5e443327612145727bf79601","荧屏里小区-2号楼","5e443327612145727bf79601"
"39.995567","116.497979","","1","北京市朝阳区荧屏里小区1号楼","f8b9a6d61b159f060a5cb36d","荧屏里小区-1号楼","f8b9a6d61b159f060a5cb36d"
"39.99469","116.497006","15930726775","1","北京市朝阳区荧屏里小区3号楼","e16f3ce9b8181fc82d4733dc","荧屏里小区-3号楼","e16f3ce9b8181fc82d4733dc"
"39.998173","116.494726","","1","北京市朝阳区首开国风上观618号楼","3eb892f00f35c82b90114c07","首开国风上观618号楼","3eb892f00f35c82b90114c07"
"40.002059","116.496202","","1","北京市朝阳区","67e4cfaa1e2173b4a1a9349d","望京东园七区16号楼","67e4cfaa1e2173b4a1a9349d"
"39.997844","116.49433","","1","北京市朝阳区首开国风上观619号楼","05de9302519b17ff16948e63","首开国风上观619号楼","05de9302519b17ff16948e63"
"39.998829","116.495051","","1","北京市朝阳区首开国风上观617号楼","453e5799b97053d16f476091","首开国风上观617号楼","453e5799b97053d16f476091"
"39.994629","116.497686","","1","北京市朝阳区荧屏里小区4号楼","b6e4423663378a9be015f9f3","荧屏里小区-4号楼","b6e4423663378a9be015f9f3"
"40.000164","116.494881","","1","北京市朝阳区望京东园604号","b259f265f6aa0329734b87ec","望京东园604号楼-1单元","b259f265f6aa0329734b87ec"
"39.995331","116.508768","","1","北京市朝阳区酒仙桥北路5号","b0ee3e0a750e86caaeb22a0e","北窑地小区","b0ee3e0a750e86caaeb22a0e"
"39.995504","116.512249","","1","酒仙桥北路","8bd31d71ccd17d3f704b87cb","北窑地河北一号院","e15b48110cb3e024d12dd628"
"39.995813","116.509706","","1","酒仙桥北路5号京物大厦附近","077ed5a45645515f6ca3cc5d","北窑地-11号楼","077ed5a45645515f6ca3cc5d"
"39.996521","116.509648","","1","北京市朝阳区北窑地13号楼","2b6bb73a29f20ece230220ae","北窑地-13号楼","2b6bb73a29f20ece230220ae"
"39.995646","116.508836","","1","酒仙桥北路乙5号","08921d27afcaf6d0d5b74ecd","北窑地小区-8号楼","08921d27afcaf6d0d5b74ecd"
"39.995981","116.508386","","1","酒仙桥北路5号京物大厦附近","ab0b009ae7222beea11de9ee","北窑地小区-9号楼","ab0b009ae7222beea11de9ee"
"39.994953","116.507926","","1","北京市朝阳区北窑地4号楼","b250b5214557cf57e507387d","北窑地小区-4号楼","b250b5214557cf57e507387d"
"39.994384","116.507926","","1","酒仙桥北路7号附近","71f132bfaed5931a33f71d2f","北窑地-2号楼","71f132bfaed5931a33f71d2f"
"39.995096","116.508911","","1","酒仙桥北路5号附近","4482551ef7b15cea40ab9adc","北窑地-7号楼","4482551ef7b15cea40ab9adc"
"39.996489","116.508814","","1","酒仙桥北路5号京物大厦附近","a55d57813eeb74d50f3ddabb","北窑地小区-10号楼","a55d57813eeb74d50f3ddabb"
"39.995476","116.517677","","1","北京市朝阳区","2ee21bd76bacdccb44572649","中国铁道科学院东郊分院1号楼","2ee21bd76bacdccb44572649"
"39.996162","116.534793","010-6436211","1","北京市朝阳区铁路大环内庄园北路","6ed3083ad7cc7bb62a3a9fae","将府庄园","6ed3083ad7cc7bb62a3a9fae"
"40.004387","116.463106","","1","望京南湖西园银领国际公寓121楼404","1cea15a9a095d3bb07fef51a","银领国际","1cea15a9a095d3bb07fef51a"
"40.006965","116.462739","","1","北京市朝阳区望京西站东500米(银领国际北侧)","3bae977cf37bc83de6e965d9","世安家园","3bae977cf37bc83de6e965d9"
"40.004935","116.463071","","1","北京市朝阳区南湖西园104号","a7a3708e96bde1d3931fc9b3","南湖西园","a7a3708e96bde1d3931fc9b3"
"40.003175","116.462801","","1","北京市朝阳区湖光中街","883af4ed1c6c4c9731f71dc5","南湖西园125号楼","883af4ed1c6c4c9731f71dc5"
"40.008837","116.471858","","1","北京市朝阳区河荫西路","4fc3161afbcbcca93b13fd8b","南湖东园-一区","4fc3161afbcbcca93b13fd8b"
"40.005481","116.472028","","1","朝阳北四环望京南湖北路南湖派出所路对面","e144e3ac38c82671f50e77dc","南湖东园-二区","e144e3ac38c82671f50e77dc"
"40.004398","116.466102","","1","望京西路308号附近","532c723d5742bfbbc42ba114","南湖中园小区","532c723d5742bfbbc42ba114"
"40.002749","116.472663","010-64753085","1","北京市朝阳区广顺北大街31号院3号","ffd6d40371a6738f16b54b8f","夏都家园","ffd6d40371a6738f16b54b8f"
"40.008096","116.46711","","1","北京市朝阳区南湖中园124号","23116913fe3a67fd724b878b","南湖中园-一区","23116913fe3a67fd724b878b"
"40.006594","116.472158","","1","望京街道南湖北路旺角广场北门","430dd6cf680e52aa31870a22","南湖东园","430dd6cf680e52aa31870a22"
"40.006197","116.466637","","1","北京市朝阳区望京南湖西园二区","9190e3e9a97dbe1b6cc02cb0","南湖中园小区-二区","9190e3e9a97dbe1b6cc02cb0"
"40.008628","116.466723","","1","朝阳区四元桥以北望京西园","7d09cc3af340bb8646e27428","慧谷金色家园","7d09cc3af340bb8646e27428"
"40.009986","116.468148","","1","朝阳区望京慧谷金色南湖中园南湖佳苑小区","f77b14ff5a1cbc7ed92f28a1","南湖佳苑","f77b14ff5a1cbc7ed92f28a1"
"40.002351","116.466368","","1","北京市朝阳区湖光中街","6441ca45c2aed90fc51e5101","南湖中园317号楼","6441ca45c2aed90fc51e5101"
"40.004553","116.480221","","1","望京西路与广顺北大街交界处以西","e30a5cff676994a33f9a5edb","望京西园(三区)","e30a5cff676994a33f9a5edb"
"40.012072","116.476346","","1","北京市朝阳区广顺北大街21号","81d6a5090b408f3c6e20b927","望京花园-西区","81d6a5090b408f3c6e20b927"
"40.008361","116.475551","","1","望京西园222号","25ec69fce3ae8e03c26c146e","星源公寓","25ec69fce3ae8e03c26c146e"
"40.009332","116.482535","","1","望京西园115号","881a28e728eb0147f842b28b","望京西园-一区","881a28e728eb0147f842b28b"
"40.010238","116.478232","","1","朝阳宏昌路西侧","f4a33da924e90e093110af8b","望京西园二区","f4a33da924e90e093110af8b"
"40.008582","116.478186","","1","北京市朝阳区望京广顺北大街星源国际后侧","6b29a08edb9a8efa4354d7d6","慧古时空","6b29a08edb9a8efa4354d7d6"
"40.009871","116.475637","","1","朝阳区朝阳望京广顺北大街36号","3da907f3eaaf0b53b220a88b","望京明苑","3da907f3eaaf0b53b220a88b"
"40.009799","116.481518","","1","北京市朝阳区望京西园123号","00121055621a8dfb774ff12d","望京西园一区-123号楼","00121055621a8dfb774ff12d"
"40.009917","116.480284","","1","北京市朝阳区望京西园一区社区120号楼","28cef07f15ec8b23873304ee","望京西园一区社区-120号楼","28cef07f15ec8b23873304ee"
"40.002527","116.47984","","1","北京市朝阳区望京西园四区412号楼","e9d45c20889d32d90bf5ebaa","望京西园四区-412号楼","e9d45c20889d32d90bf5ebaa"
"40.002902","116.492031","","1","北京市朝阳区阜通东大街与阜安西路交叉口","ec8ce305f9c08be86fc02c72","融科橄榄城","ec8ce305f9c08be86fc02c72"
"40.009265","116.486778","","1","望京东园207","56f2f6963ddbf1800ba8d48b","慧谷阳光","56f2f6963ddbf1800ba8d48b"
"40.008593","116.490745","(010)84616666","1","朝阳阜通东大街（保利万和电影院向北100米）","509cb38d51ea624709b93ae4","远洋万和公馆","509cb38d51ea624709b93ae4"
"40.006516","116.487093","","1","朝阳望京A3区,望京新城的东北200米","21a3231804b5d5df734b87ac","宝星园","21a3231804b5d5df734b87ac"
"40.008646","116.484556","(010)64789119","1","北京市朝阳区望京西园134号","d7dee38282d133e72fb96df3","炫彩嘉轩","d7dee38282d133e72fb96df3"
"40.005106","116.487544","(010)64743388","1","朝阳区望京阜通东大街东侧A3区，望京新城的东北200米","327c59bc0f517bfc902ca37d","宝星华庭","327c59bc0f517bfc902ca37d"
"40.004666","116.49227","","1","望京街道东园五区","1f267747e23563a2a11de9ee","融科橄榄城-一期","1f267747e23563a2a11de9ee"
"40.005896","116.489079","","1","北京市朝阳区宏泰东街","353799f6c6972d8028201a41","宝星国际-二期","353799f6c6972d8028201a41"
"40.003674","116.48469","","1","北京市朝阳区阜通西大街8号","9fa28db21eb33d02a11de9aa","合生麒麟社-8号楼","9fa28db21eb33d02a11de9aa"
"40.002366","116.491962","","1","望京阜通东大街","9c31dce30b0285f9c9291565","融科·橄榄城-三期","9c31dce30b0285f9c9291565"
"40.00352","116.498579","","1","北京市朝阳区","4b42b6ff153014438505bfea","保利·中央公园-赏林苑","4b42b6ff153014438505bfea"
"40.003821","116.495722","","1","宏泰东街宝利·中央公园附近","536934abf3ca09a914b54b20","保利·中央公园嬉林园","536934abf3ca09a914b54b20"
"40.002776","116.496526","","1","阜安路与宏泰东街交汇处","297bc09cb5c010019a68b4a7","保利·中央公园艺林园","297bc09cb5c010019a68b4a7"
"40.004056","116.495794","","1","北京市朝阳区望京东园七区8号","6cb413d7fd3f9dbca2d23040","望京东园七区8号楼","6cb413d7fd3f9dbca2d23040"
"40.005009","116.498572","","1","北京市朝阳区望京东园七区3号","d7e553e6df77facf6c3e1b1b","望京东园七区3号楼","d7e553e6df77facf6c3e1b1b"
"40.00352","116.498579","","1","北京市朝阳区望京东园七区7号","9447d10ff67ca3752fe67b83","望京东园七区7号楼","9447d10ff67ca3752fe67b83"
"40.003545","116.495477","","1","北京市朝阳区望京东园七区10号","902833ab1392ad13e812e4a0","望京东园七区10号楼","902833ab1392ad13e812e4a0"
"40.002815","116.495749","","1","北京市朝阳区望京东园七区13号","a9a99a7299635ecc1188245f","望京东园七区13号楼","a9a99a7299635ecc1188245f"
"40.004068","116.499359","","1","北京市朝阳区望京东园七区5号","131665748ecbc19482288a8c","望京东园七区5号楼","131665748ecbc19482288a8c"
"40.005055","116.499259","","1","北京市朝阳区望京东园七区2号","8367a9ffc60f718f84154122","望京东园七区2号楼","8367a9ffc60f718f84154122"
"40.005662","116.545183","","1","北京市朝阳区黑桥艺术区F区","a868773c4cc5a2ed2cb9085c","黑桥艺术区F区","a868773c4cc5a2ed2cb9085c"
"40.003504","116.549265","","1","北京市朝阳区黑桥艺术村B区","5cafe872bced15372dfaa76b","黑桥艺术村B区","5cafe872bced15372dfaa76b"
"40.003433","116.548497","","1","北京市朝阳区黑桥艺术村C区","69135fd1ef66252996f08cdf","黑桥艺术村C区","69135fd1ef66252996f08cdf"
"40.003378","116.547851","","1","北京市朝阳区黑桥艺术村D区","5689d97cf57177e6a6da3963","黑桥艺术村D区","5689d97cf57177e6a6da3963"
"40.01486","116.454641","","1","北湖渠村578号","5c2dc21d1ffc16046ec02c8b","北湖渠村-578号院","5c2dc21d1ffc16046ec02c8b"
"40.012545","116.466926","","1","北京市朝阳区利泽西街","5e53af1a5f72335f4051c08b","东湖湾","5e53af1a5f72335f4051c08b"
"40.018615","116.467347","15010251101","1","北京市朝阳区望京北路39号院1号","882533e3787cdf3e9d95dee5","北京澳洲康都","882533e3787cdf3e9d95dee5"
"40.015678","116.471703","(010)64786999","1","望京广顺北大街利泽西园310号(近叶青大厦)","37d60a46c76a3e791e1d1157","上京新航线","37d60a46c76a3e791e1d1157"
"40.018639","116.471584","","1","朝阳区望京北路","61f634f66da919786a49f38b","利泽西园","61f634f66da919786a49f38b"
"40.015421","116.467304","","1","利泽西园208","669775d0a200ee5bfc0eb08b","望馨花园","669775d0a200ee5bfc0eb08b"
"40.018758","116.472445","","1","北京市朝阳区望京西路与广顺北大街路口以西约100米路南","e8cfce30d2904bf3c8213db1","利泽西园-一区","e8cfce30d2904bf3c8213db1"
"40.012802","116.470596","(010)84719966","1","北京市朝阳区利泽西街西6号","b9f5af660c83dadc2fb17e27","东湖湾-东区","b9f5af660c83dadc2fb17e27"
"40.013354","116.46679","(010)84719966","1","利泽西街8","02539b875221dc07f90cad49","东湖湾-西区","02539b875221dc07f90cad49"
"40.0197","116.468358","","1","北京市朝阳区望京北路39号院3号楼","6e4a5f3cfac00ccdda2f284a","澳洲康都-3号楼","6e4a5f3cfac00ccdda2f284a"
"40.018851","116.469884","","1","北京市朝阳区利泽西园113号楼","854de0261d8806683be4a6ec","利泽西园-113号楼","854de0261d8806683be4a6ec"
"40.013217","116.482455","(010)64728488","1","望京花园202","cdef4edf80a5284e29d7ab8b","望京花园东区","cdef4edf80a5284e29d7ab8b"
"40.016522","116.479274","","1","北京市朝阳区望京北路","a70203c3f9f8de49e6073805","利泽中园","a70203c3f9f8de49e6073805"
"40.01258","116.475888","","1","溪阳中路望京花园(西区南门)附近","b587d73240c65fd8cafa5f99","望京花园-113号楼","b587d73240c65fd8cafa5f99"
"40.013692","116.478948","","1","北京市朝阳区望京花园131号","5b1155b1f78d7170b5f42fae","望京花园-131号楼","5b1155b1f78d7170b5f42fae"
"40.013946","116.475384","","1","北京市朝阳区望京花园102号","ec0355cafd12932e03294ff7","望京花园-102号楼","ec0355cafd12932e03294ff7"
"40.014712","116.475744","","1","北京市朝阳区华彩国际公寓7号楼","0543733c6b68ca226140a9e3","华彩国际公寓-7号楼","0543733c6b68ca226140a9e3"
"40.019069","116.480867","","1","望京中关村科技园区电子城西区","2279bdb8f47f4675eb1e9774","地汇华商国际公寓","2279bdb8f47f4675eb1e9774"
"40.0147","116.476629","","1","北京市朝阳区华彩国际公寓8号楼","76b8493e683689afc9e33c2d","华彩国际公寓-8号楼","76b8493e683689afc9e33c2d"
"40.013226","116.475801","","1","北京市朝阳区望京花园109号","966a18bcf96f1a120bf5eb93","望京花园109号楼-二单元","966a18bcf96f1a120bf5eb93"
"40.012885","116.475077","","1","北京市朝阳区望京花园112号","a243e3fb085175c09e95de2b","望京花园112号楼","a243e3fb085175c09e95de2b"
"40.013047","116.487212","","1","朝阳区望京新兴产业开发区广泽路6号","1245481cce6390f179dbd258","Class果岭里小区","1245481cce6390f179dbd258"
"40.015769","116.486886","13552726375","1","广泽路2号，望京新兴产业区","e6ee2fd277b21d482a11d18b","慧谷根园","e6ee2fd277b21d482a11d18b"
"40.018825","116.486022","(010)57270920","1","北京市朝阳区望京利泽东园308号望京创业科技园内","e7ed4f7e1b1928f0b35c6a2f","博泰嘉华大厦","e7ed4f7e1b1928f0b35c6a2f"
"40.013751","116.484471","","1","北京市朝阳区望京花园216号","068fd9547142c016b5f42f73","望京花园-216号楼","068fd9547142c016b5f42f73"
"40.014256","116.488244","","1","利泽东街5号附近","f96f66996c4972141e5800e3","果岭里小区CLASS15号楼","f96f66996c4972141e5800e3"
"40.012849","116.488926","","1","果岭里","c8b5cdef726a357e130daa2b","Class果岭里小区(东门)","c8b5cdef726a357e130daa2b"
"40.012269","116.485431","","1","望京新兴产业区广泽路6号","46e7462161d9f86ab05c6ac2","Class果岭里小区-西1门","46e7462161d9f86ab05c6ac2"
"40.012965","116.488661","","1","利泽东一路附近","24817b5033234a02213bf2b9","果岭里小区-CLASS19号楼","24817b5033234a02213bf2b9"
"40.013239","116.486141","","1","望京新兴产业区广泽路6号","dee0ccb89596e9c1b6f42f48","果岭里小区-4号楼","dee0ccb89596e9c1b6f42f48"
"40.013916","116.487129","","1","世纪春天12号楼附近","b4cb07b4ff72a3b843afe6d1","果岭里小区-CLASS11号楼","b4cb07b4ff72a3b843afe6d1"
"40.018481","116.504964","","1","东辛店中街138-139号","2335a2dc1a803e741c3894bc","绿地家园",""
"40.015645","116.533043","","1","朝阳区崔各庄乡京旺家园3区3号楼底商","5f881cfb1ec3c656336212cb","京旺家园","5f881cfb1ec3c656336212cb"
"40.01543","116.533218","","1","崔各庄乡北皋村","085b67bc69ed4f151d58006d","京旺家园小区(二区)","085b67bc69ed4f151d58006d"
"40.016085","116.533375","","1","崔各庄","a12a248d69e1aafaf7eafca0","京旺家园-三区","a12a248d69e1aafaf7eafca0"
"40.019173","116.532524","","1","北京市朝阳区","64706b13b1258e969c09f7cd","京旺家园六区","64706b13b1258e969c09f7cd"
"40.015405","116.53306","","1","北京市朝阳区","721ba43e9dda15acbadf8f9a","京旺家园小区二区-北门","721ba43e9dda15acbadf8f9a"
"40.020561","116.535437","","1","北京市朝阳区","f3c4c856416f5ef1ae0457b9","京旺家园七区","f3c4c856416f5ef1ae0457b9"
"40.016268","116.537921","","1","和平公社路附近","ebdd14a6309f301aaecb661a","京旺家园-四区","ebdd14a6309f301aaecb661a"
"40.020167","116.535288","","1","北京市朝阳区","aca56679ef505678a8175a9f","京旺家园五区","aca56679ef505678a8175a9f"
"40.015926","116.537884","","1","北京市朝阳区南皋路","383981786b1984a423f017cb","京旺家园-一区","383981786b1984a423f017cb"
"40.014786","116.535906","","1","京旺家园二区出口对面附近","320bdc5f1709147952e5c5c6","京旺家园小区二区-东门","320bdc5f1709147952e5c5c6"
"40.019003","116.553701","","1","北京市朝阳区蟹岛西路东150米","ac6c381d1ef8ade157bffff8","蟹岛员工生活区",""
"40.014822","116.561135","","1","北京市朝阳区东苇路","640ec0513db79b728bf15deb","金盏嘉园(C区)","640ec0513db79b728bf15deb"
"40.015364","116.563622","","1","北京市朝阳区金港南路附近","f2d9d9405739ecb92d473373","金盏嘉园-B区","f2d9d9405739ecb92d473373"
"40.014652","116.558244","","1","北京市朝阳区","ecbc1d928f077ac09f09f7cb","金盏嘉园d区","ecbc1d928f077ac09f09f7cb"
"40.014957","116.558696","","0","854路","be6394b00e63439131870a9e","长店小区西街",""
"40.016095","116.563127","","0","854路","6162a05dd36948c94f6d4662","长店小区中街",""
"40.015197","116.56632","","1","北京市朝阳区金盏乡长店大街","1840d4e0115f610e9d95def1","金盏嘉园","1840d4e0115f610e9d95def1"
"40.016506","116.566732","","1","东苇路金盏嘉园附近","0a250fa39235302f02294f49","金盏嘉园-A区","0a250fa39235302f02294f49"
"40.013093","116.56605","","1","兴一路附近","4c7fbdcc27b5e96322022088","榆园小区","4c7fbdcc27b5e96322022088"
"40.016566","116.567906","","0","418路;418路区间;854路","b1d895e1553d3cccfda7780e","长店小区东口",""
"40.014594","116.568356","","0","金盏家园A区10号楼陶乐园","8a899eea96620ec5a4c756fc","陶乐园学优教育(榆园小区东北)","8a899eea96620ec5a4c756fc"
"40.031125","116.456649","","1","北京市朝阳区来广营新北路甲8号","1223c1ebf089050f96f08c9f","松江家园","1223c1ebf089050f96f08c9f"
"40.028411","116.470589","","1","来广营西路7号","09185c5646cf8a5df019378b","北纬40度","09185c5646cf8a5df019378b"
"40.025634","116.469725","","1","北京市朝阳望京广顺北大街与来广营西路交汇处西侧","c4dd534954fe49589d9d68e3","臻园","c4dd534954fe49589d9d68e3"
"40.025041","116.467223","","1","来广营西路4号院","9b8c8164173785afc909f0e8","望京金茂府","9b8c8164173785afc909f0e8"
"40.026627","116.470962","","1","北京市朝阳区北纬40度南区18号楼","345b9bf9b79ffd4fd13ce38a","北纬40度南区-18号楼","345b9bf9b79ffd4fd13ce38a"
"40.030009","116.471321","","1","北京市朝阳区北纬40度2号院2号楼","c30b564703d7d6509de3215c","北纬40度2号院2号楼","c30b564703d7d6509de3215c"
"40.028853","116.470769","","1","北京市朝阳区北纬40度2号院15号楼","49c4d263248e920c2b11d1a7","北纬40度2号院15号楼","49c4d263248e920c2b11d1a7"
"40.028344","116.469833","","1","北京市朝阳区北纬40度7号院6号楼","b4cc3207ed3e9842ab175a81","北纬40度7号院6号楼","b4cc3207ed3e9842ab175a81"
"40.02859","116.470184","","1","北京市朝阳区北纬40度7号院5号楼","3954566c063792b1ab175aed","北纬40度7号院5号楼","3954566c063792b1ab175aed"
"40.029003","116.469553","","1","北京市朝阳区北纬40度7号院1号楼","7c90f4e6e97aa4fa631c67e6","北纬40度7号院1号楼","7c90f4e6e97aa4fa631c67e6"
"40.02943","116.470112","","1","北京市朝阳区北纬40度2号院5号楼","47a99dcbc3ea0795fb2d61ab","北纬40度2号院5号楼","47a99dcbc3ea0795fb2d61ab"
"40.027544","116.486218","","1","北京市朝阳区来广营东路18号","cd5d56e8fc39090ac2f1cff7","逸家公寓","cd5d56e8fc39090ac2f1cff7"
"40.029262","116.51305","","1","北京市朝阳区马南里小区14号楼","86107827d7cb5d59ed74f896","马泉营南里-14号楼","86107827d7cb5d59ed74f896"
"40.028378","116.513333","","1","北京市朝阳区马南里小区16号楼","b27a7206e414bb8932870a24","马南里小区-16号楼","b27a7206e414bb8932870a24"
"40.027374","116.513338","","1","北京市朝阳区马南里小区18号楼","f2c585ea25f6141a223bf2e4","马南里小区-18号楼","f2c585ea25f6141a223bf2e4"
"40.027923","116.513285","","1","北京市朝阳区马南里小区17号楼","5a111ec5399d652db23c8130","马南里小区-17号楼","5a111ec5399d652db23c8130"
"40.028745","116.513405","","1","北京市朝阳区马南里小区15号楼","998a738b087e9b392afc4853","马南里小区-15号楼","998a738b087e9b392afc4853"
"40.029656","116.513672","","1","北京市朝阳区","aa40108b2e159668c5effb9d","马南里小区-西门","aa40108b2e159668c5effb9d"
"40.029472","116.513476","","1","北京市朝阳区","cfaf7121ba6809dfe5e965cf","马泉营南里小区-东门","cfaf7121ba6809dfe5e965cf"
"40.029453","116.513533","","1","朝阳区崔各庄","896bbf1228b98faf5fd4fe7c","马南里小区-地上停车场","896bbf1228b98faf5fd4fe7c"
"40.029526","116.513692","","1","来广营东路8号马南里小区","ea4a3dc9586ca9504e554709","马南里小区-停车场","ea4a3dc9586ca9504e554709"
"40.028672","116.517074","(010)64361491","1","北京市朝阳区顺义中央别墅区马南里","96b672aad934d974cf04efb8","马南里小区","96b672aad934d974cf04efb8"
"40.031639","116.516885","","1","北京市朝阳区观唐路9号","85a1f32d79f5607732870a61","观塘东路9号","85a1f32d79f5607732870a61"
"40.027646","116.516474","","1","北京市朝阳区马南里小区11号楼","f1caef494febe5349c09f7a5","马南里小区-11号楼","f1caef494febe5349c09f7a5"
"40.03109","116.519794","","1","北京市朝阳区长岛澜桥47号楼","7f8871e4815acc4ea10464e0","长岛澜桥-47号楼","7f8871e4815acc4ea10464e0"
"40.029419","116.516856","","1","北京市朝阳区马南里小区4号楼","0e31070046ba34d9f942b2dd","马南里小区-4号楼","0e31070046ba34d9f942b2dd"
"40.028301","116.516378","","1","北京市朝阳区马南里小区10号楼","60d112843de2455ecac3dbd4","马泉营南里-10号楼","60d112843de2455ecac3dbd4"
"40.029043","116.516937","","1","北京市朝阳区马南里小区5号楼","a21975b8950cdf3908f5eb0c","马南里小区-5号楼","a21975b8950cdf3908f5eb0c"
"40.02933","116.515952","","1","北京市朝阳区马南里小区8号楼","144da5a0e7b7543963180978","马泉营南里-8号楼","144da5a0e7b7543963180978"
"40.029096","116.517833","","1","北京市朝阳区马南里小区1号楼","f3e6d21725a4e70886420e19","马南里小区-1号楼","f3e6d21725a4e70886420e19"
"40.029794","116.516859","","1","北京市朝阳区马南里小区3号楼","42190665194694f87cc876a0","马泉营南里-3号楼","42190665194694f87cc876a0"
"40.026179","116.529161","","1","朝阳区和平路一号","cde9e2c73fff43b4e91e978a","太利花园","cde9e2c73fff43b4e91e978a"
"40.026277","116.529818","","1","北京市朝阳区崔各庄和平路1号太利花园11号","6bccd485a69df19d157643bf","太利花园-11号楼","6bccd485a69df19d157643bf"
"40.026878","116.528782","","1","北京市朝阳区太利花园18号楼","bfd912353b9b00c7fb2d6194","太利花园-18号楼","bfd912353b9b00c7fb2d6194"
"40.026388","116.528796","","1","北京市朝阳区太利花园36号楼","285617782e000d55b6147f56","太利花园-36号楼","285617782e000d55b6147f56"
"40.02557","116.528411","","1","北京市朝阳区太利花园1号楼","192731e3c4f5b2bd88db73b5","太利花园-1号楼","192731e3c4f5b2bd88db73b5"
"40.025997","116.529586","","1","北京市朝阳区太利花园29号楼","bfdae1346f9a7482d13ce388","太利花园-29号楼","bfdae1346f9a7482d13ce388"
"40.026129","116.529969","","1","北京市朝阳区太利花园10号楼","c97f1b718f1a5b2eb9df8f30","太利花园-10号楼","c97f1b718f1a5b2eb9df8f30"
"40.026261","116.529517","","1","北京市朝阳区太利花园30号楼","e5b2724c6d9d4d98d0ff2361","太利花园-30号楼","e5b2724c6d9d4d98d0ff2361"
"40.025234","116.528335","","1","北京市朝阳区太利花园2号楼","cef82ae0b9f75ca2d4851f65","太利花园-2号楼","cef82ae0b9f75ca2d4851f65"
"40.026592","116.528812","","1","北京市朝阳区太利花园35号楼","f2919c48c6397ba028b97cf6","太利花园-35号楼","f2919c48c6397ba028b97cf6"
"40.028616","116.546884","","0","康营小区-孙河通勤班车","84648d64fef815a3f603b841","康营小区",""
"40.026213","116.563589","","1","北京市朝阳区","732b019c47453ce8f02d8308","建兴公寓","732b019c47453ce8f02d8308"
"40.022954","116.560277","","1","北京市朝阳区东苇路","1a1cf71cd385cf1104026fb5","墅岛房车营地",""
